{
"type": "FeatureCollection",
"name": "dongtan_iso30",
"crs": { "type": "name", "properties": { "name": "urn:ogc:def:crs:OGC:1.3:CRS84" } },
"features": [
{ "type": "Feature", "properties": { }, "geometry": { "type": "Polygon", "coordinates": [ [ [ 127.063102826858909, 37.503511018403088 ], [ 127.063068835492146, 37.504798230740029 ], [ 127.062781813438534, 37.506252850511608 ], [ 127.06212911667842, 37.507146320832526 ], [ 127.058944194337798, 37.506144629397838 ], [ 127.054272485126177, 37.504675749066493 ], [ 127.054254049237386, 37.504670050643938 ], [ 127.049454159027263, 37.503211881904789 ], [ 127.049295824222938, 37.503170744460782 ], [ 127.049133190788012, 37.50314216904674 ], [ 127.04896782489331, 37.503126430844688 ], [ 127.04880131901902, 37.503123681413577 ], [ 127.048635276621454, 37.503133947229998 ], [ 127.048471296694174, 37.503157129433141 ], [ 127.048310958372184, 37.503193004776918 ], [ 127.048155805727063, 37.503241227779377 ], [ 127.048007332899545, 37.503301334049219 ], [ 127.047866969712615, 37.503372744757314 ], [ 127.047736067903529, 37.503454772210091 ], [ 127.047615888107217, 37.503546626471234 ], [ 127.047507587716552, 37.503647422967909 ], [ 127.047412209736081, 37.503756191008399 ], [ 127.047330672736976, 37.503871883129122 ], [ 127.04726376200945, 37.503993385181026 ], [ 127.047212121998399, 37.504119527058286 ], [ 127.047176250094694, 37.504249093966159 ], [ 127.047156491842458, 37.50438083811931 ], [ 127.047153037608282, 37.504513490758086 ], [ 127.047165920744575, 37.504645774367013 ], [ 127.047195017265182, 37.504776414977954 ], [ 127.047240047036098, 37.504904154439245 ], [ 127.047300576470064, 37.505027762532848 ], [ 127.047376022699666, 37.505146048822631 ], [ 127.047465659187964, 37.50525787411987 ], [ 127.047568622723531, 37.505362161455245 ], [ 127.047683921732315, 37.505457906451781 ], [ 127.047810445826116, 37.505544186998932 ], [ 127.047946976496121, 37.505620172134194 ], [ 127.048092198848252, 37.505685130047077 ], [ 127.04824471426754, 37.505738435128059 ], [ 127.053035502673794, 37.507193846760707 ], [ 127.057697801974456, 37.508659776376888 ], [ 127.060781196239247, 37.509629543320202 ], [ 127.054255560755081, 37.521937828075046 ], [ 127.053042009565488, 37.523573852967289 ], [ 127.051632433302032, 37.524685887475393 ], [ 127.049498518787942, 37.525807228219051 ], [ 127.047382221608871, 37.526573657810317 ], [ 127.032440281563026, 37.530483733174428 ], [ 127.019018500358314, 37.533218792598596 ], [ 127.012530502289749, 37.534036970033647 ], [ 126.982041641269845, 37.533617244361778 ], [ 126.981888226320152, 37.533620637590083 ], [ 126.979173755566336, 37.533778648634993 ], [ 126.979016492842518, 37.533793700920214 ], [ 126.978861675989151, 37.533820359010264 ], [ 126.978710652517151, 37.533858390875622 ], [ 126.978564736925264, 37.533907465490223 ], [ 126.976486054811375, 37.534699468576129 ], [ 126.97632266182157, 37.534770744701696 ], [ 126.976170059029599, 37.53485584817475 ], [ 126.97393462598842, 37.536254079913959 ], [ 126.973819071671073, 37.536333287087409 ], [ 126.973712906313978, 37.536420430005606 ], [ 126.973616986091471, 37.536514805928562 ], [ 126.971220614831424, 37.539101927243991 ], [ 126.971120800594306, 37.539222705489557 ], [ 126.971037753870974, 37.539351280734323 ], [ 126.970972424479086, 37.53948618257985 ], [ 126.970041609735176, 37.541764211180912 ], [ 126.969982995200269, 37.541952746528096 ], [ 126.969037310291171, 37.546318669942664 ], [ 126.969017458294843, 37.546446303057529 ], [ 126.96845729431665, 37.552331370109158 ], [ 126.968453950574727, 37.552388469599258 ], [ 126.968355483736332, 37.552481693736823 ], [ 126.968261244318924, 37.552591121318223 ], [ 126.968180930438109, 37.552707376040246 ], [ 126.968115315606099, 37.552829338335442 ], [ 126.968065031788797, 37.552955833665379 ], [ 126.968030563317157, 37.553085643830954 ], [ 126.968012242220297, 37.553217518703732 ], [ 126.968010245024672, 37.553350188264645 ], [ 126.968024591050963, 37.553482374834807 ], [ 126.968400440840469, 37.555680770502228 ], [ 126.968403651259834, 37.555694475910485 ], [ 126.968405518043653, 37.555708338160663 ], [ 126.968406027542002, 37.55571028922521 ], [ 126.968406300757593, 37.555712263248594 ], [ 126.968409805746262, 37.555725489829527 ], [ 126.968412002262824, 37.555738893962989 ], [ 126.968413532773212, 37.555744147555949 ], [ 126.968414464157078, 37.555749498299157 ], [ 126.968415240196308, 37.555752068805205 ], [ 126.968415708867283, 37.555754686052843 ], [ 126.968417087768771, 37.555759176174973 ], [ 126.968417946455688, 37.555763747713193 ], [ 126.968425211671502, 37.555786723995247 ], [ 126.968430641336226, 37.555810019456437 ], [ 126.968430853547588, 37.555810603361017 ], [ 126.968430993521579, 37.555811200913652 ], [ 126.968435875887678, 37.555824589805454 ], [ 126.968439440396779, 37.555838239632614 ], [ 126.968440188784498, 37.555840144415264 ], [ 126.968440702957395, 37.555842084714499 ], [ 126.968445819523268, 37.555854974098345 ], [ 126.968449655776197, 37.555868142284517 ], [ 126.968451824465745, 37.555873248150895 ], [ 126.968453411060409, 37.555878503474425 ], [ 126.96845449984356, 37.555881001045535 ], [ 126.968455288492791, 37.55588356911818 ], [ 126.968457213578517, 37.555887930018287 ], [ 126.968458630977779, 37.555892412536643 ], [ 126.969173479843207, 37.55776053550899 ], [ 126.969229812272872, 37.557885405648875 ], [ 126.969301247956196, 37.55800527878614 ], [ 126.96938709898393, 37.558119000451022 ], [ 126.969486538605196, 37.558225475411966 ], [ 126.969598609187798, 37.558323678224454 ], [ 126.96972223143986, 37.55841266310793 ], [ 126.969856214803656, 37.558491573055356 ], [ 126.969999268921612, 37.558559648088071 ], [ 126.970150016064068, 37.558616232575993 ], [ 126.970307004399174, 37.558660781552881 ], [ 126.970468721976886, 37.558692865965668 ], [ 126.970633611292399, 37.55871217680739 ], [ 126.970800084288769, 37.558718528093671 ], [ 126.970966537653851, 37.558711858654178 ], [ 126.971131368264523, 37.558692232722052 ], [ 126.971292988628818, 37.558659839315091 ], [ 126.971449842177549, 37.558614990415045 ], [ 126.97159848923269, 37.5585588465554 ], [ 126.971750306311193, 37.558725192874249 ], [ 126.972582593832811, 37.559693814320674 ], [ 126.973830151091562, 37.561177723025928 ], [ 126.974012624039943, 37.56153675737194 ], [ 126.975158319049058, 37.564594659946025 ], [ 126.975242232740243, 37.565067196559625 ], [ 126.975285957754707, 37.565560358722003 ], [ 126.975237180624248, 37.566088095105542 ], [ 126.975233920801259, 37.566134035120285 ], [ 126.975075876667589, 37.569324762086509 ], [ 126.975060368235077, 37.569454187182707 ], [ 126.974553810488544, 37.569895885426376 ], [ 126.974467370360657, 37.569977508323213 ], [ 126.974389290150029, 37.570064305158745 ], [ 126.972797226257995, 37.571990391700687 ], [ 126.972762797696973, 37.572033816236328 ], [ 126.972112380795949, 37.572889765756827 ], [ 126.972047111812344, 37.572983922311742 ], [ 126.971991450980539, 37.5730819097801 ], [ 126.970754107933487, 37.575513334570147 ], [ 126.970700418035122, 37.575635281352746 ], [ 126.97066160027174, 37.575760750599621 ], [ 126.968099305924298, 37.586159488717904 ], [ 126.967024653112148, 37.589483268036332 ], [ 126.966106448166457, 37.590467432533778 ], [ 126.963256554567053, 37.592599083782034 ], [ 126.963230191663371, 37.59261923106974 ], [ 126.955973966447843, 37.598284634650724 ], [ 126.94068242469065, 37.610181684703662 ], [ 126.940654357515697, 37.610204032199661 ], [ 126.939403073177516, 37.611223858358407 ], [ 126.9393186620498, 37.611297947676498 ], [ 126.938108326933687, 37.61244262417587 ], [ 126.936965314220529, 37.613063718673772 ], [ 126.935338941335644, 37.61374110393028 ], [ 126.935170114773427, 37.613821656331368 ], [ 126.935014130206582, 37.613917198527119 ], [ 126.933763903359733, 37.61477915920409 ], [ 126.933654301192561, 37.614861783182846 ], [ 126.93355435032484, 37.614951819452088 ], [ 126.933464839727833, 37.615048557334148 ], [ 126.932123879781571, 37.616641408233818 ], [ 126.931739858346475, 37.616886551708468 ], [ 126.929466078828355, 37.617766520912433 ], [ 126.926588823018278, 37.618444716763769 ], [ 126.920123486066714, 37.618818296088705 ], [ 126.919957919784025, 37.618834385400099 ], [ 126.919795133228575, 37.618863305648965 ], [ 126.919636694044868, 37.61890477833132 ], [ 126.919484128018439, 37.618958404062269 ], [ 126.919338904384276, 37.619023666421427 ], [ 126.919202421679842, 37.619099936925465 ], [ 126.919075994277833, 37.619186481079574 ], [ 126.918960839729394, 37.619282465449864 ], [ 126.918858067038897, 37.619386965688506 ], [ 126.918768665983634, 37.619498975434368 ], [ 126.918693497580719, 37.619617416003543 ], [ 126.918633285793831, 37.619741146776491 ], [ 126.918588610559084, 37.619868976181735 ], [ 126.918559902197259, 37.619999673170433 ], [ 126.91854743726708, 37.620131979071424 ], [ 126.918551335898371, 37.62026461971233 ], [ 126.91857156063206, 37.620396317690414 ], [ 126.918607916777418, 37.620525804674621 ], [ 126.918660054283933, 37.620651833620677 ], [ 126.918727471109378, 37.620773190781229 ], [ 126.918809518052043, 37.620888707395764 ], [ 126.918905405000629, 37.620997270947264 ], [ 126.919014208541711, 37.621097835877549 ], [ 126.919134880851601, 37.621189433657705 ], [ 126.919266259786838, 37.621271182116928 ], [ 126.919407080076354, 37.621342293939577 ], [ 126.919555985507714, 37.621402084248743 ], [ 126.919711541989315, 37.62144997720317 ], [ 126.919872251363557, 37.621485511544016 ], [ 126.92003656583735, 37.621508345037945 ], [ 126.920202902891077, 37.621518257773637 ], [ 126.920369660522155, 37.621515154280281 ], [ 126.9270186174343, 37.621130961919455 ], [ 126.927200226288818, 37.621112600239208 ], [ 126.927378298889224, 37.621078808772047 ], [ 126.930566446434142, 37.620327332548747 ], [ 126.930698859799179, 37.620291340640513 ], [ 126.9308271022486, 37.620246806858816 ], [ 126.933398553634547, 37.619251629326975 ], [ 126.933564313064991, 37.619178102473967 ], [ 126.933718733150641, 37.619090333914528 ], [ 126.934454823758898, 37.618620435477595 ], [ 126.934583637897745, 37.618529284829883 ], [ 126.934700180272287, 37.618428222809932 ], [ 126.93480325175085, 37.61831828931232 ], [ 126.936162435752081, 37.616703728333533 ], [ 126.937090909475955, 37.616063585427369 ], [ 126.938630155460871, 37.615422481027103 ], [ 126.938800429138126, 37.615341138217843 ], [ 126.940217780972361, 37.614570961065915 ], [ 126.94034098881518, 37.614497275277841 ], [ 126.940455297131606, 37.61441501246243 ], [ 126.940559765639847, 37.614324849321676 ], [ 126.941879416000234, 37.613076751711098 ], [ 126.943072901270952, 37.612104007658147 ], [ 126.958351231635589, 37.60021694915865 ], [ 126.958353152863864, 37.600215451642896 ], [ 126.965597303188986, 37.594559340996426 ], [ 126.968544155506407, 37.592355113175906 ], [ 126.968649397587285, 37.592269071584461 ], [ 126.968744631120629, 37.592175939456723 ], [ 126.96995136890979, 37.590882462972246 ], [ 126.970042773007762, 37.590773890490219 ], [ 126.970120576774363, 37.590658802906894 ], [ 126.970184053321859, 37.590538275531131 ], [ 126.970232609636525, 37.590413434492717 ], [ 126.971402342095658, 37.586795104783107 ], [ 126.971424165476449, 37.586718417535906 ], [ 126.973964183419014, 37.576408247815699 ], [ 126.975089447807449, 37.574196879287612 ], [ 126.975653062356272, 37.57345512347208 ], [ 126.97715346839874, 37.571639844930409 ], [ 126.977845422599302, 37.571036467460154 ], [ 126.97793939492071, 37.57094707034404 ], [ 126.978023343700215, 37.570851562782536 ], [ 126.978096644977271, 37.570750654692581 ], [ 126.978158753942068, 37.570645096130917 ], [ 126.978282410990275, 37.570408925994847 ], [ 126.97833978045783, 37.570281820417577 ], [ 126.978380931208747, 37.570150793080252 ], [ 126.978405452670856, 37.57001715155107 ], [ 126.978462130926346, 37.56954396853331 ], [ 126.978468482255153, 37.569468866039031 ], [ 126.978627106038786, 37.566263503988615 ], [ 126.978682717246954, 37.565661531612783 ], [ 126.978683072292228, 37.565467146384833 ], [ 126.97862651526556, 37.564829581888887 ], [ 126.978614005998182, 37.564735529182109 ], [ 126.978503950218339, 37.564115937281358 ], [ 126.97848150929677, 37.564016539505452 ], [ 126.978449810380056, 37.563918752448998 ], [ 126.977244671848112, 37.560702568711882 ], [ 126.977191535187515, 37.560581907167418 ], [ 126.976913253621376, 37.560034404381661 ], [ 126.976839667443429, 37.559908611918893 ], [ 126.976750272367497, 37.559789486428969 ], [ 126.975400555454016, 37.558184138957287 ], [ 126.975390909565817, 37.558172790709484 ], [ 126.974540125318441, 37.557182685821772 ], [ 126.974512329724078, 37.557151303805753 ], [ 126.973808697967343, 37.556380356581236 ], [ 126.973711857575211, 37.55628423305987 ], [ 126.973717378281293, 37.556267368588102 ], [ 126.973743398024695, 37.556136316513623 ], [ 126.973753157352164, 37.556003865093146 ], [ 126.973746562361953, 37.555871289910911 ], [ 126.973723676653833, 37.555739867736342 ], [ 126.973684720713266, 37.555610864228179 ], [ 126.973630069784718, 37.555485521745887 ], [ 126.973560250255076, 37.55536504738545 ], [ 126.973475934581359, 37.555250601355404 ], [ 126.973377934812589, 37.555143285804142 ], [ 126.973267194767615, 37.555044134206938 ], [ 126.973144780944565, 37.554954101414161 ], [ 126.97301187224943, 37.554874054456796 ], [ 126.972877889060626, 37.554808732946064 ], [ 126.973930766637096, 37.553708290041982 ], [ 126.974025122657764, 37.553598925327698 ], [ 126.974105559600233, 37.553482724054817 ], [ 126.974171302858338, 37.553360805334236 ], [ 126.974221719347597, 37.553234343334992 ], [ 126.97425632359996, 37.55310455597548 ], [ 126.974274782436339, 37.552972693193297 ], [ 126.974276918172379, 37.55284002490729 ], [ 126.974262710326258, 37.552707828787085 ], [ 126.97423229581284, 37.552577377948452 ], [ 126.974185967621622, 37.552449928692681 ], [ 126.974124171992045, 37.552326708408138 ], [ 126.974047504113173, 37.552208903750554 ], [ 126.973956702389174, 37.552097649215789 ], [ 126.97385264132626, 37.551994016214962 ], [ 126.973736323109165, 37.551899002757494 ], [ 126.973608867949011, 37.55181352384087 ], [ 126.973471503294689, 37.551738402640161 ], [ 126.973325552012682, 37.551674362581593 ], [ 126.973172419648023, 37.551622020376826 ], [ 126.97301358089004, 37.551581880084768 ], [ 126.972850565372582, 37.551554328258192 ], [ 126.972684942945406, 37.551539630221846 ], [ 126.972518308558691, 37.5515379275177 ], [ 126.972352266906171, 37.551549236542229 ], [ 126.972188416974248, 37.551573448388446 ], [ 126.97202833664619, 37.551610329894643 ], [ 126.971928953709096, 37.551641920477451 ], [ 126.972397710729112, 37.546714773607214 ], [ 126.973308689728796, 37.542508211788146 ], [ 126.974116557923267, 37.540530871869336 ], [ 126.976213113564228, 37.53826734263739 ], [ 126.97812038014591, 37.537074353948185 ], [ 126.97974104722789, 37.536456857491629 ], [ 126.982059206271146, 37.536321914249122 ], [ 127.012620541368406, 37.536742616315721 ], [ 127.012768270804273, 37.536739508365358 ], [ 127.012915101189279, 37.536726182079157 ], [ 127.019628030654388, 37.535879642748718 ], [ 127.019783185231987, 37.535854112099223 ], [ 127.033337196642961, 37.533092106880432 ], [ 127.033446056634503, 37.533066803095501 ], [ 127.048530512878102, 37.529119421664078 ], [ 127.048703143537637, 37.529065753762914 ], [ 127.050810490751502, 37.528302563385537 ], [ 127.049122941500499, 37.531377030517589 ], [ 127.04909143495037, 37.531438497792138 ], [ 127.042394127804371, 37.545477471487629 ], [ 127.04233787641509, 37.545618020743305 ], [ 127.037363503662576, 37.560876595568992 ], [ 127.037329594002799, 37.56100650030794 ], [ 127.037311842387027, 37.561138425407798 ], [ 127.037310419857533, 37.561271100365552 ], [ 127.037325340200653, 37.561403247449952 ], [ 127.037356459810695, 37.561533594006868 ], [ 127.037403479069667, 37.561660884715707 ], [ 127.03746594522967, 37.561783893679447 ], [ 127.037543256770221, 37.561901436231267 ], [ 127.037634669188847, 37.56201238034447 ], [ 127.037739302169214, 37.562115657535628 ], [ 127.037856148057543, 37.562210273155749 ], [ 127.037984081566293, 37.562295315970658 ], [ 127.038121870611079, 37.562369966937965 ], [ 127.038268188176971, 37.562433507096152 ], [ 127.038421625099531, 37.562485324489835 ], [ 127.038580703637621, 37.562524920064291 ], [ 127.038743891707128, 37.562551912472607 ], [ 127.038909617638623, 37.562566041749072 ], [ 127.039076285316227, 37.562567171813235 ], [ 127.039242289552504, 37.562555291780825 ], [ 127.03940603155047, 37.562530516068549 ], [ 127.039565934304377, 37.562493083292019 ], [ 127.039720457790011, 37.562443353967275 ], [ 127.039868113798917, 37.562381807038172 ], [ 127.040007480273133, 37.562309035262921 ], [ 127.040137215002133, 37.562225739504512 ], [ 127.040256068550477, 37.562132721979793 ], [ 127.040362896291342, 37.562030878532397 ], [ 127.040456669429929, 37.561921190004007 ], [ 127.040536484910788, 37.56180471278698 ], [ 127.040601574113523, 37.561682568649573 ], [ 127.040651310253196, 37.561555933931423 ], [ 127.045601759908706, 37.546368717029758 ], [ 127.052250811955361, 37.532429656438111 ], [ 127.064108093083277, 37.51081983820351 ], [ 127.064112497874675, 37.510810596496029 ], [ 127.064117862179174, 37.510801668774398 ], [ 127.064121333343195, 37.510794052151404 ], [ 127.064125614783038, 37.510786701865634 ], [ 127.06412804353225, 37.510781166803106 ], [ 127.064131078247968, 37.510775836503022 ], [ 127.064175430639779, 37.51068652391988 ], [ 127.064565886794213, 37.510806854137719 ], [ 127.064730599891547, 37.510850048183102 ], [ 127.066906366453068, 37.511323953428274 ], [ 127.066958304348461, 37.511334566039537 ], [ 127.069840467557967, 37.51188494515867 ], [ 127.069908478555902, 37.511896762305327 ], [ 127.073546635126277, 37.51246684935743 ], [ 127.073711447012528, 37.512486036878691 ], [ 127.073877826291309, 37.512492263438858 ], [ 127.074044170553194, 37.51248546906902 ], [ 127.074208877726008, 37.512465719205636 ], [ 127.074370361506794, 37.512433204060166 ], [ 127.074527066642162, 37.512388236786947 ], [ 127.074677483908928, 37.512331250466644 ], [ 127.074820164651598, 37.51226279393471 ], [ 127.074953734735587, 37.512183526494788 ], [ 127.075076907782574, 37.512094211568041 ], [ 127.075188497560092, 37.511995709339821 ], [ 127.075287429405691, 37.511888968474317 ], [ 127.075372750576477, 37.51177501697704 ], [ 127.075443639423426, 37.511654952293355 ], [ 127.075499413302751, 37.511529930738327 ], [ 127.075539535148124, 37.51140115635971 ], [ 127.075563618640373, 37.511269869341568 ], [ 127.075571431924899, 37.511137334059825 ], [ 127.075562899841472, 37.511004826905456 ], [ 127.07553810464475, 37.510873623991813 ], [ 127.075497285208854, 37.510744988865206 ], [ 127.075440834723565, 37.510620160336501 ], [ 127.075369296904924, 37.510500340551438 ], [ 127.075283360756274, 37.510386683414019 ], [ 127.075183853930739, 37.510280283474778 ], [ 127.075071734758751, 37.51018216539093 ], [ 127.074948083018029, 37.51009327405945 ], [ 127.0748140895342, 37.510014465518623 ], [ 127.074671044713028, 37.509946498705105 ], [ 127.074520326113799, 37.509890028146337 ], [ 127.074363385184441, 37.509845597658163 ], [ 127.074201733285278, 37.509813635108593 ], [ 127.070597856603982, 37.509248921500074 ], [ 127.067775713882028, 37.508710005313361 ], [ 127.065709620667988, 37.508259990133922 ], [ 127.065509071199372, 37.508198185450546 ], [ 127.065922346225676, 37.507455020725992 ], [ 127.065976232383619, 37.507345481811505 ], [ 127.066017960651692, 37.50723262564825 ], [ 127.066030524594311, 37.507183099590605 ], [ 127.067923825356658, 37.505001923345489 ], [ 127.070755623290751, 37.503563094557066 ], [ 127.073213925025826, 37.502527737149165 ], [ 127.0755444741567, 37.501948244057083 ], [ 127.080312206555703, 37.500877921704721 ], [ 127.080523709104426, 37.500818153536358 ], [ 127.088977944718309, 37.497914078489018 ], [ 127.089189386201653, 37.497915447644019 ], [ 127.089370070822383, 37.497908937312992 ], [ 127.089548859347687, 37.497887141633001 ], [ 127.089723720568131, 37.497850308223384 ], [ 127.08989266789925, 37.497798855546201 ], [ 127.093364521027169, 37.496568713559462 ], [ 127.095380979445025, 37.495913960575947 ], [ 127.095540113220977, 37.495854453049432 ], [ 127.095690666146837, 37.495782147408697 ], [ 127.096807756587978, 37.49518066557701 ], [ 127.096954094094599, 37.495092318924648 ], [ 127.097087595080268, 37.494991892036104 ], [ 127.097565473801382, 37.494591280196211 ], [ 127.097668950987327, 37.494496012032286 ], [ 127.097760848711047, 37.494393482703629 ], [ 127.097840368980641, 37.494284582575389 ], [ 127.100108501928219, 37.490815905051463 ], [ 127.101487703963471, 37.489374326709502 ], [ 127.102083525008638, 37.488885202446681 ], [ 127.104188797825941, 37.489508587061856 ], [ 127.10849035349473, 37.490901483014198 ], [ 127.108526962173372, 37.490912944351379 ], [ 127.116407797018297, 37.493296269232147 ], [ 127.116587578286158, 37.493646816090447 ], [ 127.116658057391788, 37.493767028282697 ], [ 127.116742985343933, 37.493881157235528 ], [ 127.116841544281939, 37.493988103795218 ], [ 127.116952785055844, 37.494086837975615 ], [ 127.11707563636601, 37.494176408878936 ], [ 127.117208915080113, 37.494255953854498 ], [ 127.117351337627625, 37.494324706807973 ], [ 127.117501532362056, 37.494382005580555 ], [ 127.117658052772384, 37.494427298326919 ], [ 127.11781939141558, 37.494460148831045 ], [ 127.117983994436926, 37.494480240707887 ], [ 127.118150276537065, 37.494487380451062 ], [ 127.118316636242696, 37.494481499296825 ], [ 127.118481471332885, 37.494462653886444 ], [ 127.118643194272536, 37.494431025720608 ], [ 127.118800247504552, 37.494386919411149 ], [ 127.11895111845277, 37.494330759746866 ], [ 127.119064807360246, 37.494277047075812 ], [ 127.121142337688511, 37.495382489794054 ], [ 127.122367023670833, 37.49607452944386 ], [ 127.12312151116295, 37.496742255728272 ], [ 127.123238871376273, 37.496836388464615 ], [ 127.123367247035091, 37.496920902491688 ], [ 127.123505401795953, 37.496994983859757 ], [ 127.123652005121045, 37.497057919093095 ], [ 127.123805645093171, 37.497109102062389 ], [ 127.123964842015198, 37.497148039823152 ], [ 127.124128062662521, 37.497174357364003 ], [ 127.124293735051822, 37.497187801219006 ], [ 127.124460263582904, 37.497188241909193 ], [ 127.124626044408643, 37.497175675189773 ], [ 127.124789480884104, 37.497150222091065 ], [ 127.124948998946508, 37.497112127752672 ], [ 127.125103062277248, 37.497061759062213 ], [ 127.125250187100335, 37.496999601121225 ], [ 127.125388956474353, 37.496926252572528 ], [ 127.125518033940281, 37.496842419833833 ], [ 127.125636176393542, 37.496748910293434 ], [ 127.125742246056603, 37.496646624533291 ], [ 127.125835221436347, 37.496536547654607 ], [ 127.125914207160989, 37.496419739789587 ], [ 127.125978442601848, 37.496297325890396 ], [ 127.126027309196758, 37.496170484894364 ], [ 127.126060336404848, 37.496040438369022 ], [ 127.126077206235394, 37.495908438747122 ], [ 127.126077756307197, 37.495775757264525 ], [ 127.12606198140908, 37.495643671717104 ], [ 127.12603003354684, 37.495513454154953 ], [ 127.125982220476118, 37.495386358632004 ], [ 127.12591900273533, 37.495263609129339 ], [ 127.125840989207745, 37.495146387768258 ], [ 127.125748931255231, 37.495035823426669 ], [ 127.125643715480251, 37.494932980868533 ], [ 127.124763278893383, 37.494153810408115 ], [ 127.124630414628143, 37.494048544683785 ], [ 127.124483794955566, 37.493955592200763 ], [ 127.123086135701513, 37.493165822962851 ], [ 127.123046852882268, 37.493144279699379 ], [ 127.120164858509767, 37.491610788951576 ], [ 127.120017835285154, 37.491540834447854 ], [ 127.119862712243773, 37.491483043580132 ], [ 127.118339723034069, 37.490988633241294 ], [ 127.118320336152593, 37.490983206988354 ], [ 127.118301505565768, 37.490976653928811 ], [ 127.109749632401474, 37.488390439670489 ], [ 127.105442649797936, 37.486995793445054 ], [ 127.10539483567625, 37.486980976688756 ], [ 127.104782358846677, 37.486799624415319 ], [ 127.105600558599633, 37.486186992752586 ], [ 127.105648367979256, 37.486149754498285 ], [ 127.110504617375824, 37.482214920715428 ], [ 127.112825296545793, 37.480352324300732 ], [ 127.11434188720699, 37.479382889912834 ], [ 127.115672243617638, 37.478747027956253 ], [ 127.119245844938845, 37.478216490784455 ], [ 127.123040724810664, 37.47769545897652 ], [ 127.123269493576274, 37.477650823745542 ], [ 127.12501520253339, 37.477205811231286 ], [ 127.125154724565547, 37.477164789202561 ], [ 127.125289202578287, 37.477114186712804 ], [ 127.12626316648101, 37.476705161657421 ], [ 127.126406542651239, 37.476637581386875 ], [ 127.126540911353985, 37.47655912055675 ], [ 127.126664977104838, 37.476470535645461 ], [ 127.126777543767531, 37.476372680739878 ], [ 127.127655293290388, 37.475530072374681 ], [ 127.127754381738441, 37.475424939647965 ], [ 127.127840187567458, 37.475312632898614 ], [ 127.127911899256816, 37.475194214362752 ], [ 127.127968838603309, 37.475070804078804 ], [ 127.128010467133407, 37.474943569293181 ], [ 127.128254824242887, 37.474013586177101 ], [ 127.128287791348029, 37.473817492413126 ], [ 127.128380211304332, 37.472590600147456 ], [ 127.128379726233391, 37.47242234657292 ], [ 127.128248292118599, 37.470801977717919 ], [ 127.128229414011713, 37.470670150837449 ], [ 127.128194415180261, 37.470540433542375 ], [ 127.128143632760995, 37.47041407506763 ], [ 127.128077555886875, 37.470292292295056 ], [ 127.127996820973848, 37.470176258034918 ], [ 127.127902205589436, 37.470067089732034 ], [ 127.127794620962518, 37.469965838705249 ], [ 127.127675103206712, 37.469873480023942 ], [ 127.127544803341209, 37.469790903118756 ], [ 127.127404976206094, 37.469718903217249 ], [ 127.127256968378191, 37.469658173686746 ], [ 127.127102205204139, 37.469609299357899 ], [ 127.126942177075478, 37.46957275089364 ], [ 127.126778425077759, 37.469548880257314 ], [ 127.126612526151717, 37.469537917323734 ], [ 127.12644607790979, 37.469539967665909 ], [ 127.126280683253299, 37.469555011538496 ], [ 127.12611793493906, 37.469582904067963 ], [ 127.125959400243403, 37.469623376647547 ], [ 127.125806605871603, 37.469676039523499 ], [ 127.125661023257507, 37.469740385547944 ], [ 127.125524054395086, 37.46981579506204 ], [ 127.125397018338262, 37.469901541862491 ], [ 127.125281138498963, 37.469996800194117 ], [ 127.125177530865415, 37.470100652701085 ], [ 127.125087193254672, 37.470212099260102 ], [ 127.125010995702183, 37.470330066611034 ], [ 127.124949672081669, 37.47045341869169 ], [ 127.124903813035573, 37.470580967577675 ], [ 127.12487386028441, 37.470711484921885 ], [ 127.124860102370008, 37.470843713783374 ], [ 127.124862671873572, 37.470976380731983 ], [ 127.124987213932613, 37.472512638000474 ], [ 127.124908543484537, 37.47355637827318 ], [ 127.124775955709978, 37.4740609024579 ], [ 127.124382767668607, 37.474438336291115 ], [ 127.123839467260453, 37.474666497863829 ], [ 127.122348293987656, 37.475046623580546 ], [ 127.118658497874577, 37.475553225851023 ], [ 127.118635772952544, 37.475556472610975 ], [ 127.114750833291083, 37.476133226354278 ], [ 127.114603791975895, 37.476160499063106 ], [ 127.114460375079005, 37.476198082055738 ], [ 127.114321718341344, 37.476245677707638 ], [ 127.114188919813131, 37.476302909102273 ], [ 127.112497847276344, 37.477111173987609 ], [ 127.112308908855709, 37.477215991175385 ], [ 127.111227110776809, 37.477907492154394 ], [ 127.115002892055458, 37.472194189503668 ], [ 127.115032062933011, 37.472147917740358 ], [ 127.118350101214176, 37.466623030411846 ], [ 127.118422931401653, 37.4664817718823 ], [ 127.118475310471609, 37.466334867671819 ], [ 127.119716076798312, 37.4619200540631 ], [ 127.11974679033392, 37.461773330913935 ], [ 127.120252531908392, 37.458133075613745 ], [ 127.120262803140179, 37.457992899598693 ], [ 127.120427505656025, 37.437453174116179 ], [ 127.120425423425928, 37.437376993486573 ], [ 127.119974593151696, 37.430188866868278 ], [ 127.119413549903939, 37.421398232719035 ], [ 127.119557651454784, 37.41645868077623 ], [ 127.122427952768987, 37.396085949774026 ], [ 127.126225602716787, 37.396069010926119 ], [ 127.126745078801633, 37.396985086241287 ], [ 127.126820983529313, 37.397103144708801 ], [ 127.126911027135449, 37.397214698837502 ], [ 127.127014342487016, 37.397318674269535 ], [ 127.127129934620854, 37.397414069631786 ], [ 127.127256690325041, 37.39749996618098 ], [ 127.127393388859502, 37.397575536652909 ], [ 127.12753871371298, 37.397640053230752 ], [ 127.12769126528292, 37.397692894555611 ], [ 127.127849574356034, 37.397733551711582 ], [ 127.128012116259939, 37.397761633127914 ], [ 127.128177325549288, 37.397776868350768 ], [ 127.128343611084716, 37.397779110648479 ], [ 127.128509371359797, 37.397768338424875 ], [ 127.128673009927525, 37.39774465542736 ], [ 127.128832950778389, 37.397708289747627 ], [ 127.128987653521236, 37.397659591624489 ], [ 127.129135628220894, 37.397599030070253 ], [ 127.1292754497495, 37.397527188353031 ], [ 127.129405771513248, 37.397444758378455 ], [ 127.129525338422127, 37.397352534025075 ], [ 127.129632998977954, 37.397251403497648 ], [ 127.129727716364087, 37.397142340771907 ], [ 127.12980857842993, 37.397026396213384 ], [ 127.129874806474433, 37.396904686460545 ], [ 127.129925762743596, 37.396778383669883 ], [ 127.129960956570088, 37.396648704226465 ], [ 127.129980049096162, 37.396516897028619 ], [ 127.1299828565339, 37.396384231459869 ], [ 127.129969351931976, 37.396251985163786 ], [ 127.129939665432005, 37.396121431739481 ], [ 127.129902993632783, 37.396018772871706 ], [ 127.131099214590748, 37.39599763936323 ], [ 127.132356271040081, 37.396074891474917 ], [ 127.133466664743679, 37.3961506699967 ], [ 127.165942065561651, 37.401440818161198 ], [ 127.168411667420756, 37.401970664800523 ], [ 127.173921259458638, 37.403259677421339 ], [ 127.178233464932688, 37.404385271305607 ], [ 127.178382505585589, 37.404418247708179 ], [ 127.181132461578997, 37.404920098670182 ], [ 127.181190758074109, 37.40492987992198 ], [ 127.184733770460099, 37.405472598450515 ], [ 127.184876665031737, 37.405489484185722 ], [ 127.190322528925606, 37.405944706183035 ], [ 127.190339257598183, 37.405946037267697 ], [ 127.193503570348554, 37.406185137674584 ], [ 127.195090520886595, 37.406480257783919 ], [ 127.197452993928735, 37.407168109829378 ], [ 127.198011799877335, 37.407421596258466 ], [ 127.202472994358445, 37.409839300153742 ], [ 127.202615005366241, 37.409908385650191 ], [ 127.202764821783646, 37.409966034875808 ], [ 127.202921000743459, 37.410011692610297 ], [ 127.203082038091594, 37.41004491912252 ], [ 127.20324638287542, 37.410065394406303 ], [ 127.203412452283047, 37.410072921262753 ], [ 127.203578646889895, 37.410067427199955 ], [ 127.203743366065353, 37.410048965131153 ], [ 127.20390502339086, 37.410017712865162 ], [ 127.204062061941414, 37.409973971393526 ], [ 127.204212969282295, 37.409918161991335 ], [ 127.204356292037417, 37.409850822159235 ], [ 127.2044906498882, 37.409772600446075 ], [ 127.204614748868423, 37.409684250201835 ], [ 127.204727393826857, 37.409586622321271 ], [ 127.204827499937679, 37.409480657048007 ], [ 127.204914103147544, 37.409367374918205 ], [ 127.204986369459164, 37.409247866930983 ], [ 127.205043602961609, 37.409123284040305 ], [ 127.205085252530296, 37.408994826069666 ], [ 127.205110917132103, 37.408863730156305 ], [ 127.205120349684648, 37.408731258836191 ], [ 127.205113459432638, 37.408598687884741 ], [ 127.205090312818697, 37.408467294030288 ], [ 127.205051132840197, 37.40833834265846 ], [ 127.204996296898358, 37.4082130756263 ], [ 127.204926333160856, 37.408092699303033 ], [ 127.204841915472628, 37.40797837295284 ], [ 127.204743856864283, 37.407871197571538 ], [ 127.204633101720475, 37.407772205284509 ], [ 127.204510716683956, 37.407682349408013 ], [ 127.204377880382864, 37.407602495269458 ], [ 127.199860839803662, 37.405154557546844 ], [ 127.199746158915417, 37.405097596193443 ], [ 127.199005215837971, 37.404761491497204 ], [ 127.198879339490702, 37.404709816682399 ], [ 127.198748496579071, 37.404666702148411 ], [ 127.1961563544737, 37.403911984222077 ], [ 127.195960007395996, 37.403865329165136 ], [ 127.19416189966681, 37.403530941514973 ], [ 127.193936894201286, 37.403501656241907 ], [ 127.190667321718621, 37.403254604457935 ], [ 127.185301906195093, 37.40280610949651 ], [ 127.181859262400337, 37.402278765802322 ], [ 127.179213898893394, 37.401796004056258 ], [ 127.174950426006404, 37.400683132787066 ], [ 127.174900240041467, 37.400670715632906 ], [ 127.169347235098428, 37.399371550681764 ], [ 127.169310373570056, 37.399363285267434 ], [ 127.166772030621217, 37.398818691597683 ], [ 127.166670631958397, 37.398799581477526 ], [ 127.13404863415758, 37.393485557787884 ], [ 127.1338537523241, 37.393463098795245 ], [ 127.132637989896381, 37.393380130105733 ], [ 127.132623688630389, 37.393379202695876 ], [ 127.131275797230188, 37.393296368141677 ], [ 127.131108116665828, 37.393292705958388 ], [ 127.127292633763346, 37.393360074860567 ], [ 127.122478374470404, 37.393381572617685 ], [ 127.122447046755056, 37.392725478598408 ], [ 127.122435674552847, 37.392612374848753 ], [ 127.122412456438653, 37.392500430182494 ], [ 127.122024305995282, 37.3910181411526 ], [ 127.121971079778703, 37.390862140288426 ], [ 127.12118920844641, 37.389014396331859 ], [ 127.121126581527605, 37.388887803649688 ], [ 127.121048322119989, 37.388766875968017 ], [ 127.119930199283544, 37.387233678751329 ], [ 127.119843841977016, 37.387127103354004 ], [ 127.119745342069891, 37.3870274582587 ], [ 127.117625279859482, 37.385078261190841 ], [ 127.117603805765157, 37.385058894357215 ], [ 127.107963841047962, 37.376529284465875 ], [ 127.107162861483317, 37.375572198428443 ], [ 127.106477687083697, 37.374424303789077 ], [ 127.105919180177921, 37.373068279965644 ], [ 127.105639012860038, 37.371776658401082 ], [ 127.105646520336748, 37.370342460824524 ], [ 127.105807614211187, 37.345360694930541 ], [ 127.106169925246121, 37.299255397188901 ], [ 127.106169916834276, 37.29925524033311 ], [ 127.106169927662719, 37.299255083571936 ], [ 127.106561217288629, 37.247442940750325 ], [ 127.106555757848341, 37.247325931756201 ], [ 127.106537655589392, 37.247209739117352 ], [ 127.105471497574669, 37.242160085230971 ], [ 127.104998599489619, 37.239831774370032 ], [ 127.104966563550647, 37.239709850901107 ], [ 127.099591851164334, 37.223095684709961 ], [ 127.098958579126631, 37.220985265713232 ], [ 127.098277020640978, 37.217002540059205 ], [ 127.097943525068146, 37.200135153008411 ], [ 127.097939245241733, 37.20008247490302 ], [ 127.097936285390148, 37.200029712737901 ], [ 127.09793386724759, 37.200016279936762 ], [ 127.097932767507359, 37.200002743785518 ], [ 127.0979220535678, 37.199950654783287 ], [ 127.097912643006126, 37.199898378903335 ], [ 127.097908590591757, 37.199885200421654 ], [ 127.097905837541418, 37.199871815614344 ], [ 127.097888792631863, 37.199820817241317 ], [ 127.097873022094774, 37.199769531203685 ], [ 127.097867374465935, 37.199756733984259 ], [ 127.097862994601414, 37.199743629394455 ], [ 127.097839782791013, 37.199694212685422 ], [ 127.097817804302849, 37.199644410497584 ], [ 127.097810615889173, 37.199632117806289 ], [ 127.097804651362353, 37.199619419612901 ], [ 127.097775496069346, 37.199572060389144 ], [ 127.097747521474489, 37.199524221745129 ], [ 127.097738861552031, 37.199512551982316 ], [ 127.097731369766009, 37.199500382456009 ], [ 127.097696551610952, 37.199455536748651 ], [ 127.097662850526788, 37.199410122404238 ], [ 127.097652802549092, 37.199399187963316 ], [ 127.097643855606563, 37.199387664290363 ], [ 127.09760370971604, 37.199345763953403 ], [ 127.097564606928572, 37.199303211284693 ], [ 127.097553267720727, 37.199293117468805 ], [ 127.097542951731512, 37.199282350623612 ], [ 127.097497864517976, 37.199243799178682 ], [ 127.097453736845353, 37.199204517967082 ], [ 127.097441215669363, 37.199195361974446 ], [ 127.097429629923028, 37.199185455651623 ], [ 127.097380035371941, 37.199150624404361 ], [ 127.097331308026384, 37.19911499288866 ], [ 127.097317725526409, 37.199106862876235 ], [ 127.097304981538372, 37.199097912492448 ], [ 127.097251357037422, 37.199067136957794 ], [ 127.097198499521042, 37.199035498191336 ], [ 127.097183986559472, 37.19902847242605 ], [ 127.097170206999238, 37.199020564201177 ], [ 127.097113068749763, 37.198994140871676 ], [ 127.097056590324499, 37.198966799420177 ], [ 127.097041286719303, 37.198960945525641 ], [ 127.097026604231473, 37.198954155652174 ], [ 127.096966502286321, 37.198932339141052 ], [ 127.096906947060958, 37.198909558151861 ], [ 127.09689100023715, 37.198904932458035 ], [ 127.096875556166282, 37.198899326366679 ], [ 127.096813069140978, 37.198882326952656 ], [ 127.096751010823894, 37.198864325624619 ], [ 127.096734574392244, 37.198860972626449 ], [ 127.096718517423554, 37.198856604355058 ], [ 127.09665424693145, 37.198844585953005 ], [ 127.096590283299619, 37.198831537430515 ], [ 127.096573515575713, 37.198829489360818 ], [ 127.096557000305168, 37.198826401032761 ], [ 127.096491565170325, 37.198819479609831 ], [ 127.096426312307642, 37.198811509321246 ], [ 127.096409374786361, 37.19881078584195 ], [ 127.096392560233241, 37.198809007258951 ], [ 127.096326590536165, 37.198807249711528 ], [ 127.096260676897231, 37.198804434167926 ], [ 127.096243732696919, 37.198805042182506 ], [ 127.096226780773577, 37.198804590535957 ], [ 127.096160911786697, 37.198808014038661 ], [ 127.096094972143391, 37.198810380104085 ], [ 127.096078184434816, 37.198812313692848 ], [ 127.096061258388119, 37.198813193396489 ], [ 127.095996124460044, 37.198821765229646 ], [ 127.095930793788682, 37.1988292898696 ], [ 127.095914324223969, 37.198832530348632 ], [ 127.095897587063462, 37.19883473299415 ], [ 127.095833815509891, 37.198848370851643 ], [ 127.095769722878572, 37.198860981362088 ], [ 127.095753730035298, 37.198865497464922 ], [ 127.095737342963119, 37.198869001901116 ], [ 127.095675548024104, 37.198887574676114 ], [ 127.095613310538283, 37.198905149390306 ], [ 127.095597948393475, 37.198910897570684 ], [ 127.095582069251336, 37.198915670105414 ], [ 127.095522846172514, 37.198938999146392 ], [ 127.095463063037556, 37.198961368612686 ], [ 127.09544847948635, 37.198968293465391 ], [ 127.095433261234334, 37.198974288188467 ], [ 127.095377180529738, 37.199002149013886 ], [ 127.095320427286907, 37.199029097632845 ], [ 127.095306762720114, 37.199037132428501 ], [ 127.095292351962343, 37.199044291652413 ], [ 127.09523995391352, 37.199076416107772 ], [ 127.095186776905294, 37.199107684212542 ], [ 127.095174162859649, 37.199116751541098 ], [ 127.095160698430348, 37.199125006355523 ], [ 127.095112487875937, 37.19916108519206 ], [ 127.095063398992934, 37.199196371551984 ], [ 127.095051956886365, 37.199206384068809 ], [ 127.095039568511083, 37.1992156550034 ], [ 127.094996009976725, 37.199255340853796 ], [ 127.094951481736857, 37.199294305576963 ], [ 127.094941321701711, 37.199305166844219 ], [ 127.094930128745602, 37.199315364633506 ], [ 127.094891641961283, 37.199358275356232 ], [ 127.094852102968403, 37.199400543162788 ], [ 127.094843322792968, 37.199412148577998 ], [ 127.094833433109088, 37.199423175020954 ], [ 127.09480038895785, 37.199468897380754 ], [ 127.094766219782898, 37.199514061215829 ], [ 127.094758903971822, 37.199526299018764 ], [ 127.09475041285998, 37.199538047924811 ], [ 127.09472312979733, 37.199586141574081 ], [ 127.094694659321192, 37.199633766525167 ], [ 127.094688878283833, 37.199646518873266 ], [ 127.0946818675706, 37.199658877085554 ], [ 127.094660608548949, 37.199708878808096 ], [ 127.09463811080262, 37.199758506289704 ], [ 127.094633920176435, 37.199771650391888 ], [ 127.094628457425145, 37.199784498877953 ], [ 127.094613427353735, 37.199835927054444 ], [ 127.094597118885233, 37.199887079219266 ], [ 127.094594559001479, 37.199900488516931 ], [ 127.094590696859527, 37.199913703516366 ], [ 127.094582040624573, 37.199966062767814 ], [ 127.094572078418025, 37.200018247102776 ], [ 127.094571173914247, 37.200031792487088 ], [ 127.09456894960465, 37.200045246704846 ], [ 127.094566750668605, 37.200098032669501 ], [ 127.094563230635387, 37.200150746732348 ], [ 127.094563990218759, 37.200164297785818 ], [ 127.094563425180482, 37.2001778616198 ], [ 127.094897773311828, 37.217126598854925 ], [ 127.094913167696319, 37.217288548585145 ], [ 127.095619753724293, 37.221418593036276 ], [ 127.095650804141144, 37.221550749391824 ], [ 127.096307096312529, 37.223738202849376 ], [ 127.096314285204187, 37.223761267492037 ], [ 127.101672513623072, 37.240326711872761 ], [ 127.102133657021213, 37.242597640244817 ], [ 127.102135377986968, 37.242605951229578 ], [ 127.103177753491494, 37.247544003273063 ], [ 127.102785037446381, 37.299238546133466 ], [ 127.102420653329546, 37.34534443183103 ], [ 127.102420642284585, 37.345345965792987 ], [ 127.102258416482982, 37.370329144591608 ], [ 127.102250204954046, 37.371884322839065 ], [ 127.102256103996851, 37.372002896744817 ], [ 127.10227500758819, 37.37212060113454 ], [ 127.102601702483355, 37.373627031637625 ], [ 127.102661580119829, 37.373818600174367 ], [ 127.103292389277271, 37.375350329241456 ], [ 127.103372332923755, 37.375509584373987 ], [ 127.104156435954124, 37.376823306617339 ], [ 127.104277081849389, 37.376992770238417 ], [ 127.105214353751663, 37.378112761355908 ], [ 127.105365047004071, 37.378267296972112 ], [ 127.115076478472133, 37.386860409516913 ], [ 127.117081305530306, 37.388703719319835 ], [ 127.118033019825106, 37.390008802963031 ], [ 127.118727589412103, 37.391650397024719 ], [ 127.119065765552619, 37.392942059742374 ], [ 127.119087448717835, 37.393396596912261 ], [ 127.112062138147849, 37.393427414747116 ], [ 127.112046582064636, 37.393418886750204 ], [ 127.111900947817418, 37.393354827865437 ], [ 127.111748145469136, 37.393302466487562 ], [ 127.111589646531172, 37.3932623068604 ], [ 127.111426977365142, 37.393234735723212 ], [ 127.11126170448577, 37.393220018586902 ], [ 127.111095419477593, 37.393218297177611 ], [ 127.110929723670267, 37.393229588072082 ], [ 127.110766212720193, 37.393253782538096 ], [ 127.110606461246803, 37.393290647581409 ], [ 127.1104520076711, 37.393339828189127 ], [ 127.110304339402774, 37.39340085074808 ], [ 127.110164878517892, 37.393473127605006 ], [ 127.110034968065492, 37.393555962725003 ], [ 127.109915859134745, 37.393648558393473 ], [ 127.109808698806901, 37.393750022897308 ], [ 127.109714519108451, 37.393859379111305 ], [ 127.109634227071638, 37.393975573907134 ], [ 127.109568595997985, 37.394097488294236 ], [ 127.109518258009359, 37.394223948195318 ], [ 127.109483697957884, 37.394353735752318 ], [ 127.109465248754034, 37.394485601054313 ], [ 127.109463088157383, 37.394618274174306 ], [ 127.109477237061554, 37.394750477398979 ], [ 127.109507559289639, 37.394880937533763 ], [ 127.109553762902451, 37.395008398164556 ], [ 127.109615403006899, 37.395131631758176 ], [ 127.109691886037837, 37.395249451484773 ], [ 127.109782475471974, 37.395360722648626 ], [ 127.109886298918994, 37.395464373616882 ], [ 127.110002356521903, 37.395559406141146 ], [ 127.110288950020234, 37.395772120570044 ], [ 127.110326495080329, 37.395797361835456 ], [ 127.110362737223454, 37.395823787556999 ], [ 127.110369218451808, 37.395827655816497 ], [ 127.110375284180492, 37.395831994315529 ], [ 127.110396274303085, 37.395844273812735 ], [ 127.110416124769259, 37.39585761909391 ], [ 127.11045659009622, 37.395879802677932 ], [ 127.110495904295917, 37.395903266906409 ], [ 127.110502827325973, 37.395906608610382 ], [ 127.110509398770418, 37.395910452977752 ], [ 127.110531799293227, 37.395921033202299 ], [ 127.110553191198164, 37.395932760467218 ], [ 127.110596187080702, 37.395951672720464 ], [ 127.110638194711839, 37.395971949472845 ], [ 127.110645492844213, 37.395974732877768 ], [ 127.110652506744941, 37.395978045673409 ], [ 127.11067610193949, 37.395986824160268 ], [ 127.110698829252001, 37.395996821005717 ], [ 127.110743941603616, 37.39601227978423 ], [ 127.110788238097413, 37.396029173775446 ], [ 127.110795841117451, 37.396031372483179 ], [ 127.110803229855208, 37.396034121417991 ], [ 127.110827792359217, 37.396041013099854 ], [ 127.110851636311395, 37.396049183742498 ], [ 127.110898430658779, 37.39606104016233 ], [ 127.110944589399267, 37.396074388686259 ], [ 127.11095242424382, 37.396075981883705 ], [ 127.11096011650055, 37.396078140145171 ], [ 127.110985409521362, 37.396083078190571 ], [ 127.111010140702092, 37.396089344370914 ], [ 127.111058166369972, 37.396097484242226 ], [ 127.11110574280336, 37.396107158738893 ], [ 127.111113734251489, 37.396108131385617 ], [ 127.111121655710107, 37.396109677908981 ], [ 127.111147435323545, 37.396112614382339 ], [ 127.111172815870319, 37.396116916102223 ], [ 127.111221610322588, 37.396121261029229 ], [ 127.111270146239121, 37.396127168323218 ], [ 127.111278217620779, 37.396127511285727 ], [ 127.111286291697127, 37.396128430967472 ], [ 127.11131230921832, 37.396129337304096 ], [ 127.111338095087063, 37.396131633391391 ], [ 127.111387188381883, 37.396132141527509 ], [ 127.111436216329764, 37.396134224725451 ], [ 127.111444290246212, 37.396133934857268 ], [ 127.111452438844637, 37.39613421870849 ], [ 127.119015174766901, 37.396101067893426 ], [ 127.116180254123492, 37.416216183979152 ], [ 127.116170098600051, 37.416335763288558 ], [ 127.116022558189073, 37.421385394355106 ], [ 127.116024286426466, 37.421485573442865 ], [ 127.11658801302022, 37.430324485894424 ], [ 127.117036096394557, 37.437473956699051 ], [ 127.116871341086139, 37.457905257831463 ], [ 127.116385438335939, 37.461401587463349 ], [ 127.115207012039349, 37.465593935185268 ], [ 127.111985957707958, 37.470956963153995 ], [ 127.106791196370338, 37.478816651021887 ], [ 127.103012157256401, 37.484198226212307 ], [ 127.101341198401187, 37.485381925771996 ], [ 127.101339951406146, 37.485382900499211 ], [ 127.101338592777594, 37.485383775361697 ], [ 127.101309894379952, 37.485406300240356 ], [ 127.101279829075551, 37.485427615697397 ], [ 127.101276956362966, 37.485430095096554 ], [ 127.101273806587827, 37.485432350720302 ], [ 127.101260491116093, 37.485443958722016 ], [ 127.101246122572803, 37.485454739868942 ], [ 127.101234726708128, 37.4854651503871 ], [ 127.101222333590172, 37.485474837567629 ], [ 127.101221212489833, 37.485475904999767 ], [ 127.10121996801, 37.485476881767354 ], [ 127.100949534040623, 37.485711057098165 ], [ 127.100562126156007, 37.48560683062653 ], [ 127.100162866156779, 37.485445917845595 ], [ 127.099527047079562, 37.485045942693183 ], [ 127.098066787108223, 37.483985813933771 ], [ 127.096930497136171, 37.482914649829048 ], [ 127.096809784634175, 37.482812170366557 ], [ 127.096676374073752, 37.482720231402773 ], [ 127.096531707254371, 37.482639826513477 ], [ 127.09637734760507, 37.482571824623726 ], [ 127.095204460026096, 37.482116849596594 ], [ 127.095070011771142, 37.482070307217107 ], [ 127.094931024140323, 37.482033186936235 ], [ 127.094788534623618, 37.482005765841059 ], [ 127.09464360684693, 37.481988248618016 ], [ 127.093565002772223, 37.481895648140835 ], [ 127.093489476583557, 37.481890520886466 ], [ 127.091912442236875, 37.48181168115989 ], [ 127.091902518380763, 37.481811208233289 ], [ 127.090074635952291, 37.481728367617862 ], [ 127.089943053087865, 37.481726477370749 ], [ 127.087464158079229, 37.481767487274141 ], [ 127.08729087441418, 37.481777442399817 ], [ 127.087119776732635, 37.481801467450538 ], [ 127.084475802312284, 37.482285084261143 ], [ 127.084302207724974, 37.482324691255208 ], [ 127.084134878280011, 37.48237877630536 ], [ 127.083975709310209, 37.482446726796731 ], [ 127.08337648903715, 37.482736248273994 ], [ 127.083364152599145, 37.48274288951297 ], [ 127.08335118494648, 37.482748717269864 ], [ 127.083335895661776, 37.482757263073076 ], [ 127.083319759760215, 37.482764893176537 ], [ 127.083279641645916, 37.48278838535343 ], [ 127.083238522977553, 37.48281052123933 ], [ 127.083227062772593, 37.482818094088039 ], [ 127.083214874336917, 37.482824906675319 ], [ 127.083200706980932, 37.482834607460411 ], [ 127.0831855904283, 37.482843459311724 ], [ 127.083148560458511, 37.482869967970728 ], [ 127.083110356360407, 37.482895212976288 ], [ 127.083099882754652, 37.482903644507061 ], [ 127.083088590914898, 37.482911376318633 ], [ 127.083075682115634, 37.482922139329254 ], [ 127.083061730304692, 37.482932126987002 ], [ 127.083028144602181, 37.482961395548301 ], [ 127.082993223483669, 37.48298950789043 ], [ 127.082983837343349, 37.482998716906074 ], [ 127.082973550845239, 37.483007293483354 ], [ 127.0824335827932, 37.483504177471936 ], [ 127.082327441670728, 37.483612521161575 ], [ 127.08223565262243, 37.483728892725843 ], [ 127.082159164351566, 37.483852089470261 ], [ 127.082098767440783, 37.48398083815664 ], [ 127.081724308472417, 37.484922453149345 ], [ 127.079867795994716, 37.489080340745332 ], [ 127.078595907512749, 37.491872040744454 ], [ 127.077384352339479, 37.491472417938873 ], [ 127.074881943088499, 37.490640893808084 ], [ 127.074864310690401, 37.490635126915535 ], [ 127.073873610816634, 37.490316269600584 ], [ 127.073380641667484, 37.490151768838984 ], [ 127.073224081901785, 37.490106583466186 ], [ 127.073062717932828, 37.490073843165213 ], [ 127.072898103708368, 37.490053863226343 ], [ 127.072731824471163, 37.490046836056727 ], [ 127.072565481495374, 37.490052829327681 ], [ 127.072400676668735, 37.490071785323295 ], [ 127.072238997068879, 37.490103521496053 ], [ 127.072081999681942, 37.490147732224564 ], [ 127.071931196410986, 37.490203991756267 ], [ 127.071788039518196, 37.490271758306854 ], [ 127.07165390764078, 37.490350379276947 ], [ 127.071530092515701, 37.490439097535926 ], [ 127.071417786540493, 37.490537058712128 ], [ 127.07131807129025, 37.490643319419767 ], [ 127.07123190710108, 37.490756856342855 ], [ 127.071160123820746, 37.490876576089079 ], [ 127.071103412815148, 37.491001325718578 ], [ 127.071062320308229, 37.491129903846421 ], [ 127.07103724211872, 37.491261072211621 ], [ 127.071028419845533, 37.491393567601762 ], [ 127.071035938537804, 37.49152611401793 ], [ 127.071059725872402, 37.491657434963145 ], [ 127.071099552847329, 37.491786265735833 ], [ 127.071155035983779, 37.491911365609916 ], [ 127.071225641016468, 37.49203152978432 ], [ 127.071310688036107, 37.492145600986596 ], [ 127.071409358035282, 37.49225248061915 ], [ 127.071520700794352, 37.492351139340414 ], [ 127.071643644031454, 37.492440626979267 ], [ 127.071777003728926, 37.492520081686955 ], [ 127.071919495536136, 37.492588738238489 ], [ 127.072069747139651, 37.492645935403409 ], [ 127.072572670722451, 37.49281375889867 ], [ 127.072592604851735, 37.492820292510011 ], [ 127.073584488571498, 37.493139532794288 ], [ 127.076080202664414, 37.493968837087507 ], [ 127.0760842702703, 37.493970183724535 ], [ 127.083669461192216, 37.496471845457528 ], [ 127.083677804321255, 37.496474576064017 ], [ 127.084149980445574, 37.496627945122604 ], [ 127.079283407287349, 37.498299534571089 ], [ 127.074601270047523, 37.499350637031782 ], [ 127.074555875327832, 37.49936137359164 ], [ 127.072053497676663, 37.499983589154922 ], [ 127.071906963058865, 37.500026000068409 ], [ 127.07176593194032, 37.500078946122031 ], [ 127.069108280610692, 37.50119825566081 ], [ 127.068988835112677, 37.501253630554537 ], [ 127.066373359900183, 37.502582537860846 ], [ 127.06624942939996, 37.50182827980219 ], [ 127.066220306653051, 37.501699683886905 ], [ 127.066175738047605, 37.50157392841399 ], [ 127.066116139973559, 37.501452188059865 ], [ 127.064969971936819, 37.499408536584433 ], [ 127.064885263491888, 37.499277248395458 ], [ 127.06478309531289, 37.499154100426068 ], [ 127.064664685401979, 37.499040560689998 ], [ 127.058418763391686, 37.493675995595112 ], [ 127.058316118814517, 37.493595028286293 ], [ 127.058205204426017, 37.493521309562269 ], [ 127.058086823849507, 37.493455373532008 ], [ 127.049034092499468, 37.488856706681375 ], [ 127.048859276437256, 37.488779045948817 ], [ 127.042354135271339, 37.486277564750104 ], [ 127.042125245195777, 37.486205340839241 ], [ 127.034307092270254, 37.484247634214867 ], [ 127.034145994406543, 37.48421411228022 ], [ 127.033981549187175, 37.484193334683837 ], [ 127.033815340227662, 37.484185501514283 ], [ 127.033648968125533, 37.484190688204684 ], [ 127.033484035049, 37.484208844806439 ], [ 127.033322129310449, 37.48423979647022 ], [ 127.033164810073416, 37.48428324512944 ], [ 127.033013592339927, 37.484338772370307 ], [ 127.032869932362772, 37.4844058434606 ], [ 127.032735213623212, 37.484483812498354 ], [ 127.03261073350896, 37.484571928631233 ], [ 127.032497690820719, 37.484669343286349 ], [ 127.032397174227327, 37.484775118341233 ], [ 127.032310151781218, 37.484888235157079 ], [ 127.032237461594647, 37.48500760438769 ], [ 127.032179803766653, 37.4851320764691 ], [ 127.032137733638763, 37.485260452689651 ], [ 127.032111656444286, 37.485391496733278 ], [ 127.032101823402655, 37.485523946585253 ], [ 127.032108329297103, 37.485656526685688 ], [ 127.032131111558371, 37.485787960213671 ], [ 127.032169950864159, 37.485916981383816 ], [ 127.032224473247908, 37.486042347636847 ], [ 127.032294153697578, 37.486162851606686 ], [ 127.032378321208952, 37.486277332748784 ], [ 127.032476165245754, 37.486384688517809 ], [ 127.032586743543803, 37.486483884986939 ], [ 127.032708991184535, 37.486573966806276 ], [ 127.032841730850322, 37.486654066404775 ], [ 127.032983684162986, 37.486723412346656 ], [ 127.033133483995954, 37.486781336762078 ], [ 127.033289687642139, 37.486827281780222 ], [ 127.040990336551673, 37.48875557701956 ], [ 127.047294197183575, 37.491179676153997 ], [ 127.056078807325051, 37.495642203528853 ], [ 127.061985687881588, 37.500715717562535 ], [ 127.062916220321029, 37.50237500629823 ], [ 127.063102826858909, 37.503511018403088 ] ], [ [ 127.085501264353439, 37.484871897057239 ], [ 127.087708929748146, 37.48446808568319 ], [ 127.089947685502665, 37.484431048019538 ], [ 127.091704922697673, 37.484510686848125 ], [ 127.093239215931888, 37.484587390361156 ], [ 127.093985641394838, 37.484651473576733 ], [ 127.094570231003985, 37.484878243822614 ], [ 127.095546696917651, 37.485798769375116 ], [ 127.095699772259664, 37.485925367656087 ], [ 127.097286049523362, 37.487077009441279 ], [ 127.097377382518459, 37.487138758313932 ], [ 127.098193866343649, 37.487652392782977 ], [ 127.098332074829798, 37.4877307297415 ], [ 127.098479407782904, 37.487797680039257 ], [ 127.098550546146583, 37.487826351288142 ], [ 127.097208358422336, 37.48917471103664 ], [ 127.097113519351311, 37.489279976351476 ], [ 127.097031762383764, 37.489391992774692 ], [ 127.094837465803479, 37.492759990511978 ], [ 127.094666978421301, 37.492903356406366 ], [ 127.093862082808016, 37.493318074442641 ], [ 127.092000212968671, 37.493944674549866 ], [ 127.090352771937489, 37.494497043058999 ], [ 127.090338999001375, 37.494501717925175 ], [ 127.088598233808312, 37.495099800121551 ], [ 127.088340973058578, 37.495018855186814 ], [ 127.08827443580978, 37.4949991909359 ], [ 127.08727018365208, 37.494721282879119 ], [ 127.08496313372153, 37.493971950840589 ], [ 127.081734612067748, 37.492907242480079 ], [ 127.083059497420933, 37.489998952702621 ], [ 127.083063161167928, 37.489990829216048 ], [ 127.084931268171076, 37.485806575634236 ], [ 127.084950152538326, 37.485761814693227 ], [ 127.085227816682774, 37.485063527544568 ], [ 127.085363971234528, 37.484938232792217 ], [ 127.085501264353439, 37.484871897057239 ] ] ] } }
]
}
