{
"type": "FeatureCollection",
"name": "dongtan_buildings",
"crs": { "type": "name", "properties": { "name": "urn:ogc:def:crs:OGC:1.3:CRS84" } },
"features": [
{ "type": "Feature", "properties": { "element": "way", "id": 469945197, "DQD_AR_GBN": "제1종근린생활시설", "far": 398.8, "gross_area": 6538.78 }, "geometry": { "type": "Polygon", "coordinates": [ [ [ 127.1109102, 37.205797 ], [ 127.1110942, 37.2058782 ], [ 127.1111144, 37.2059358 ], [ 127.1109576, 37.2061623 ], [ 127.1107378, 37.2060658 ], [ 127.1107856, 37.2059968 ], [ 127.1107312, 37.2059729 ], [ 127.1108427, 37.2058118 ], [ 127.1109102, 37.205797 ] ] ] } },
{ "type": "Feature", "properties": { "element": "way", "id": 469945200, "DQD_AR_GBN": "제2종근린생활시설", "far": 398.81, "gross_area": 6372.05 }, "geometry": { "type": "Polygon", "coordinates": [ [ [ 127.1108149, 37.2061262 ], [ 127.1109346, 37.206181 ], [ 127.1107548, 37.2064301 ], [ 127.110569, 37.2063449 ], [ 127.1106404, 37.2062497 ], [ 127.1106148, 37.2062383 ], [ 127.1106476, 37.2061913 ], [ 127.1106734, 37.2062028 ], [ 127.1107154, 37.2061456 ], [ 127.1107796, 37.206175 ], [ 127.1108149, 37.2061262 ] ] ] } },
{ "type": "Feature", "properties": { "element": "way", "id": 469945201, "DQD_AR_GBN": "제1종근린생활시설", "far": 401.22, "gross_area": 6685.36 }, "geometry": { "type": "Polygon", "coordinates": [ [ [ 127.1102297, 37.2066871 ], [ 127.1104674, 37.2067915 ], [ 127.1102615, 37.2070889 ], [ 127.1100755, 37.2070072 ], [ 127.1101696, 37.2068713 ], [ 127.1101179, 37.2068486 ], [ 127.1102297, 37.2066871 ] ] ] } },
{ "type": "Feature", "properties": { "element": "way", "id": 469945203, "DQD_AR_GBN": "제1종근린생활시설", "far": 401.29, "gross_area": 6321.13 }, "geometry": { "type": "Polygon", "coordinates": [ [ [ 127.1090842, 37.2082276 ], [ 127.1089205, 37.2081179 ], [ 127.109177, 37.2079394 ], [ 127.1093159, 37.2079245 ], [ 127.1093816, 37.2079694 ], [ 127.1093623, 37.2080367 ], [ 127.1090842, 37.2082276 ] ] ] } },
{ "type": "Feature", "properties": { "element": "way", "id": 470128146, "DQD_AR_GBN": "제2종근린생활시설", "far": 399.19, "gross_area": 6658.25 }, "geometry": { "type": "Polygon", "coordinates": [ [ [ 127.1105684, 37.2064113 ], [ 127.1105918, 37.2063769 ], [ 127.1107454, 37.2064432 ], [ 127.1106726, 37.2065474 ], [ 127.1105235, 37.2067056 ], [ 127.110286, 37.2066067 ], [ 127.1104649, 37.2063648 ], [ 127.1105684, 37.2064113 ] ] ] } },
{ "type": "Feature", "properties": { "element": "way", "id": 470128148, "DQD_AR_GBN": "제1종근린생활시설", "far": 393.35, "gross_area": 6129.04 }, "geometry": { "type": "Polygon", "coordinates": [ [ [ 127.1100167, 37.2069933 ], [ 127.1102847, 37.2071203 ], [ 127.1102216, 37.2072195 ], [ 127.1101554, 37.2072922 ], [ 127.1100055, 37.2072307 ], [ 127.1100108, 37.2072235 ], [ 127.1098848, 37.2071722 ], [ 127.1100167, 37.2069933 ] ] ] } },
{ "type": "Feature", "properties": { "element": "way", "id": 478611144, "DQD_AR_GBN": "제2종근린생활시설", "far": 147.93, "gross_area": 3475.774 }, "geometry": { "type": "Polygon", "coordinates": [ [ [ 127.1077957, 37.2048179 ], [ 127.1079657, 37.2047859 ], [ 127.1079239, 37.2046529 ], [ 127.1079627, 37.2046434 ], [ 127.1079359, 37.2045507 ], [ 127.1076794, 37.2046065 ], [ 127.1077122, 37.2046992 ], [ 127.1077525, 37.2046897 ], [ 127.1077957, 37.2048179 ] ] ] } },
{ "type": "Feature", "properties": { "element": "way", "id": 478611145, "DQD_AR_GBN": "제2종근린생활시설", "far": 149.67, "gross_area": 2829.501 }, "geometry": { "type": "Polygon", "coordinates": [ [ [ 127.1082859, 37.2047298 ], [ 127.1080772, 37.2047619 ], [ 127.1080161, 37.2045315 ], [ 127.1082248, 37.2044911 ], [ 127.1082859, 37.2047298 ] ] ] } },
{ "type": "Feature", "properties": { "element": "way", "id": 478611146, "DQD_AR_GBN": "제2종근린생활시설", "far": 149.9, "gross_area": 2672.81 }, "geometry": { "type": "Polygon", "coordinates": [ [ [ 127.1085515, 37.2046706 ], [ 127.1084918, 37.2044414 ], [ 127.1082965, 37.2044735 ], [ 127.1083203, 37.2045709 ], [ 127.1083576, 37.2045649 ], [ 127.1083919, 37.2046968 ], [ 127.1085515, 37.2046706 ] ] ] } },
{ "type": "Feature", "properties": { "element": "way", "id": 478611147, "DQD_AR_GBN": "제2종근린생활시설", "far": 149.47, "gross_area": 2662.81 }, "geometry": { "type": "Polygon", "coordinates": [ [ [ 127.1088512, 37.2046206 ], [ 127.1086439, 37.2046539 ], [ 127.1085813, 37.2044081 ], [ 127.1087364, 37.2043855 ], [ 127.1087751, 37.2045387 ], [ 127.1088243, 37.2045328 ], [ 127.1088512, 37.2046206 ] ] ] } },
{ "type": "Feature", "properties": { "element": "way", "id": 478611148, "DQD_AR_GBN": "제2종근린생활시설", "far": 147.95, "gross_area": 2819.01 }, "geometry": { "type": "Polygon", "coordinates": [ [ [ 127.1090979, 37.2045956 ], [ 127.1089338, 37.2046134 ], [ 127.10891, 37.2044839 ], [ 127.1088876, 37.2044887 ], [ 127.1088608, 37.2043581 ], [ 127.1090561, 37.2043272 ], [ 127.1090979, 37.2045956 ] ] ] } },
{ "type": "Feature", "properties": { "element": "way", "id": 478611149, "DQD_AR_GBN": "제2종근린생활시설", "far": 149.79, "gross_area": 2790.06 }, "geometry": { "type": "Polygon", "coordinates": [ [ [ 127.1094074, 37.2046045 ], [ 127.1094044, 37.2043005 ], [ 127.1091584, 37.2043076 ], [ 127.1091614, 37.2046105 ], [ 127.1094074, 37.2046045 ] ] ] } },
{ "type": "Feature", "properties": { "element": "way", "id": 478611150, "DQD_AR_GBN": "제2종근린생활시설", "far": 149.84, "gross_area": 2999.56 }, "geometry": { "type": "Polygon", "coordinates": [ [ [ 127.1096592, 37.2045935 ], [ 127.1097084, 37.2045507 ], [ 127.1096942, 37.2042883 ], [ 127.1094311, 37.204296 ], [ 127.109437, 37.2046018 ], [ 127.1096391, 37.2045959 ], [ 127.1096592, 37.2045935 ] ] ] } },
{ "type": "Feature", "properties": { "element": "way", "id": 478611151, "DQD_AR_GBN": "교육연구시설", "far": 210.28, "gross_area": 5247.54 }, "geometry": { "type": "Polygon", "coordinates": [ [ [ 127.1076486, 37.2049544 ], [ 127.1074011, 37.2051539 ], [ 127.1072635, 37.2053249 ], [ 127.1069656, 37.2052123 ], [ 127.1070329, 37.2050972 ], [ 127.1070904, 37.2050322 ], [ 127.1071949, 37.2050552 ], [ 127.107149, 37.2050058 ], [ 127.1071948, 37.2049267 ], [ 127.1074786, 37.2047237 ], [ 127.1075066, 37.2047561 ], [ 127.1075686, 37.2047183 ], [ 127.1076374, 37.2047888 ], [ 127.1075912, 37.2048184 ], [ 127.1077067, 37.2049152 ], [ 127.1076486, 37.2049544 ] ] ] } },
{ "type": "Feature", "properties": { "element": "way", "id": 520916407, "DQD_AR_GBN": "제2종근린생활시설", "far": 397.68, "gross_area": 6628.41 }, "geometry": { "type": "Polygon", "coordinates": [ [ [ 127.1096195, 37.2077665 ], [ 127.1097009, 37.2077619 ], [ 127.1098661, 37.2076133 ], [ 127.1099074, 37.2075627 ], [ 127.1096244, 37.2074232 ], [ 127.1094077, 37.2076754 ], [ 127.1095238, 37.2077333 ], [ 127.1096195, 37.2077665 ] ] ] } },
{ "type": "Feature", "properties": { "element": "way", "id": 520916408, "DQD_AR_GBN": "제1종근린생활시설", "far": 400.71, "gross_area": 5399.34 }, "geometry": { "type": "Polygon", "coordinates": [ [ [ 127.1110305, 37.2070948 ], [ 127.1111485, 37.2068748 ], [ 127.1114516, 37.2069965 ], [ 127.1113725, 37.2071173 ], [ 127.1112183, 37.207066 ], [ 127.1111767, 37.207145 ], [ 127.1110305, 37.2070948 ] ] ] } },
{ "type": "Feature", "properties": { "element": "way", "id": 520916409, "DQD_AR_GBN": "제1종근린생활시설", "far": 399.35, "gross_area": 5648.5 }, "geometry": { "type": "Polygon", "coordinates": [ [ [ 127.1107382, 37.2074612 ], [ 127.110883, 37.2075231 ], [ 127.1109125, 37.2074676 ], [ 127.1110654, 37.2075359 ], [ 127.1111378, 37.2074355 ], [ 127.1111807, 37.2074526 ], [ 127.1112505, 37.2073565 ], [ 127.1109501, 37.2072005 ], [ 127.1107382, 37.2074612 ] ] ] } },
{ "type": "Feature", "properties": { "element": "way", "id": 520916410, "DQD_AR_GBN": "제2종근린생활시설", "far": 399.48, "gross_area": 5647.55 }, "geometry": { "type": "Polygon", "coordinates": [ [ [ 127.1105665, 37.2076738 ], [ 127.1107288, 37.2074654 ], [ 127.1108427, 37.2075167 ], [ 127.1108267, 37.2075306 ], [ 127.1109702, 37.2075808 ], [ 127.1109071, 37.2076802 ], [ 127.1107663, 37.2076278 ], [ 127.1107073, 37.2077239 ], [ 127.1105665, 37.2076738 ] ] ] } },
{ "type": "Feature", "properties": { "element": "way", "id": 520916411, "DQD_AR_GBN": "제1종근린생활시설", "far": 400.36, "gross_area": 5741.78 }, "geometry": { "type": "Polygon", "coordinates": [ [ [ 127.1102178, 37.208101 ], [ 127.1101776, 37.2080347 ], [ 127.1103653, 37.2078788 ], [ 127.1105866, 37.2079664 ], [ 127.1105156, 37.2080764 ], [ 127.1104391, 37.2080646 ], [ 127.1103787, 37.2081651 ], [ 127.1102178, 37.208101 ] ] ] } },
{ "type": "Feature", "properties": { "element": "way", "id": 520916413, "DQD_AR_GBN": "제1종근린생활시설", "far": 396.84, "gross_area": 5399.26 }, "geometry": { "type": "Polygon", "coordinates": [ [ [ 127.1112071, 37.2068603 ], [ 127.1113508, 37.206654 ], [ 127.1114324, 37.2066862 ], [ 127.1114103, 37.2067176 ], [ 127.1115638, 37.2067861 ], [ 127.1114388, 37.2069637 ], [ 127.1112071, 37.2068603 ] ] ] } },
{ "type": "Feature", "properties": { "element": "way", "id": 520916414, "DQD_AR_GBN": "제1종근린생활시설", "far": 399.9, "gross_area": 5414.55 }, "geometry": { "type": "Polygon", "coordinates": [ [ [ 127.1113448, 37.206649 ], [ 127.1114493, 37.2064763 ], [ 127.1117456, 37.20659 ], [ 127.111641, 37.2067627 ], [ 127.1113448, 37.206649 ] ] ] } },
{ "type": "Feature", "properties": { "element": "way", "id": 520916416, "DQD_AR_GBN": "제1종근린생활시설", "far": 399.60012, "gross_area": 6176.99 }, "geometry": { "type": "Polygon", "coordinates": [ [ [ 127.1114489, 37.2064059 ], [ 127.1116045, 37.2061666 ], [ 127.1116796, 37.2061709 ], [ 127.1119371, 37.2062691 ], [ 127.1119746, 37.2063204 ], [ 127.1118083, 37.206549 ], [ 127.1114489, 37.2064059 ] ] ] } },
{ "type": "Feature", "properties": { "element": "way", "id": 520916459, "DQD_AR_GBN": "공장", "far": 0.0, "gross_area": 7947.21 }, "geometry": { "type": "Polygon", "coordinates": [ [ [ 127.1078749, 37.2071365 ], [ 127.1078494, 37.2068684 ], [ 127.1079031, 37.2068673 ], [ 127.1079017, 37.2068075 ], [ 127.1090631, 37.2067252 ], [ 127.109106, 37.2070948 ], [ 127.1078843, 37.2071835 ], [ 127.1078749, 37.2071365 ] ] ] } },
{ "type": "Feature", "properties": { "element": "way", "id": 607200257, "DQD_AR_GBN": "자동차관련시설", "far": 226.68, "gross_area": 5873.91 }, "geometry": { "type": "Polygon", "coordinates": [ [ [ 127.1108446, 37.2080604 ], [ 127.1109883, 37.2078341 ], [ 127.1114395, 37.2080158 ], [ 127.1112959, 37.2082421 ], [ 127.1108446, 37.2080604 ] ] ] } },
{ "type": "Feature", "properties": { "element": "way", "id": 614163487, "DQD_AR_GBN": "공장", "far": 78.1, "gross_area": 6430.72 }, "geometry": { "type": "Polygon", "coordinates": [ [ [ 127.1028095, 37.2056539 ], [ 127.1028149, 37.2056817 ], [ 127.1028846, 37.205671 ], [ 127.1029007, 37.2056432 ], [ 127.1030965, 37.2056453 ], [ 127.1031019, 37.2059402 ], [ 127.1028793, 37.2059466 ], [ 127.1028739, 37.2058825 ], [ 127.1028042, 37.2058889 ], [ 127.1028149, 37.2059637 ], [ 127.102477, 37.2059658 ], [ 127.1024555, 37.205671 ], [ 127.1028095, 37.2056539 ] ] ] } },
{ "type": "Feature", "properties": { "element": "way", "id": 616176467, "DQD_AR_GBN": "교육연구시설", "far": 99.3, "gross_area": 12424.08 }, "geometry": { "type": "Polygon", "coordinates": [ [ [ 127.0911242, 37.2063751 ], [ 127.0911217, 37.2061846 ], [ 127.0918294, 37.2061786 ], [ 127.0918398, 37.2069572 ], [ 127.0911129, 37.2069633 ], [ 127.0911106, 37.2067891 ], [ 127.0916228, 37.2067848 ], [ 127.0916215, 37.2066887 ], [ 127.0913065, 37.2066913 ], [ 127.091306, 37.206647 ], [ 127.0912092, 37.2066478 ], [ 127.0912097, 37.2066885 ], [ 127.0911187, 37.2066893 ], [ 127.0911165, 37.2065222 ], [ 127.091618, 37.2065181 ], [ 127.0916163, 37.2063828 ], [ 127.0913832, 37.2063847 ], [ 127.0913826, 37.206336 ], [ 127.091209, 37.2063374 ], [ 127.0912095, 37.2063744 ], [ 127.0911242, 37.2063751 ] ] ] } },
{ "type": "Feature", "properties": { "element": "way", "id": 616176485, "DQD_AR_GBN": "단독주택", "far": 147.04, "gross_area": 364.37 }, "geometry": { "type": "Polygon", "coordinates": [ [ [ 127.0973057, 37.2065458 ], [ 127.0973043, 37.2064422 ], [ 127.0974988, 37.2064497 ], [ 127.0975015, 37.2065511 ], [ 127.0973057, 37.2065458 ] ] ] } },
{ "type": "Feature", "properties": { "element": "way", "id": 616176486, "DQD_AR_GBN": "단독주택", "far": 161.22, "gross_area": 399.5 }, "geometry": { "type": "Polygon", "coordinates": [ [ [ 127.0973043, 37.2066718 ], [ 127.097307, 37.2065682 ], [ 127.0975041, 37.2065736 ], [ 127.0975068, 37.2066772 ], [ 127.0973043, 37.2066718 ] ] ] } },
{ "type": "Feature", "properties": { "element": "way", "id": 616176487, "DQD_AR_GBN": "단독주택", "far": 165.0, "gross_area": 409.36 }, "geometry": { "type": "Polygon", "coordinates": [ [ [ 127.0970803, 37.2066676 ], [ 127.0970562, 37.2066547 ], [ 127.0970643, 37.2065768 ], [ 127.097252, 37.2065757 ], [ 127.0972547, 37.2066676 ], [ 127.0970803, 37.2066676 ] ] ] } },
{ "type": "Feature", "properties": { "element": "way", "id": 616176488, "DQD_AR_GBN": "단독주택", "far": 169.68, "gross_area": 468.86 }, "geometry": { "type": "Polygon", "coordinates": [ [ [ 127.0973083, 37.2069474 ], [ 127.097307, 37.2068598 ], [ 127.0975202, 37.2068652 ], [ 127.0975229, 37.2069399 ], [ 127.0973083, 37.2069474 ] ] ] } },
{ "type": "Feature", "properties": { "element": "way", "id": 616176489, "DQD_AR_GBN": "단독주택", "far": 172.46066, "gross_area": 427.53 }, "geometry": { "type": "Polygon", "coordinates": [ [ [ 127.0973016, 37.2068363 ], [ 127.0973003, 37.2067381 ], [ 127.0975095, 37.2067381 ], [ 127.0975149, 37.2068353 ], [ 127.0973016, 37.2068363 ] ] ] } },
{ "type": "Feature", "properties": { "element": "way", "id": 616176490, "DQD_AR_GBN": "단독주택", "far": 163.07, "gross_area": 396.92 }, "geometry": { "type": "Polygon", "coordinates": [ [ [ 127.0974854, 37.2070734 ], [ 127.0975243, 37.207035 ], [ 127.0975256, 37.206972 ], [ 127.0972963, 37.206973 ], [ 127.0972963, 37.2070692 ], [ 127.0974854, 37.2070734 ] ] ] } },
{ "type": "Feature", "properties": { "element": "way", "id": 616176491, "DQD_AR_GBN": "단독주택", "far": 162.88, "gross_area": 395.64 }, "geometry": { "type": "Polygon", "coordinates": [ [ [ 127.0970616, 37.2070756 ], [ 127.0970629, 37.2069784 ], [ 127.0972534, 37.2069827 ], [ 127.0972547, 37.2070713 ], [ 127.0970616, 37.2070756 ] ] ] } },
{ "type": "Feature", "properties": { "element": "way", "id": 616176492, "DQD_AR_GBN": "단독주택", "far": 164.57, "gross_area": 405.01 }, "geometry": { "type": "Polygon", "coordinates": [ [ [ 127.0970629, 37.206957 ], [ 127.0970589, 37.2068652 ], [ 127.0972534, 37.2068694 ], [ 127.0972547, 37.2069549 ], [ 127.0970629, 37.206957 ] ] ] } },
{ "type": "Feature", "properties": { "element": "way", "id": 616176494, "DQD_AR_GBN": "단독주택", "far": 157.24, "gross_area": 389.49 }, "geometry": { "type": "Polygon", "coordinates": [ [ [ 127.0970669, 37.2064518 ], [ 127.0972373, 37.2064432 ], [ 127.0972413, 37.2065522 ], [ 127.0970575, 37.2065554 ], [ 127.0970669, 37.2064518 ] ] ] } },
{ "type": "Feature", "properties": { "element": "way", "id": 616176495, "DQD_AR_GBN": "단독주택", "far": 151.62, "gross_area": 435.37 }, "geometry": { "type": "Polygon", "coordinates": [ [ [ 127.0970522, 37.2064251 ], [ 127.0970508, 37.2063503 ], [ 127.0970763, 37.2063311 ], [ 127.0972386, 37.20633 ], [ 127.0972373, 37.2064155 ], [ 127.0970522, 37.2064251 ] ] ] } },
{ "type": "Feature", "properties": { "element": "way", "id": 616176496, "DQD_AR_GBN": "단독주택", "far": 155.86, "gross_area": 367.37 }, "geometry": { "type": "Polygon", "coordinates": [ [ [ 127.0978113, 37.2065431 ], [ 127.0978126, 37.2064443 ], [ 127.0980138, 37.2064432 ], [ 127.0980171, 37.2065442 ], [ 127.0978113, 37.2065431 ] ] ] } },
{ "type": "Feature", "properties": { "element": "way", "id": 616176497, "DQD_AR_GBN": "단독주택", "far": 147.65, "gross_area": 348.457 }, "geometry": { "type": "Polygon", "coordinates": [ [ [ 127.0976161, 37.2065132 ], [ 127.0976154, 37.2064336 ], [ 127.0977911, 37.2064326 ], [ 127.0977885, 37.2065159 ], [ 127.0976161, 37.2065132 ] ] ] } },
{ "type": "Feature", "properties": { "element": "way", "id": 616176498, "DQD_AR_GBN": "단독주택", "far": 168.19, "gross_area": 461.22 }, "geometry": { "type": "Polygon", "coordinates": [ [ [ 127.0980138, 37.2063642 ], [ 127.0979695, 37.2063364 ], [ 127.097826, 37.2063354 ], [ 127.097826, 37.2064155 ], [ 127.0980097, 37.2064144 ], [ 127.0980138, 37.2063642 ] ] ] } },
{ "type": "Feature", "properties": { "element": "way", "id": 616176500, "DQD_AR_GBN": "단독주택", "far": 160.57, "gross_area": 371.89 }, "geometry": { "type": "Polygon", "coordinates": [ [ [ 127.0967612, 37.2070702 ], [ 127.0967612, 37.2069602 ], [ 127.0969744, 37.2069602 ], [ 127.0969771, 37.2070371 ], [ 127.0969436, 37.2070809 ], [ 127.0967612, 37.2070702 ] ] ] } },
{ "type": "Feature", "properties": { "element": "way", "id": 616176501, "DQD_AR_GBN": "단독주택", "far": 159.69, "gross_area": 376.71 }, "geometry": { "type": "Polygon", "coordinates": [ [ [ 127.0967612, 37.2069303 ], [ 127.0967719, 37.2068534 ], [ 127.0969503, 37.2068502 ], [ 127.096957, 37.2069389 ], [ 127.0967612, 37.2069303 ] ] ] } },
{ "type": "Feature", "properties": { "element": "way", "id": 616176502, "DQD_AR_GBN": "단독주택", "far": 169.11, "gross_area": 399.27 }, "geometry": { "type": "Polygon", "coordinates": [ [ [ 127.0967585, 37.2066697 ], [ 127.0967612, 37.2065896 ], [ 127.0969637, 37.2065864 ], [ 127.096965, 37.2066521 ], [ 127.0969395, 37.2066708 ], [ 127.0967585, 37.2066697 ] ] ] } },
{ "type": "Feature", "properties": { "element": "way", "id": 616176503, "DQD_AR_GBN": "단독주택", "far": 161.46, "gross_area": 382.83 }, "geometry": { "type": "Polygon", "coordinates": [ [ [ 127.0965452, 37.2066633 ], [ 127.0965426, 37.2066088 ], [ 127.0965761, 37.2066077 ], [ 127.0965748, 37.2065768 ], [ 127.0967156, 37.2065784 ], [ 127.096739, 37.206589 ], [ 127.0967377, 37.2066606 ], [ 127.0965452, 37.2066633 ] ] ] } },
{ "type": "Feature", "properties": { "element": "way", "id": 616176504, "DQD_AR_GBN": "단독주택", "far": 160.5, "gross_area": 379.59 }, "geometry": { "type": "Polygon", "coordinates": [ [ [ 127.0967504, 37.2065607 ], [ 127.0967457, 37.2064683 ], [ 127.0969583, 37.2064678 ], [ 127.0969623, 37.2065607 ], [ 127.0967504, 37.2065607 ] ] ] } },
{ "type": "Feature", "properties": { "element": "way", "id": 616176505, "DQD_AR_GBN": "단독주택", "far": 162.52, "gross_area": 372.18 }, "geometry": { "type": "Polygon", "coordinates": [ [ [ 127.0969576, 37.2064112 ], [ 127.0967491, 37.2064107 ], [ 127.0967444, 37.2063279 ], [ 127.0969221, 37.2063209 ], [ 127.0969596, 37.2063509 ], [ 127.0969576, 37.2064112 ] ] ] } },
{ "type": "Feature", "properties": { "element": "way", "id": 616176506, "DQD_AR_GBN": "단독주택", "far": 155.21, "gross_area": 358.61 }, "geometry": { "type": "Polygon", "coordinates": [ [ [ 127.0965412, 37.2064288 ], [ 127.0965439, 37.2063493 ], [ 127.0965788, 37.2063258 ], [ 127.0967162, 37.2063306 ], [ 127.0967183, 37.2064262 ], [ 127.0965412, 37.2064288 ] ] ] } },
{ "type": "Feature", "properties": { "element": "way", "id": 616176507, "DQD_AR_GBN": "단독주택", "far": 159.16, "gross_area": 394.4 }, "geometry": { "type": "Polygon", "coordinates": [ [ [ 127.0965553, 37.2062029 ], [ 127.096552, 37.2060993 ], [ 127.0967095, 37.206094 ], [ 127.0967082, 37.2062067 ], [ 127.0965553, 37.2062029 ] ] ] } },
{ "type": "Feature", "properties": { "element": "way", "id": 616176508, "DQD_AR_GBN": "단독주택", "far": 159.15, "gross_area": 393.26 }, "geometry": { "type": "Polygon", "coordinates": [ [ [ 127.0967384, 37.2062083 ], [ 127.096733, 37.2060972 ], [ 127.0968852, 37.2060982 ], [ 127.0968805, 37.2062077 ], [ 127.0967384, 37.2062083 ] ] ] } },
{ "type": "Feature", "properties": { "element": "way", "id": 616176509, "DQD_AR_GBN": "단독주택", "far": 154.46, "gross_area": 382.14 }, "geometry": { "type": "Polygon", "coordinates": [ [ [ 127.0969033, 37.2062157 ], [ 127.0969047, 37.2060961 ], [ 127.0970388, 37.2060982 ], [ 127.0970394, 37.2062147 ], [ 127.0969033, 37.2062157 ] ] ] } },
{ "type": "Feature", "properties": { "element": "way", "id": 616176510, "DQD_AR_GBN": "단독주택", "far": 157.3, "gross_area": 389.17 }, "geometry": { "type": "Polygon", "coordinates": [ [ [ 127.0972326, 37.2062152 ], [ 127.0972326, 37.206103 ], [ 127.0970723, 37.2061041 ], [ 127.097079, 37.2061837 ], [ 127.0971125, 37.2061826 ], [ 127.097134, 37.2061928 ], [ 127.0971333, 37.2062168 ], [ 127.0972326, 37.2062152 ] ] ] } },
{ "type": "Feature", "properties": { "element": "way", "id": 616176511, "DQD_AR_GBN": "단독주택", "far": 151.7, "gross_area": 340.27 }, "geometry": { "type": "Polygon", "coordinates": [ [ [ 127.0972896, 37.2062051 ], [ 127.0972936, 37.2061442 ], [ 127.0973258, 37.2061442 ], [ 127.0973231, 37.20611 ], [ 127.0974344, 37.2061089 ], [ 127.0974344, 37.2062002 ], [ 127.0972896, 37.2062051 ] ] ] } },
{ "type": "Feature", "properties": { "element": "way", "id": 616176512, "DQD_AR_GBN": "단독주택", "far": 164.54, "gross_area": 368.58 }, "geometry": { "type": "Polygon", "coordinates": [ [ [ 127.0974518, 37.2062077 ], [ 127.0974538, 37.2061068 ], [ 127.0975645, 37.2061025 ], [ 127.0975658, 37.2062061 ], [ 127.0974518, 37.2062077 ] ] ] } },
{ "type": "Feature", "properties": { "element": "way", "id": 616176513, "DQD_AR_GBN": "단독주택", "far": 166.88, "gross_area": 373.14 }, "geometry": { "type": "Polygon", "coordinates": [ [ [ 127.097592, 37.2062227 ], [ 127.09759, 37.2061025 ], [ 127.0977643, 37.2061004 ], [ 127.097763, 37.2062237 ], [ 127.097592, 37.2062227 ] ] ] } },
{ "type": "Feature", "properties": { "element": "way", "id": 616176514, "DQD_AR_GBN": "단독주택", "far": 164.41, "gross_area": 358.74 }, "geometry": { "type": "Polygon", "coordinates": [ [ [ 127.0979212, 37.2062093 ], [ 127.0979266, 37.2060844 ], [ 127.0981023, 37.206079 ], [ 127.0981009, 37.2062072 ], [ 127.0979212, 37.2062093 ] ] ] } },
{ "type": "Feature", "properties": { "element": "way", "id": 616176515, "DQD_AR_GBN": "제1종근린생활시설", "far": 298.69, "gross_area": 2945.26 }, "geometry": { "type": "Polygon", "coordinates": [ [ [ 127.0981787, 37.2062403 ], [ 127.0981827, 37.2060779 ], [ 127.0985073, 37.2060737 ], [ 127.098514, 37.2062713 ], [ 127.0984054, 37.2062734 ], [ 127.0984013, 37.2062371 ], [ 127.0981787, 37.2062403 ] ] ] } },
{ "type": "Feature", "properties": { "element": "way", "id": 616176516, "DQD_AR_GBN": "제1종근린생활시설", "far": 298.77, "gross_area": 2547.16 }, "geometry": { "type": "Polygon", "coordinates": [ [ [ 127.0981599, 37.2064913 ], [ 127.0981653, 37.2064422 ], [ 127.0981961, 37.2064443 ], [ 127.0982015, 37.2063482 ], [ 127.0984992, 37.2063396 ], [ 127.0984845, 37.2064251 ], [ 127.0984657, 37.206487 ], [ 127.0981599, 37.2064913 ] ] ] } },
{ "type": "Feature", "properties": { "element": "way", "id": 616176517, "DQD_AR_GBN": "제1종근린생활시설", "far": 299.81, "gross_area": 2399.87 }, "geometry": { "type": "Polygon", "coordinates": [ [ [ 127.0981653, 37.2067081 ], [ 127.0981626, 37.2065629 ], [ 127.0982847, 37.2065618 ], [ 127.098282, 37.2065372 ], [ 127.0984671, 37.2065298 ], [ 127.098459, 37.2067081 ], [ 127.0981653, 37.2067081 ] ] ] } },
{ "type": "Feature", "properties": { "element": "way", "id": 616176518, "DQD_AR_GBN": "제1종근린생활시설", "far": 296.39, "gross_area": 2538.26 }, "geometry": { "type": "Polygon", "coordinates": [ [ [ 127.0981715, 37.2068856 ], [ 127.0981708, 37.206856 ], [ 127.0981936, 37.2068552 ], [ 127.0981919, 37.2067449 ], [ 127.0984581, 37.20674 ], [ 127.0985135, 37.2069225 ], [ 127.0983734, 37.2069208 ], [ 127.0983417, 37.2069201 ], [ 127.0983416, 37.2068864 ], [ 127.0981715, 37.2068856 ] ] ] } },
{ "type": "Feature", "properties": { "element": "way", "id": 616176519, "DQD_AR_GBN": "제1종근린생활시설", "far": 297.63, "gross_area": 2844.0794 }, "geometry": { "type": "Polygon", "coordinates": [ [ [ 127.09824, 37.2071162 ], [ 127.0982421, 37.2070066 ], [ 127.0982139, 37.2070063 ], [ 127.0982145, 37.2069738 ], [ 127.0982825, 37.2069746 ], [ 127.0982832, 37.2069369 ], [ 127.0983402, 37.2069376 ], [ 127.0983397, 37.2069631 ], [ 127.0983726, 37.2069635 ], [ 127.0983734, 37.2069208 ], [ 127.0985135, 37.2069225 ], [ 127.0985098, 37.2071194 ], [ 127.0983445, 37.2071174 ], [ 127.09824, 37.2071162 ] ] ] } },
{ "type": "Feature", "properties": { "element": "way", "id": 616176521, "DQD_AR_GBN": "단독주택", "far": 164.62, "gross_area": 349.0 }, "geometry": { "type": "Polygon", "coordinates": [ [ [ 127.0974639, 37.2073277 ], [ 127.0974693, 37.2071845 ], [ 127.09759, 37.2071867 ], [ 127.0975846, 37.2073266 ], [ 127.0974639, 37.2073277 ] ] ] } },
{ "type": "Feature", "properties": { "element": "way", "id": 616176522, "DQD_AR_GBN": "단독주택", "far": 155.91, "gross_area": 331.94 }, "geometry": { "type": "Polygon", "coordinates": [ [ [ 127.0976154, 37.2073116 ], [ 127.0976141, 37.2071931 ], [ 127.0977388, 37.2072016 ], [ 127.0977335, 37.2073095 ], [ 127.0976154, 37.2073116 ] ] ] } },
{ "type": "Feature", "properties": { "element": "way", "id": 616176523, "DQD_AR_GBN": "제2종근린생활시설", "far": 140.5, "gross_area": 494.85 }, "geometry": { "type": "Polygon", "coordinates": [ [ [ 127.0977616, 37.2073074 ], [ 127.0977589, 37.2072102 ], [ 127.0979373, 37.2072038 ], [ 127.0979373, 37.2072262 ], [ 127.0979762, 37.2072283 ], [ 127.0979802, 37.2072881 ], [ 127.0979266, 37.207286 ], [ 127.0979172, 37.2072999 ], [ 127.0977616, 37.2073074 ] ] ] } },
{ "type": "Feature", "properties": { "element": "way", "id": 616176524, "DQD_AR_GBN": "단독주택", "far": 169.77, "gross_area": 360.59 }, "geometry": { "type": "Polygon", "coordinates": [ [ [ 127.0972815, 37.2073351 ], [ 127.0972896, 37.2071781 ], [ 127.0974478, 37.2071824 ], [ 127.0974424, 37.2073362 ], [ 127.0972815, 37.2073351 ] ] ] } },
{ "type": "Feature", "properties": { "element": "way", "id": 616176525, "DQD_AR_GBN": "단독주택", "far": 156.91, "gross_area": 394.62 }, "geometry": { "type": "Polygon", "coordinates": [ [ [ 127.0970844, 37.2073298 ], [ 127.0970938, 37.2072166 ], [ 127.0971434, 37.2072166 ], [ 127.0971595, 37.2072048 ], [ 127.0971608, 37.2071941 ], [ 127.0972547, 37.2071899 ], [ 127.097252, 37.207333 ], [ 127.0970844, 37.2073298 ] ] ] } },
{ "type": "Feature", "properties": { "element": "way", "id": 616176527, "DQD_AR_GBN": "단독주택", "far": 158.21, "gross_area": 397.73 }, "geometry": { "type": "Polygon", "coordinates": [ [ [ 127.09691, 37.2073341 ], [ 127.0969087, 37.2071493 ], [ 127.0970361, 37.2071493 ], [ 127.0970374, 37.2071995 ], [ 127.0970736, 37.207207 ], [ 127.0970683, 37.2073287 ], [ 127.09691, 37.2073341 ] ] ] } },
{ "type": "Feature", "properties": { "element": "way", "id": 616176528, "DQD_AR_GBN": "단독주택", "far": 147.15, "gross_area": 368.755 }, "geometry": { "type": "Polygon", "coordinates": [ [ [ 127.0967276, 37.2073309 ], [ 127.096733, 37.2072091 ], [ 127.0968094, 37.2072091 ], [ 127.0968108, 37.2071824 ], [ 127.0968899, 37.2071824 ], [ 127.0968939, 37.2073223 ], [ 127.0967276, 37.2073309 ] ] ] } },
{ "type": "Feature", "properties": { "element": "way", "id": 616176530, "DQD_AR_GBN": "단독주택", "far": 161.87, "gross_area": 386.23 }, "geometry": { "type": "Polygon", "coordinates": [ [ [ 127.0965587, 37.2073191 ], [ 127.0965466, 37.2071931 ], [ 127.0965774, 37.2071653 ], [ 127.0967075, 37.2071642 ], [ 127.0967075, 37.2073255 ], [ 127.0965587, 37.2073191 ] ] ] } },
{ "type": "Feature", "properties": { "element": "way", "id": 616176531, "DQD_AR_GBN": "단독주택", "far": 168.77, "gross_area": 398.81 }, "geometry": { "type": "Polygon", "coordinates": [ [ [ 127.0965788, 37.2068652 ], [ 127.0965721, 37.2067348 ], [ 127.0967424, 37.206737 ], [ 127.0967464, 37.206863 ], [ 127.0965788, 37.2068652 ] ] ] } },
{ "type": "Feature", "properties": { "element": "way", "id": 616176565, "DQD_AR_GBN": "교육연구시설", "far": 98.58, "gross_area": 12786.04 }, "geometry": { "type": "Polygon", "coordinates": [ [ [ 127.1134474, 37.2066665 ], [ 127.113537, 37.2065352 ], [ 127.1139171, 37.2066998 ], [ 127.1139968, 37.206583 ], [ 127.1137137, 37.2064604 ], [ 127.1137427, 37.2064179 ], [ 127.1136676, 37.2063854 ], [ 127.1137526, 37.2062605 ], [ 127.1141099, 37.2064146 ], [ 127.1141604, 37.2063404 ], [ 127.1138578, 37.2062101 ], [ 127.1139904, 37.2060147 ], [ 127.1144952, 37.206232 ], [ 127.1141694, 37.2067121 ], [ 127.1146453, 37.2069169 ], [ 127.1144812, 37.2071588 ], [ 127.1140262, 37.2069629 ], [ 127.1141218, 37.2068221 ], [ 127.1140378, 37.2067859 ], [ 127.1140234, 37.2068071 ], [ 127.113949, 37.206775 ], [ 127.1138917, 37.2068589 ], [ 127.1134474, 37.2066665 ] ] ] } },
{ "type": "Feature", "properties": { "element": "way", "id": 616176568, "DQD_AR_GBN": "제1종근린생활시설", "far": 400.48, "gross_area": 5869.49 }, "geometry": { "type": "Polygon", "coordinates": [ [ [ 127.1103828, 37.2078681 ], [ 127.110596, 37.2079376 ], [ 127.1106309, 37.2078532 ], [ 127.1106912, 37.2078799 ], [ 127.1107744, 37.2077464 ], [ 127.1105303, 37.2076759 ], [ 127.1103828, 37.2078681 ] ] ] } },
{ "type": "Feature", "properties": { "element": "way", "id": 616176582, "DQD_AR_GBN": "교육연구시설", "far": 0.0, "gross_area": 18.0 }, "geometry": { "type": "Polygon", "coordinates": [ [ [ 127.114056, 37.2084567 ], [ 127.114166, 37.2082687 ], [ 127.1145281, 37.2084503 ], [ 127.11463, 37.2083114 ], [ 127.1142706, 37.2081469 ], [ 127.1143994, 37.2079653 ], [ 127.1148929, 37.2081896 ], [ 127.1148366, 37.2082922 ], [ 127.1148849, 37.2083071 ], [ 127.1150377, 37.2081042 ], [ 127.1152872, 37.2082046 ], [ 127.1150672, 37.208525 ], [ 127.1147695, 37.2084011 ], [ 127.1146864, 37.2085229 ], [ 127.1149278, 37.2086254 ], [ 127.1148446, 37.2087386 ], [ 127.1144959, 37.2085977 ], [ 127.1144745, 37.208634 ], [ 127.114056, 37.2084567 ] ] ] } },
{ "type": "Feature", "properties": { "element": "way", "id": 617747841, "DQD_AR_GBN": "제1종근린생활시설", "far": 39.3, "gross_area": 393.35 }, "geometry": { "type": "Polygon", "coordinates": [ [ [ 127.1036341, 37.2089086 ], [ 127.1036342, 37.2087204 ], [ 127.1038812, 37.2087204 ], [ 127.1038812, 37.2088272 ], [ 127.1039321, 37.2088272 ], [ 127.1039321, 37.2089087 ], [ 127.1036341, 37.2089086 ] ] ] } },
{ "type": "Feature", "properties": { "element": "way", "id": 619948525, "DQD_AR_GBN": "공장", "far": 300.46639, "gross_area": 11905.09 }, "geometry": { "type": "Polygon", "coordinates": [ [ [ 127.0911151, 37.2110073 ], [ 127.0912814, 37.211003 ], [ 127.091276, 37.2110778 ], [ 127.0914075, 37.2110799 ], [ 127.0913994, 37.2111504 ], [ 127.0915818, 37.2111504 ], [ 127.0915791, 37.2110457 ], [ 127.0917132, 37.2110521 ], [ 127.0917106, 37.2112786 ], [ 127.091606, 37.211364 ], [ 127.0911795, 37.211364 ], [ 127.0910695, 37.2112935 ], [ 127.0910642, 37.2110115 ], [ 127.0911151, 37.2110073 ] ] ] } },
{ "type": "Feature", "properties": { "element": "way", "id": 619948526, "DQD_AR_GBN": "공장", "far": 360.54143, "gross_area": 29977.78 }, "geometry": { "type": "Polygon", "coordinates": [ [ [ 127.0929766, 37.2107338 ], [ 127.0930865, 37.2106356 ], [ 127.0937276, 37.2106463 ], [ 127.0937383, 37.2112764 ], [ 127.0929927, 37.2112828 ], [ 127.0929766, 37.2107338 ] ] ] } },
{ "type": "Feature", "properties": { "element": "way", "id": 619948528, "DQD_AR_GBN": "공장", "far": 323.69476, "gross_area": 15259.33 }, "geometry": { "type": "Polygon", "coordinates": [ [ [ 127.0911232, 37.2100289 ], [ 127.0916435, 37.2100375 ], [ 127.0916596, 37.2103664 ], [ 127.0911393, 37.2103621 ], [ 127.0911232, 37.2100289 ] ] ] } },
{ "type": "Feature", "properties": { "element": "way", "id": 621846745, "DQD_AR_GBN": "판매시설", "far": 122.16, "gross_area": 1327.64 }, "geometry": { "type": "Polygon", "coordinates": [ [ [ 127.109823, 37.2072316 ], [ 127.1100989, 37.2073464 ], [ 127.1099126, 37.2075515 ], [ 127.1096765, 37.207434 ], [ 127.109823, 37.2072316 ] ] ] } },
{ "type": "Feature", "properties": { "element": "way", "id": 621846770, "DQD_AR_GBN": "단독주택", "far": 151.37, "gross_area": 399.77 }, "geometry": { "type": "Polygon", "coordinates": [ [ [ 127.1128759, 37.2060576 ], [ 127.1127605, 37.2060149 ], [ 127.1126804, 37.206132 ], [ 127.1127662, 37.2061737 ], [ 127.1128061, 37.2061687 ], [ 127.1128759, 37.2060576 ] ] ] } },
{ "type": "Feature", "properties": { "element": "way", "id": 621846772, "DQD_AR_GBN": "단독주택", "far": 143.69, "gross_area": 384.38 }, "geometry": { "type": "Polygon", "coordinates": [ [ [ 127.1127458, 37.2059562 ], [ 127.1126237, 37.2059028 ], [ 127.1125243, 37.206047 ], [ 127.1126463, 37.2061004 ], [ 127.1127458, 37.2059562 ] ] ] } },
{ "type": "Feature", "properties": { "element": "way", "id": 621846773, "DQD_AR_GBN": "단독주택", "far": 155.98, "gross_area": 415.53 }, "geometry": { "type": "Polygon", "coordinates": [ [ [ 127.1129644, 37.2059209 ], [ 127.112833, 37.2058697 ], [ 127.112757, 37.2059932 ], [ 127.1128884, 37.2060445 ], [ 127.1129644, 37.2059209 ] ] ] } },
{ "type": "Feature", "properties": { "element": "way", "id": 621846774, "DQD_AR_GBN": "단독주택", "far": 159.6, "gross_area": 425.64 }, "geometry": { "type": "Polygon", "coordinates": [ [ [ 127.1130636, 37.2057703 ], [ 127.1129429, 37.2057255 ], [ 127.1128716, 37.2058472 ], [ 127.1129923, 37.2058921 ], [ 127.1130636, 37.2057703 ] ] ] } },
{ "type": "Feature", "properties": { "element": "way", "id": 621846776, "DQD_AR_GBN": "단독주택", "far": 157.53, "gross_area": 414.31 }, "geometry": { "type": "Polygon", "coordinates": [ [ [ 127.1131736, 37.2056272 ], [ 127.1130502, 37.2055738 ], [ 127.1129841, 37.2056707 ], [ 127.1131075, 37.2057241 ], [ 127.1131736, 37.2056272 ] ] ] } },
{ "type": "Feature", "properties": { "element": "way", "id": 621846777, "DQD_AR_GBN": "단독주택", "far": 154.84, "gross_area": 408.31 }, "geometry": { "type": "Polygon", "coordinates": [ [ [ 127.1126854, 37.2063984 ], [ 127.1127552, 37.206314 ], [ 127.1127297, 37.2063012 ], [ 127.1127646, 37.206251 ], [ 127.1126841, 37.2062136 ], [ 127.1126314, 37.2062732 ], [ 127.1125929, 37.2062574 ], [ 127.1125428, 37.2063287 ], [ 127.1126854, 37.2063984 ] ] ] } },
{ "type": "Feature", "properties": { "element": "way", "id": 621846778, "DQD_AR_GBN": "단독주택", "far": 154.06, "gross_area": 407.65 }, "geometry": { "type": "Polygon", "coordinates": [ [ [ 127.1125433, 37.2063108 ], [ 127.1125969, 37.206236 ], [ 127.112558, 37.2062189 ], [ 127.1125942, 37.2061645 ], [ 127.1125339, 37.206141 ], [ 127.1125072, 37.2061795 ], [ 127.1124534, 37.2061645 ], [ 127.1123999, 37.2062478 ], [ 127.1125433, 37.2063108 ] ] ] } },
{ "type": "Feature", "properties": { "element": "way", "id": 621846780, "DQD_AR_GBN": "단독주택", "far": 172.02, "gross_area": 454.64 }, "geometry": { "type": "Polygon", "coordinates": [ [ [ 127.1123716, 37.2062371 ], [ 127.1124293, 37.2061623 ], [ 127.1124025, 37.2061474 ], [ 127.1124266, 37.2061046 ], [ 127.1123689, 37.2060865 ], [ 127.1123398, 37.2061194 ], [ 127.1123005, 37.2060972 ], [ 127.1122513, 37.2061771 ], [ 127.1123716, 37.2062371 ] ] ] } },
{ "type": "Feature", "properties": { "element": "way", "id": 621846781, "DQD_AR_GBN": "단독주택", "far": 150.97, "gross_area": 399.02 }, "geometry": { "type": "Polygon", "coordinates": [ [ [ 127.1122268, 37.2061762 ], [ 127.1122938, 37.2060715 ], [ 127.1122563, 37.2060566 ], [ 127.1122818, 37.2060149 ], [ 127.1122335, 37.2059957 ], [ 127.1121982, 37.2060445 ], [ 127.1121544, 37.2060331 ], [ 127.1120976, 37.2061225 ], [ 127.1122268, 37.2061762 ] ] ] } },
{ "type": "Feature", "properties": { "element": "way", "id": 621846783, "DQD_AR_GBN": "단독주택", "far": 142.44, "gross_area": 454.01 }, "geometry": { "type": "Polygon", "coordinates": [ [ [ 127.1120712, 37.2061121 ], [ 127.1121396, 37.2060085 ], [ 127.1120913, 37.205985 ], [ 127.1121168, 37.2059359 ], [ 127.1120645, 37.2059134 ], [ 127.1120296, 37.2059687 ], [ 127.11198, 37.2059551 ], [ 127.1119209, 37.2060499 ], [ 127.1120712, 37.2061121 ] ] ] } },
{ "type": "Feature", "properties": { "element": "way", "id": 621846784, "DQD_AR_GBN": "단독주택", "far": 154.76, "gross_area": 407.02 }, "geometry": { "type": "Polygon", "coordinates": [ [ [ 127.1124776, 37.2058472 ], [ 127.1123779, 37.2059878 ], [ 127.1124919, 37.2060391 ], [ 127.1125916, 37.2058985 ], [ 127.1124776, 37.2058472 ] ] ] } },
{ "type": "Feature", "properties": { "element": "way", "id": 621846785, "DQD_AR_GBN": "단독주택", "far": 158.57, "gross_area": 399.92 }, "geometry": { "type": "Polygon", "coordinates": [ [ [ 127.1125339, 37.2056731 ], [ 127.1124639, 37.2057856 ], [ 127.1126048, 37.2058412 ], [ 127.1126747, 37.2057287 ], [ 127.1125339, 37.2056731 ] ] ] } },
{ "type": "Feature", "properties": { "element": "way", "id": 621846786, "DQD_AR_GBN": "단독주택", "far": 149.75, "gross_area": 398.19 }, "geometry": { "type": "Polygon", "coordinates": [ [ [ 127.1126224, 37.2055513 ], [ 127.1125577, 37.2056487 ], [ 127.1126945, 37.2057063 ], [ 127.1127592, 37.205609 ], [ 127.1126224, 37.2055513 ] ] ] } },
{ "type": "Feature", "properties": { "element": "way", "id": 621846788, "DQD_AR_GBN": "단독주택", "far": 150.75, "gross_area": 413.82 }, "geometry": { "type": "Polygon", "coordinates": [ [ [ 127.1123649, 37.2055994 ], [ 127.1122772, 37.2057338 ], [ 127.1124113, 37.2057893 ], [ 127.112499, 37.205655 ], [ 127.1123649, 37.2055994 ] ] ] } },
{ "type": "Feature", "properties": { "element": "way", "id": 621846789, "DQD_AR_GBN": "단독주택", "far": 147.5, "gross_area": 405.76 }, "geometry": { "type": "Polygon", "coordinates": [ [ [ 127.1124467, 37.2054787 ], [ 127.1123804, 37.2055763 ], [ 127.1125119, 37.2056329 ], [ 127.1125782, 37.2055353 ], [ 127.1124467, 37.2054787 ] ] ] } },
{ "type": "Feature", "properties": { "element": "way", "id": 621846790, "DQD_AR_GBN": "단독주택", "far": 150.05, "gross_area": 410.83 }, "geometry": { "type": "Polygon", "coordinates": [ [ [ 127.1125674, 37.2053505 ], [ 127.1125165, 37.2053548 ], [ 127.112461, 37.205454 ], [ 127.1125911, 37.2055127 ], [ 127.112672, 37.2053986 ], [ 127.1125674, 37.2053505 ] ] ] } },
{ "type": "Feature", "properties": { "element": "way", "id": 621846791, "DQD_AR_GBN": "단독주택", "far": 151.34, "gross_area": 397.71 }, "geometry": { "type": "Polygon", "coordinates": [ [ [ 127.1127056, 37.2054125 ], [ 127.1126345, 37.2055205 ], [ 127.1128035, 37.205591 ], [ 127.1128745, 37.205483 ], [ 127.1127056, 37.2054125 ] ] ] } },
{ "type": "Feature", "properties": { "element": "way", "id": 621846792, "DQD_AR_GBN": "단독주택", "far": 155.58, "gross_area": 414.62 }, "geometry": { "type": "Polygon", "coordinates": [ [ [ 127.1131481, 37.2053663 ], [ 127.1130798, 37.2054539 ], [ 127.1130619, 37.2054769 ], [ 127.1132202, 37.2055551 ], [ 127.1133064, 37.2054445 ], [ 127.1131481, 37.2053663 ] ] ] } },
{ "type": "Feature", "properties": { "element": "way", "id": 621846793, "DQD_AR_GBN": "단독주택", "far": 160.45, "gross_area": 424.87 }, "geometry": { "type": "Polygon", "coordinates": [ [ [ 127.1132956, 37.2052576 ], [ 127.1132352, 37.2053726 ], [ 127.1133505, 37.2054111 ], [ 127.113411, 37.2052961 ], [ 127.1132956, 37.2052576 ] ] ] } },
{ "type": "Feature", "properties": { "element": "way", "id": 621846794, "DQD_AR_GBN": "단독주택", "far": 154.43, "gross_area": 409.23 }, "geometry": { "type": "Polygon", "coordinates": [ [ [ 127.1133855, 37.2051081 ], [ 127.1133109, 37.2052068 ], [ 127.1134356, 37.2052666 ], [ 127.1135102, 37.2051679 ], [ 127.1133855, 37.2051081 ] ] ] } },
{ "type": "Feature", "properties": { "element": "way", "id": 621846796, "DQD_AR_GBN": "단독주택", "far": 161.63, "gross_area": 430.74 }, "geometry": { "type": "Polygon", "coordinates": [ [ [ 127.1132393, 37.2050461 ], [ 127.1131052, 37.2052509 ], [ 127.1132285, 37.2053022 ], [ 127.1133627, 37.2050974 ], [ 127.1132393, 37.2050461 ] ] ] } },
{ "type": "Feature", "properties": { "element": "way", "id": 621846797, "DQD_AR_GBN": "단독주택", "far": 143.62, "gross_area": 396.24 }, "geometry": { "type": "Polygon", "coordinates": [ [ [ 127.1129362, 37.2051219 ], [ 127.1128606, 37.2052203 ], [ 127.1129853, 37.2052811 ], [ 127.1130609, 37.2051828 ], [ 127.1129362, 37.2051219 ] ] ] } },
{ "type": "Feature", "properties": { "element": "way", "id": 621846799, "DQD_AR_GBN": "단독주택", "far": 144.61, "gross_area": 395.8 }, "geometry": { "type": "Polygon", "coordinates": [ [ [ 127.1128444, 37.2049425 ], [ 127.1127906, 37.2050515 ], [ 127.1128544, 37.205084 ], [ 127.1128973, 37.2051017 ], [ 127.1129523, 37.205029 ], [ 127.1130046, 37.2049591 ], [ 127.1128444, 37.2049425 ] ] ] } },
{ "type": "Feature", "properties": { "element": "way", "id": 621846800, "DQD_AR_GBN": "단독주택", "far": 156.89, "gross_area": 425.63 }, "geometry": { "type": "Polygon", "coordinates": [ [ [ 127.1127592, 37.2050589 ], [ 127.1126971, 37.2051405 ], [ 127.1128299, 37.2052046 ], [ 127.112892, 37.205123 ], [ 127.1127592, 37.2050589 ] ] ] } },
{ "type": "Feature", "properties": { "element": "way", "id": 621846801, "DQD_AR_GBN": "단독주택", "far": 152.55, "gross_area": 415.24 }, "geometry": { "type": "Polygon", "coordinates": [ [ [ 127.1126814, 37.2051561 ], [ 127.1126046, 37.205257 ], [ 127.1127374, 37.2053211 ], [ 127.1128142, 37.2052202 ], [ 127.1126814, 37.2051561 ] ] ] } },
{ "type": "Feature", "properties": { "element": "way", "id": 621846803, "DQD_AR_GBN": "단독주택", "far": 153.4, "gross_area": 418.01 }, "geometry": { "type": "Polygon", "coordinates": [ [ [ 127.1128531, 37.2052587 ], [ 127.1127915, 37.2053787 ], [ 127.1129457, 37.2054289 ], [ 127.1130073, 37.2053089 ], [ 127.1128531, 37.2052587 ] ] ] } },
{ "type": "Feature", "properties": { "element": "way", "id": 621846804, "DQD_AR_GBN": "단독주택", "far": 147.42, "gross_area": 399.65 }, "geometry": { "type": "Polygon", "coordinates": [ [ [ 127.113077, 37.2049585 ], [ 127.1129531, 37.20511 ], [ 127.1130417, 37.2051559 ], [ 127.1131656, 37.2050045 ], [ 127.113077, 37.2049585 ] ] ] } },
{ "type": "Feature", "properties": { "element": "way", "id": 621846805, "DQD_AR_GBN": "단독주택", "far": 150.45, "gross_area": 385.01 }, "geometry": { "type": "Polygon", "coordinates": [ [ [ 127.1137275, 37.2052843 ], [ 127.1136646, 37.2053892 ], [ 127.1137853, 37.2054351 ], [ 127.1138482, 37.2053302 ], [ 127.1137275, 37.2052843 ] ] ] } },
{ "type": "Feature", "properties": { "element": "way", "id": 621846806, "DQD_AR_GBN": "단독주택", "far": 146.61, "gross_area": 356.99 }, "geometry": { "type": "Polygon", "coordinates": [ [ [ 127.1139675, 37.2051102 ], [ 127.1138281, 37.2050493 ], [ 127.1137545, 37.2051562 ], [ 127.113894, 37.2052171 ], [ 127.1139675, 37.2051102 ] ] ] } },
{ "type": "Feature", "properties": { "element": "way", "id": 621846807, "DQD_AR_GBN": "단독주택", "far": 157.76, "gross_area": 384.14 }, "geometry": { "type": "Polygon", "coordinates": [ [ [ 127.1140601, 37.2049959 ], [ 127.1139166, 37.2049329 ], [ 127.1138513, 37.2050272 ], [ 127.1139948, 37.2050902 ], [ 127.1140601, 37.2049959 ] ] ] } },
{ "type": "Feature", "properties": { "element": "way", "id": 621846808, "DQD_AR_GBN": "단독주택", "far": 160.53, "gross_area": 396.83 }, "geometry": { "type": "Polygon", "coordinates": [ [ [ 127.113474, 37.2056283 ], [ 127.1135992, 37.2056846 ], [ 127.1136689, 37.2055863 ], [ 127.1135437, 37.20553 ], [ 127.113474, 37.2056283 ] ] ] } },
{ "type": "Feature", "properties": { "element": "way", "id": 682821770, "DQD_AR_GBN": "단독주택", "far": 147.62, "gross_area": 421.67 }, "geometry": { "type": "Polygon", "coordinates": [ [ [ 127.1134406, 37.2084837 ], [ 127.1135547, 37.2085432 ], [ 127.1136834, 37.2083867 ], [ 127.1135693, 37.2083272 ], [ 127.1134406, 37.2084837 ] ] ] } },
{ "type": "Feature", "properties": { "element": "way", "id": 682821771, "DQD_AR_GBN": "단독주택", "far": 154.56, "gross_area": 426.11 }, "geometry": { "type": "Polygon", "coordinates": [ [ [ 127.113428, 37.2084514 ], [ 127.113523, 37.2083357 ], [ 127.1134123, 37.2082781 ], [ 127.1133172, 37.2083937 ], [ 127.113428, 37.2084514 ] ] ] } },
{ "type": "Feature", "properties": { "element": "way", "id": 684614932, "DQD_AR_GBN": "단독주택", "far": 154.46, "gross_area": 390.79 }, "geometry": { "type": "Polygon", "coordinates": [ [ [ 127.1115454, 37.2073133 ], [ 127.1116102, 37.2072378 ], [ 127.1115943, 37.2072291 ], [ 127.1116316, 37.2071856 ], [ 127.1115746, 37.2071697 ], [ 127.1115253, 37.2071844 ], [ 127.1114576, 37.2072752 ], [ 127.1115454, 37.2073133 ] ] ] } },
{ "type": "Feature", "properties": { "element": "way", "id": 684614933, "DQD_AR_GBN": "단독주택", "far": 162.56, "gross_area": 398.27 }, "geometry": { "type": "Polygon", "coordinates": [ [ [ 127.1115938, 37.2073356 ], [ 127.1117203, 37.2073869 ], [ 127.1117925, 37.2072742 ], [ 127.111666, 37.2072228 ], [ 127.1115938, 37.2073356 ] ] ] } },
{ "type": "Feature", "properties": { "element": "way", "id": 684614934, "DQD_AR_GBN": "단독주택", "far": 155.13, "gross_area": 386.28 }, "geometry": { "type": "Polygon", "coordinates": [ [ [ 127.1117287, 37.2073947 ], [ 127.1118418, 37.2074471 ], [ 127.1119216, 37.2073378 ], [ 127.1118085, 37.2072854 ], [ 127.1117287, 37.2073947 ] ] ] } },
{ "type": "Feature", "properties": { "element": "way", "id": 684614941, "DQD_AR_GBN": "업무시설", "far": 399.06, "gross_area": 9149.39 }, "geometry": { "type": "Polygon", "coordinates": [ [ [ 127.1079621, 37.2084874 ], [ 127.1084033, 37.2082876 ], [ 127.1085341, 37.2084706 ], [ 127.1080929, 37.2086705 ], [ 127.1079621, 37.2084874 ] ] ] } },
{ "type": "Feature", "properties": { "element": "way", "id": 685566790, "DQD_AR_GBN": "제2종근린생활시설", "far": 91.719653, "gross_area": 380.82 }, "geometry": { "type": "Polygon", "coordinates": [ [ [ 127.111916, 37.2137821 ], [ 127.1120733, 37.2137832 ], [ 127.1120755, 37.2135769 ], [ 127.1119181, 37.2135759 ], [ 127.111916, 37.2137821 ] ] ] } },
{ "type": "Feature", "properties": { "element": "way", "id": 703238218, "DQD_AR_GBN": "단독주택", "far": 154.79, "gross_area": 422.11 }, "geometry": { "type": "Polygon", "coordinates": [ [ [ 127.1125691, 37.2071171 ], [ 127.1126453, 37.207003 ], [ 127.1125304, 37.2069543 ], [ 127.1124708, 37.2070436 ], [ 127.1124788, 37.2070789 ], [ 127.1125691, 37.2071171 ] ] ] } },
{ "type": "Feature", "properties": { "element": "way", "id": 703238219, "DQD_AR_GBN": "단독주택", "far": 146.17, "gross_area": 399.93 }, "geometry": { "type": "Polygon", "coordinates": [ [ [ 127.1126186, 37.2071277 ], [ 127.1126872, 37.2070252 ], [ 127.112834, 37.2070875 ], [ 127.1127655, 37.2071901 ], [ 127.1126186, 37.2071277 ] ] ] } },
{ "type": "Feature", "properties": { "element": "way", "id": 703238220, "DQD_AR_GBN": "단독주택", "far": 142.2, "gross_area": 384.93 }, "geometry": { "type": "Polygon", "coordinates": [ [ [ 127.112811, 37.2072141 ], [ 127.1129521, 37.207277 ], [ 127.1130212, 37.2071785 ], [ 127.1128802, 37.2071157 ], [ 127.112811, 37.2072141 ] ] ] } },
{ "type": "Feature", "properties": { "element": "way", "id": 703238221, "DQD_AR_GBN": "단독주택", "far": 148.44, "gross_area": 405.09 }, "geometry": { "type": "Polygon", "coordinates": [ [ [ 127.1125471, 37.2069358 ], [ 127.1126793, 37.2069958 ], [ 127.1127549, 37.2068901 ], [ 127.1126226, 37.2068302 ], [ 127.1125471, 37.2069358 ] ] ] } },
{ "type": "Feature", "properties": { "element": "way", "id": 703238222, "DQD_AR_GBN": "단독주택", "far": 151.89, "gross_area": 421.05 }, "geometry": { "type": "Polygon", "coordinates": [ [ [ 127.1127005, 37.207014 ], [ 127.1127726, 37.2068939 ], [ 127.1129148, 37.2069481 ], [ 127.1128427, 37.2070682 ], [ 127.1127005, 37.207014 ] ] ] } },
{ "type": "Feature", "properties": { "element": "way", "id": 703238223, "DQD_AR_GBN": "단독주택", "far": 147.5, "gross_area": 454.63 }, "geometry": { "type": "Polygon", "coordinates": [ [ [ 127.1128887, 37.2071033 ], [ 127.1129786, 37.2069777 ], [ 127.1130743, 37.2070212 ], [ 127.1130877, 37.2070479 ], [ 127.113077, 37.2071152 ], [ 127.1130372, 37.2071707 ], [ 127.1128887, 37.2071033 ] ] ] } },
{ "type": "Feature", "properties": { "element": "way", "id": 813033090, "DQD_AR_GBN": "공장", "far": 359.41377, "gross_area": 62954.87 }, "geometry": { "type": "Polygon", "coordinates": [ [ [ 127.0947069, 37.2155156 ], [ 127.0948008, 37.2155156 ], [ 127.0948062, 37.2154194 ], [ 127.0948732, 37.2154216 ], [ 127.0948732, 37.2155028 ], [ 127.0949322, 37.2155604 ], [ 127.0949752, 37.2155818 ], [ 127.0952192, 37.2155882 ], [ 127.0952675, 37.2155647 ], [ 127.095289, 37.2155391 ], [ 127.0953077, 37.2154814 ], [ 127.0953533, 37.2154771 ], [ 127.0953668, 37.2151823 ], [ 127.0953882, 37.2145821 ], [ 127.0946426, 37.2145949 ], [ 127.0946479, 37.2155156 ], [ 127.0947069, 37.2155156 ] ] ] } },
{ "type": "Feature", "properties": { "element": "way", "id": 813033091, "DQD_AR_GBN": "공장", "far": 0.0, "gross_area": 13541.67 }, "geometry": { "type": "Polygon", "coordinates": [ [ [ 127.0941359, 37.2156869 ], [ 127.0934964, 37.2156929 ], [ 127.0934917, 37.2153799 ], [ 127.0937078, 37.2153779 ], [ 127.0937016, 37.2149608 ], [ 127.0941251, 37.2149568 ], [ 127.0941359, 37.2156869 ] ] ] } },
{ "type": "Feature", "properties": { "element": "way", "id": 813033095, "DQD_AR_GBN": "공장", "far": 359.65839, "gross_area": 32814.57 }, "geometry": { "type": "Polygon", "coordinates": [ [ [ 127.0946581, 37.2141901 ], [ 127.0952622, 37.2141885 ], [ 127.0952613, 37.2139585 ], [ 127.0949619, 37.2139593 ], [ 127.0949624, 37.2140833 ], [ 127.0948828, 37.2140835 ], [ 127.0948822, 37.2139532 ], [ 127.0946572, 37.2139538 ], [ 127.0946581, 37.2141901 ] ] ] } },
{ "type": "Feature", "properties": { "element": "way", "id": 813033096, "DQD_AR_GBN": "공장", "far": 360.11176, "gross_area": 31109.07 }, "geometry": { "type": "Polygon", "coordinates": [ [ [ 127.0943916, 37.2137071 ], [ 127.0945721, 37.2136676 ], [ 127.0946783, 37.2137352 ], [ 127.0949012, 37.2136817 ], [ 127.0949472, 37.2135746 ], [ 127.0950676, 37.2135464 ], [ 127.0949791, 37.2132392 ], [ 127.0942748, 37.2133998 ], [ 127.0943916, 37.2137071 ] ] ] } },
{ "type": "Feature", "properties": { "element": "way", "id": 813033097, "DQD_AR_GBN": "업무시설", "far": 361.06731, "gross_area": 50790.62 }, "geometry": { "type": "Polygon", "coordinates": [ [ [ 127.0936873, 37.2125373 ], [ 127.0940518, 37.2131067 ], [ 127.0942748, 37.2132025 ], [ 127.0948411, 37.213056 ], [ 127.0947207, 37.212884 ], [ 127.0945969, 37.2128248 ], [ 127.0946712, 37.2127459 ], [ 127.0950003, 37.2129066 ], [ 127.095064, 37.2128361 ], [ 127.0950074, 37.2125712 ], [ 127.0946535, 37.2124415 ], [ 127.0940023, 37.2124753 ], [ 127.093974, 37.2125092 ], [ 127.0944694, 37.2126755 ], [ 127.0943916, 37.2127516 ], [ 127.0938289, 37.212543 ], [ 127.0936873, 37.2125373 ] ] ] } },
{ "type": "Feature", "properties": { "element": "way", "id": 814108376, "DQD_AR_GBN": "공장", "far": 68.556099, "gross_area": 3597.07 }, "geometry": { "type": "Polygon", "coordinates": [ [ [ 127.0926568, 37.2147547 ], [ 127.0933736, 37.2147566 ], [ 127.0933802, 37.2150291 ], [ 127.093383, 37.2151433 ], [ 127.0926521, 37.2151452 ], [ 127.0926568, 37.2147547 ] ] ] } },
{ "type": "Feature", "properties": { "element": "way", "id": 814108379, "DQD_AR_GBN": "제1종근린생활시설", "far": 77.34, "gross_area": 476.74 }, "geometry": { "type": "Polygon", "coordinates": [ [ [ 127.0921774, 37.2133472 ], [ 127.0924779, 37.2135116 ], [ 127.092514, 37.2135682 ], [ 127.09252, 37.2136216 ], [ 127.092514, 37.2136812 ], [ 127.092494, 37.2137376 ], [ 127.0924416, 37.2138077 ], [ 127.0919766, 37.2135635 ], [ 127.0921774, 37.2133472 ] ] ] } },
{ "type": "Feature", "properties": { "element": "way", "id": 814108380, "DQD_AR_GBN": "공장", "far": 315.67215, "gross_area": 20865.29 }, "geometry": { "type": "Polygon", "coordinates": [ [ [ 127.091536, 37.2139076 ], [ 127.0918045, 37.2136379 ], [ 127.0924607, 37.2140136 ], [ 127.0923649, 37.2141214 ], [ 127.0924537, 37.2141679 ], [ 127.0922809, 37.2143502 ], [ 127.091536, 37.2139076 ] ] ] } },
{ "type": "Feature", "properties": { "element": "way", "id": 814108385, "DQD_AR_GBN": "공장", "far": 329.9, "gross_area": 12034.527 }, "geometry": { "type": "Polygon", "coordinates": [ [ [ 127.0920743, 37.210644 ], [ 127.0924417, 37.2106461 ], [ 127.0925597, 37.2106995 ], [ 127.0925678, 37.2109751 ], [ 127.0919754, 37.2109701 ], [ 127.0919825, 37.2106939 ], [ 127.0920743, 37.210644 ] ] ] } },
{ "type": "Feature", "properties": { "element": "way", "id": 814108386, "DQD_AR_GBN": "공장", "far": 327.65658, "gross_area": 12840.49 }, "geometry": { "type": "Polygon", "coordinates": [ [ [ 127.0919819, 37.2110076 ], [ 127.092568, 37.2110057 ], [ 127.092575, 37.2112717 ], [ 127.0925073, 37.2113479 ], [ 127.0920543, 37.2113479 ], [ 127.0919772, 37.211281 ], [ 127.0919819, 37.2110076 ] ] ] } },
{ "type": "Feature", "properties": { "element": "way", "id": 1087744759, "DQD_AR_GBN": "단독주택", "far": 157.85, "gross_area": 422.64 }, "geometry": { "type": "Polygon", "coordinates": [ [ [ 127.0970695, 37.2068235 ], [ 127.0972528, 37.2068248 ], [ 127.0972497, 37.2067266 ], [ 127.0970695, 37.2067291 ], [ 127.0970695, 37.2068235 ] ] ] } },
{ "type": "Feature", "properties": { "element": "way", "id": 1185965710, "DQD_AR_GBN": "공장", "far": 360.48429, "gross_area": 89807.22 }, "geometry": { "type": "Polygon", "coordinates": [ [ [ 127.0966066, 37.2104214 ], [ 127.0965975, 37.2103151 ], [ 127.0963577, 37.2102692 ], [ 127.0962879, 37.2101967 ], [ 127.0963213, 37.2100444 ], [ 127.096382, 37.2099816 ], [ 127.0964336, 37.2099236 ], [ 127.0964518, 37.2095973 ], [ 127.0972135, 37.2095949 ], [ 127.0972074, 37.2096795 ], [ 127.0976474, 37.2096626 ], [ 127.0976292, 37.2098607 ], [ 127.0973591, 37.2098607 ], [ 127.0973136, 37.2104166 ], [ 127.0966066, 37.2104214 ] ] ] } },
{ "type": "Feature", "properties": { "element": "way", "id": 1240078758, "DQD_AR_GBN": "공장", "far": 360.12972, "gross_area": 24252.31 }, "geometry": { "type": "Polygon", "coordinates": [ [ [ 127.1019695, 37.2137063 ], [ 127.1023376, 37.2139671 ], [ 127.1019182, 37.2143772 ], [ 127.1015519, 37.2141179 ], [ 127.1019695, 37.2137063 ] ] ] } },
{ "type": "Feature", "properties": { "element": "way", "id": 1240078759, "DQD_AR_GBN": "공장", "far": 348.96878, "gross_area": 15285.28 }, "geometry": { "type": "Polygon", "coordinates": [ [ [ 127.0993372, 37.2138889 ], [ 127.0994978, 37.2138469 ], [ 127.0995222, 37.2139035 ], [ 127.0997722, 37.2138485 ], [ 127.0997031, 37.2137012 ], [ 127.0998332, 37.2136623 ], [ 127.0998881, 37.2136639 ], [ 127.0999226, 37.2136833 ], [ 127.1000588, 37.2139537 ], [ 127.0994632, 37.2141447 ], [ 127.0993372, 37.2138889 ] ] ] } },
{ "type": "Feature", "properties": { "element": "way", "id": 1240078760, "DQD_AR_GBN": "공장", "far": 359.69717, "gross_area": 35576.23 }, "geometry": { "type": "Polygon", "coordinates": [ [ [ 127.1003513, 37.2140945 ], [ 127.1010566, 37.2145623 ], [ 127.1006444, 37.2149609 ], [ 127.100606, 37.2149387 ], [ 127.1005446, 37.2148422 ], [ 127.1005759, 37.2148043 ], [ 127.1005096, 37.2147572 ], [ 127.1006887, 37.2145979 ], [ 127.1003594, 37.214368 ], [ 127.1002964, 37.2144247 ], [ 127.1001338, 37.2143033 ], [ 127.1003513, 37.2140945 ] ] ] } },
{ "type": "Feature", "properties": { "element": "way", "id": 1240078762, "DQD_AR_GBN": "공장", "far": 361.23853, "gross_area": 19160.41 }, "geometry": { "type": "Polygon", "coordinates": [ [ [ 127.0998028, 37.2147955 ], [ 127.0999705, 37.2147712 ], [ 127.0999928, 37.2148821 ], [ 127.1004014, 37.2148392 ], [ 127.1004695, 37.2150586 ], [ 127.0998769, 37.2151403 ], [ 127.0998028, 37.2147955 ] ] ] } },
{ "type": "Feature", "properties": { "element": "way", "id": 1240078764, "DQD_AR_GBN": "공장", "far": 359.64591, "gross_area": 14120.1037 }, "geometry": { "type": "Polygon", "coordinates": [ [ [ 127.0978497, 37.2110267 ], [ 127.0979498, 37.2110254 ], [ 127.0979498, 37.2110782 ], [ 127.0982379, 37.2110819 ], [ 127.0982348, 37.2109665 ], [ 127.0984135, 37.2109629 ], [ 127.0984274, 37.2112769 ], [ 127.0979159, 37.2112806 ], [ 127.0978527, 37.2112377 ], [ 127.0978497, 37.2110267 ] ] ] } },
{ "type": "Feature", "properties": { "element": "way", "id": 1240078765, "DQD_AR_GBN": "공장", "far": 360.30359, "gross_area": 43646.33 }, "geometry": { "type": "Polygon", "coordinates": [ [ [ 127.0978061, 37.2096136 ], [ 127.0983476, 37.2096136 ], [ 127.0983971, 37.2096517 ], [ 127.0984007, 37.2103409 ], [ 127.0979123, 37.2103409 ], [ 127.0979158, 37.2102211 ], [ 127.09796, 37.2102197 ], [ 127.0979583, 37.2097419 ], [ 127.0977955, 37.2097461 ], [ 127.0978061, 37.2096136 ] ] ] } },
{ "type": "Feature", "properties": { "element": "way", "id": 1240078865, "DQD_AR_GBN": "제1종근린생활시설", "far": 258.21, "gross_area": 3971.09 }, "geometry": { "type": "Polygon", "coordinates": [ [ [ 127.1085218, 37.2079502 ], [ 127.1089316, 37.2079183 ], [ 127.1089593, 37.2080864 ], [ 127.1087359, 37.2081097 ], [ 127.1085033, 37.2081563 ], [ 127.1084848, 37.2079931 ], [ 127.1085218, 37.2079502 ] ] ] } },
{ "type": "Feature", "properties": { "element": "way", "id": 1240078866, "DQD_AR_GBN": "업무시설", "far": 385.71, "gross_area": 9891.18 }, "geometry": { "type": "Polygon", "coordinates": [ [ [ 127.1084248, 37.208279 ], [ 127.1085264, 37.208225 ], [ 127.1085988, 37.2082851 ], [ 127.1088607, 37.2081526 ], [ 127.1089116, 37.2082066 ], [ 127.1089609, 37.2081747 ], [ 127.1090363, 37.2082545 ], [ 127.1086836, 37.2084348 ], [ 127.1086682, 37.2084103 ], [ 127.1085511, 37.2084606 ], [ 127.1084248, 37.208279 ] ] ] } },
{ "type": "Feature", "properties": { "element": "way", "id": 1240078867, "DQD_AR_GBN": "업무시설", "far": 399.55, "gross_area": 7648.93 }, "geometry": { "type": "Polygon", "coordinates": [ [ [ 127.1075312, 37.2079109 ], [ 127.1075713, 37.2078717 ], [ 127.1079379, 37.2079475 ], [ 127.1079394, 37.2079684 ], [ 127.1083138, 37.2079684 ], [ 127.1083446, 37.2080003 ], [ 127.1083292, 37.2081475 ], [ 127.1081567, 37.2082358 ], [ 127.107924, 37.2082076 ], [ 127.1079283, 37.2083035 ], [ 127.1078849, 37.2083051 ], [ 127.1078859, 37.2083215 ], [ 127.1077654, 37.2083205 ], [ 127.1077654, 37.2083426 ], [ 127.1076813, 37.2083401 ], [ 127.1076799, 37.2083641 ], [ 127.1076221, 37.2083647 ], [ 127.107619, 37.2083843 ], [ 127.1075297, 37.2083843 ], [ 127.1075312, 37.2079109 ] ] ] } },
{ "type": "Feature", "properties": { "element": "way", "id": 1240078869, "DQD_AR_GBN": "자동차관련시설", "far": 603.8, "gross_area": 50614.43 }, "geometry": { "type": "Polygon", "coordinates": [ [ [ 127.1091674, 37.2062315 ], [ 127.1100162, 37.2066016 ], [ 127.1100351, 37.2066481 ], [ 127.1097988, 37.2069874 ], [ 127.1097633, 37.2069718 ], [ 127.1094596, 37.2073815 ], [ 127.1093489, 37.2073373 ], [ 127.1093321, 37.2072654 ], [ 127.1094701, 37.2070672 ], [ 127.1091286, 37.2062881 ], [ 127.1091674, 37.2062315 ] ] ] } },
{ "type": "Feature", "properties": { "element": "way", "id": 1240080748, "DQD_AR_GBN": "공장", "far": 331.26316, "gross_area": 68938.11 }, "geometry": { "type": "Polygon", "coordinates": [ [ [ 127.0894513, 37.213916 ], [ 127.0902826, 37.2139085 ], [ 127.0906422, 37.2142228 ], [ 127.0902826, 37.2145092 ], [ 127.0894326, 37.2145055 ], [ 127.0894513, 37.213916 ] ] ] } },
{ "type": "Feature", "properties": { "element": "way", "id": 1240080749, "DQD_AR_GBN": "교육연구시설", "far": 207.98812, "gross_area": 6336.24 }, "geometry": { "type": "Polygon", "coordinates": [ [ [ 127.0911807, 37.2132138 ], [ 127.0913278, 37.2131357 ], [ 127.0916535, 37.2134751 ], [ 127.0915169, 37.2135894 ], [ 127.0913943, 37.2134527 ], [ 127.0912659, 37.2135485 ], [ 127.0912169, 37.2134927 ], [ 127.0913511, 37.2134007 ], [ 127.0911807, 37.2132138 ] ] ] } },
{ "type": "Feature", "properties": { "element": "way", "id": 1240080750, "DQD_AR_GBN": "업무시설", "far": 45.950836, "gross_area": 672.95 }, "geometry": { "type": "Polygon", "coordinates": [ [ [ 127.0911022, 37.212708 ], [ 127.0913503, 37.2127112 ], [ 127.0913517, 37.2128351 ], [ 127.0912202, 37.2128319 ], [ 127.0912256, 37.2130241 ], [ 127.0911036, 37.2130262 ], [ 127.0911022, 37.212708 ] ] ] } },
{ "type": "Feature", "properties": { "element": "way", "id": 1240080752, "DQD_AR_GBN": "공장", "far": 117.78241, "gross_area": 10021.97 }, "geometry": { "type": "Polygon", "coordinates": [ [ [ 127.0912265, 37.2117838 ], [ 127.09151, 37.2117822 ], [ 127.0915132, 37.2119272 ], [ 127.0914694, 37.2119287 ], [ 127.0914698, 37.2119959 ], [ 127.0915954, 37.2119991 ], [ 127.0916035, 37.2122047 ], [ 127.0910903, 37.2122095 ], [ 127.0911045, 37.2119959 ], [ 127.091261, 37.2119967 ], [ 127.0912631, 37.2119351 ], [ 127.0912224, 37.2119343 ], [ 127.0912265, 37.2117838 ] ] ] } },
{ "type": "Feature", "properties": { "element": "way", "id": 1240080753, "DQD_AR_GBN": "교육연구시설", "far": 359.16, "gross_area": 23202.27 }, "geometry": { "type": "Polygon", "coordinates": [ [ [ 127.0934231, 37.2136071 ], [ 127.0937222, 37.213606 ], [ 127.0937249, 37.2137577 ], [ 127.0938, 37.2137609 ], [ 127.093796, 37.21392 ], [ 127.0934204, 37.2139222 ], [ 127.0934231, 37.2136071 ] ] ] } },
{ "type": "Feature", "properties": { "element": "way", "id": 1240080756, "DQD_AR_GBN": "공장", "far": 360.15969, "gross_area": 37259.02 }, "geometry": { "type": "Polygon", "coordinates": [ [ [ 127.0938589, 37.2107684 ], [ 127.0941855, 37.2107733 ], [ 127.0941855, 37.2108346 ], [ 127.0943241, 37.2108432 ], [ 127.0943241, 37.2109181 ], [ 127.0943965, 37.2109193 ], [ 127.0943996, 37.2110469 ], [ 127.0945876, 37.2110493 ], [ 127.0945937, 37.2112861 ], [ 127.094281, 37.2112886 ], [ 127.0942841, 37.2113561 ], [ 127.0940653, 37.2113573 ], [ 127.0940561, 37.2110543 ], [ 127.0937511, 37.211053 ], [ 127.0937486, 37.210828 ], [ 127.0938571, 37.2108255 ], [ 127.0938589, 37.2107684 ] ] ] } },
{ "type": "Feature", "properties": { "element": "way", "id": 1240080763, "DQD_AR_GBN": "제2종근린생활시설", "far": 121.42233, "gross_area": 2270.19 }, "geometry": { "type": "Polygon", "coordinates": [ [ [ 127.1010747, 37.2096555 ], [ 127.1011564, 37.2095839 ], [ 127.1014308, 37.2095914 ], [ 127.101418, 37.2098043 ], [ 127.1012639, 37.2098071 ], [ 127.1012627, 37.2097495 ], [ 127.1010806, 37.2097448 ], [ 127.1010747, 37.2096555 ] ] ] } },
{ "type": "Feature", "properties": { "element": "way", "id": 1240080764, "DQD_AR_GBN": "제1종근린생활시설", "far": 296.50634, "gross_area": 5399.48 }, "geometry": { "type": "Polygon", "coordinates": [ [ [ 127.101453, 37.2095905 ], [ 127.1018826, 37.2095895 ], [ 127.1018791, 37.2096816 ], [ 127.1018429, 37.2096816 ], [ 127.1018383, 37.2097829 ], [ 127.1014425, 37.2097829 ], [ 127.101453, 37.2095905 ] ] ] } },
{ "type": "Feature", "properties": { "element": "way", "id": 1240080765, "DQD_AR_GBN": "제1종근린생활시설", "far": 296.7346, "gross_area": 4698.45 }, "geometry": { "type": "Polygon", "coordinates": [ [ [ 127.1018943, 37.2095877 ], [ 127.1022446, 37.2095895 ], [ 127.1022411, 37.209822 ], [ 127.1021173, 37.2098201 ], [ 127.1021173, 37.2097792 ], [ 127.101892, 37.2097783 ], [ 127.1018943, 37.2095877 ] ] ] } },
{ "type": "Feature", "properties": { "element": "way", "id": 1240080766, "DQD_AR_GBN": "제1종근린생활시설", "far": 296.16239, "gross_area": 4003.4175 }, "geometry": { "type": "Polygon", "coordinates": [ [ [ 127.1022843, 37.209583 ], [ 127.1025761, 37.2095821 ], [ 127.1025785, 37.2098025 ], [ 127.1023275, 37.2098043 ], [ 127.1023251, 37.2097104 ], [ 127.1022808, 37.2097123 ], [ 127.1022843, 37.209583 ] ] ] } },
{ "type": "Feature", "properties": { "element": "way", "id": 1240080767, "DQD_AR_GBN": "제1종근린생활시설", "far": 297.31634, "gross_area": 7819.85 }, "geometry": { "type": "Polygon", "coordinates": [ [ [ 127.1026182, 37.2095784 ], [ 127.1031552, 37.2095672 ], [ 127.1032498, 37.2096202 ], [ 127.1032474, 37.2097588 ], [ 127.1032054, 37.2097959 ], [ 127.1029626, 37.209795 ], [ 127.1029637, 37.2097457 ], [ 127.1027571, 37.2097467 ], [ 127.1027559, 37.2096834 ], [ 127.1026147, 37.2096853 ], [ 127.1026182, 37.2095784 ] ] ] } },
{ "type": "Feature", "properties": { "element": "way", "id": 1240080768, "DQD_AR_GBN": "공장", "far": 360.1889, "gross_area": 49880.5688 }, "geometry": { "type": "Polygon", "coordinates": [ [ [ 127.0966862, 37.2106042 ], [ 127.0973101, 37.2106067 ], [ 127.0973224, 37.211268 ], [ 127.0968033, 37.2112716 ], [ 127.0968048, 37.2111882 ], [ 127.0965953, 37.2111919 ], [ 127.096583, 37.2110201 ], [ 127.0966939, 37.2110164 ], [ 127.0966862, 37.2106042 ] ] ] } },
{ "type": "Feature", "properties": { "element": "way", "id": 1240795615, "DQD_AR_GBN": "자동차관련시설", "far": 162.99893, "gross_area": 6084.09 }, "geometry": { "type": "Polygon", "coordinates": [ [ [ 127.0976086, 37.2067315 ], [ 127.0979877, 37.2067331 ], [ 127.0979806, 37.207035 ], [ 127.0979491, 37.2070609 ], [ 127.0976361, 37.2070569 ], [ 127.0976045, 37.2070334 ], [ 127.0976086, 37.2067315 ] ] ] } },
{ "type": "Feature", "properties": { "element": "way", "id": 1240795616, "DQD_AR_GBN": "공장", "far": 337.915, "gross_area": 57692.26 }, "geometry": { "type": "Polygon", "coordinates": [ [ [ 127.0978171, 37.2076995 ], [ 127.097814, 37.2075155 ], [ 127.0982408, 37.2075191 ], [ 127.0982516, 37.207805 ], [ 127.0980374, 37.2078099 ], [ 127.0980297, 37.2079326 ], [ 127.09825, 37.2079326 ], [ 127.0982454, 37.2082786 ], [ 127.0978171, 37.2082823 ], [ 127.0978248, 37.208005 ], [ 127.0975753, 37.2080031 ], [ 127.097576, 37.2079072 ], [ 127.0974628, 37.207907 ], [ 127.0974613, 37.2079995 ], [ 127.0973503, 37.2080013 ], [ 127.0973582, 37.2077866 ], [ 127.0972518, 37.2077878 ], [ 127.0972502, 37.2075842 ], [ 127.0973211, 37.2075228 ], [ 127.0976569, 37.2075081 ], [ 127.0977077, 37.2076934 ], [ 127.0978171, 37.2076995 ] ] ] } },
{ "type": "Feature", "properties": { "element": "way", "id": 1240795617, "DQD_AR_GBN": "공장", "far": 359.94, "gross_area": 72072.83 }, "geometry": { "type": "Polygon", "coordinates": [ [ [ 127.0973688, 37.2083612 ], [ 127.0975783, 37.2083625 ], [ 127.097623, 37.2083772 ], [ 127.0976692, 37.2084128 ], [ 127.0977, 37.208468 ], [ 127.0976969, 37.2085576 ], [ 127.0977724, 37.20856 ], [ 127.0977801, 37.2083956 ], [ 127.0980528, 37.2084005 ], [ 127.0980605, 37.2087281 ], [ 127.0981591, 37.2087281 ], [ 127.0981529, 37.2086373 ], [ 127.0981545, 37.208506 ], [ 127.0981807, 37.2083477 ], [ 127.09829, 37.2083735 ], [ 127.0982947, 37.2089391 ], [ 127.0982253, 37.2089551 ], [ 127.098193, 37.2088851 ], [ 127.098176, 37.2087784 ], [ 127.0980497, 37.2087796 ], [ 127.0980651, 37.2088913 ], [ 127.0980374, 37.2089907 ], [ 127.0973395, 37.2089894 ], [ 127.0973411, 37.2090667 ], [ 127.0970807, 37.2090655 ], [ 127.0970684, 37.2086079 ], [ 127.097204, 37.2085944 ], [ 127.0972132, 37.2084741 ], [ 127.0972517, 37.2084152 ], [ 127.097301, 37.2083735 ], [ 127.0973688, 37.2083612 ] ] ] } },
{ "type": "Feature", "properties": { "element": "way", "id": 1240795638, "DQD_AR_GBN": "판매시설", "far": 0.0, "gross_area": 29411.86 }, "geometry": { "type": "Polygon", "coordinates": [ [ [ 127.1049296, 37.207619 ], [ 127.1060831, 37.2076265 ], [ 127.1061952, 37.2076897 ], [ 127.1061954, 37.2079853 ], [ 127.106417, 37.207991 ], [ 127.1064194, 37.2085135 ], [ 127.1061438, 37.2085135 ], [ 127.1061455, 37.2086735 ], [ 127.1052072, 37.2086736 ], [ 127.1052097, 37.2084805 ], [ 127.104937, 37.2084842 ], [ 127.1049296, 37.207619 ] ] ] } },
{ "type": "Feature", "properties": { "element": "way", "id": 1240795640, "DQD_AR_GBN": "교육연구시설", "far": 63.13, "gross_area": 11864.69 }, "geometry": { "type": "Polygon", "coordinates": [ [ [ 127.1042729, 37.2100128 ], [ 127.1045925, 37.2100111 ], [ 127.1045945, 37.2102523 ], [ 127.1045006, 37.2102528 ], [ 127.1045016, 37.2103819 ], [ 127.1046483, 37.2103818 ], [ 127.1046479, 37.2104287 ], [ 127.1046499, 37.2106813 ], [ 127.1042785, 37.2106833 ], [ 127.1042729, 37.2100128 ] ] ] } },
{ "type": "Feature", "properties": { "element": "way", "id": 1240795642, "DQD_AR_GBN": "교육연구시설", "far": 199.05708, "gross_area": 4392.05 }, "geometry": { "type": "Polygon", "coordinates": [ [ [ 127.103742, 37.2103879 ], [ 127.1042, 37.2103875 ], [ 127.1042004, 37.2106781 ], [ 127.1039865, 37.2106783 ], [ 127.1039865, 37.2106397 ], [ 127.1037423, 37.2106399 ], [ 127.103742, 37.2103879 ] ] ] } },
{ "type": "Feature", "properties": { "element": "way", "id": 1240795643, "DQD_AR_GBN": "노유자시설", "far": 43.885496, "gross_area": 919.84 }, "geometry": { "type": "Polygon", "coordinates": [ [ [ 127.1037956, 37.2107115 ], [ 127.1039138, 37.2107126 ], [ 127.1039134, 37.2107365 ], [ 127.1041889, 37.2107393 ], [ 127.1041876, 37.2108229 ], [ 127.1041618, 37.2108227 ], [ 127.1041608, 37.2108848 ], [ 127.1040055, 37.2108833 ], [ 127.1040057, 37.2108692 ], [ 127.1037658, 37.2108668 ], [ 127.103767, 37.2107944 ], [ 127.1037943, 37.2107947 ], [ 127.1037956, 37.2107115 ] ] ] } },
{ "type": "Feature", "properties": { "element": "way", "id": 1240795646, "DQD_AR_GBN": "종교시설", "far": 121.82552, "gross_area": 2540.26 }, "geometry": { "type": "Polygon", "coordinates": [ [ [ 127.1049913, 37.2145161 ], [ 127.1051806, 37.2146162 ], [ 127.105186, 37.2146697 ], [ 127.1049577, 37.2149065 ], [ 127.1048621, 37.2148445 ], [ 127.1049577, 37.2147472 ], [ 127.1048409, 37.214681 ], [ 127.1049913, 37.2145161 ] ] ] } },
{ "type": "Feature", "properties": { "element": "way", "id": 1240795647, "DQD_AR_GBN": "공장", "far": 330.12537, "gross_area": 14312.23 }, "geometry": { "type": "Polygon", "coordinates": [ [ [ 127.1025774, 37.2115089 ], [ 127.1030904, 37.2115028 ], [ 127.1031998, 37.211574 ], [ 127.1032059, 37.2118365 ], [ 127.1025743, 37.2118488 ], [ 127.1025774, 37.2115089 ] ] ] } },
{ "type": "Feature", "properties": { "element": "way", "id": 1240795648, "DQD_AR_GBN": "공장", "far": 359.93603, "gross_area": 16362.52 }, "geometry": { "type": "Polygon", "coordinates": [ [ [ 127.0991789, 37.2106789 ], [ 127.0992606, 37.2105992 ], [ 127.0998922, 37.2105808 ], [ 127.0998953, 37.2109206 ], [ 127.0991805, 37.2109268 ], [ 127.0991789, 37.2106789 ] ] ] } },
{ "type": "Feature", "properties": { "element": "way", "id": 1240795649, "DQD_AR_GBN": "공장", "far": 328.79961, "gross_area": 15245.94 }, "geometry": { "type": "Polygon", "coordinates": [ [ [ 127.0999277, 37.2105812 ], [ 127.1007404, 37.2105855 ], [ 127.1007311, 37.2109048 ], [ 127.0999331, 37.2109134 ], [ 127.0999277, 37.2105812 ] ] ] } },
{ "type": "Feature", "properties": { "element": "way", "id": 1240795650, "DQD_AR_GBN": "공장", "far": 327.33654, "gross_area": 17183.75 }, "geometry": { "type": "Polygon", "coordinates": [ [ [ 127.0999398, 37.2109294 ], [ 127.1007445, 37.2109251 ], [ 127.1007364, 37.2111804 ], [ 127.1006546, 37.2111772 ], [ 127.1006573, 37.2112626 ], [ 127.0999385, 37.2112605 ], [ 127.0999398, 37.2109294 ] ] ] } },
{ "type": "Feature", "properties": { "element": "way", "id": 1240795651, "DQD_AR_GBN": "공장", "far": 359.34731, "gross_area": 16527.98 }, "geometry": { "type": "Polygon", "coordinates": [ [ [ 127.0998084, 37.211268 ], [ 127.0998057, 37.2110714 ], [ 127.099913, 37.2110757 ], [ 127.0999036, 37.2109315 ], [ 127.0991781, 37.2109401 ], [ 127.0991928, 37.211222 ], [ 127.0992357, 37.2112552 ], [ 127.0998084, 37.211268 ] ] ] } },
{ "type": "Feature", "properties": { "element": "way", "id": 1241029738, "DQD_AR_GBN": "공동주택", "far": 0.0, "gross_area": 10.89 }, "geometry": { "type": "Polygon", "coordinates": [ [ [ 127.1126837, 37.2116308 ], [ 127.1134155, 37.2116154 ], [ 127.1134165, 37.2117141 ], [ 127.1126888, 37.2117238 ], [ 127.1126837, 37.2116308 ] ] ] } },
{ "type": "Feature", "properties": { "element": "way", "id": 1241029771, "DQD_AR_GBN": "제2종근린생활시설", "far": 0.0, "gross_area": 532.36 }, "geometry": { "type": "Polygon", "coordinates": [ [ [ 127.1053633, 37.2121784 ], [ 127.1053597, 37.2116879 ], [ 127.1047298, 37.2116795 ], [ 127.1047492, 37.2121685 ], [ 127.1053633, 37.2121784 ] ] ] } },
{ "type": "Feature", "properties": { "element": "way", "id": 1263697103, "DQD_AR_GBN": "제2종근린생활시설", "far": 287.27, "gross_area": 5817.91 }, "geometry": { "type": "Polygon", "coordinates": [ [ [ 127.1073582, 37.2065004 ], [ 127.1073558, 37.2061965 ], [ 127.1073806, 37.2061725 ], [ 127.1076637, 37.2061712 ], [ 127.1076647, 37.2062944 ], [ 127.1075819, 37.2062948 ], [ 127.1075822, 37.2063298 ], [ 127.1075597, 37.2063299 ], [ 127.10756, 37.2063653 ], [ 127.1075811, 37.2063652 ], [ 127.1075818, 37.2064483 ], [ 127.1075166, 37.2064487 ], [ 127.107517, 37.2064997 ], [ 127.1073582, 37.2065004 ] ] ] } },
{ "type": "Feature", "properties": { "element": "way", "id": 1263697104, "DQD_AR_GBN": "제1종근린생활시설", "far": 296.46, "gross_area": 5993.439 }, "geometry": { "type": "Polygon", "coordinates": [ [ [ 127.1077358, 37.2064697 ], [ 127.1079288, 37.2064691 ], [ 127.1079281, 37.2063253 ], [ 127.1080025, 37.206325 ], [ 127.1080017, 37.2061696 ], [ 127.107672, 37.2061706 ], [ 127.1076727, 37.2063125 ], [ 127.1076952, 37.2063124 ], [ 127.1076959, 37.2064615 ], [ 127.1077357, 37.2064614 ], [ 127.1077358, 37.2064697 ] ] ] } },
{ "type": "Feature", "properties": { "element": "way", "id": 1269286638, "DQD_AR_GBN": "단독주택", "far": 154.93, "gross_area": 423.57 }, "geometry": { "type": "Polygon", "coordinates": [ [ [ 127.0944259, 37.2062586 ], [ 127.094268, 37.206257 ], [ 127.09427, 37.2061323 ], [ 127.0944279, 37.2061339 ], [ 127.0944259, 37.2062586 ] ] ] } },
{ "type": "Feature", "properties": { "element": "way", "id": 1269286639, "DQD_AR_GBN": "단독주택", "far": 152.97, "gross_area": 417.92 }, "geometry": { "type": "Polygon", "coordinates": [ [ [ 127.0940646, 37.2062599 ], [ 127.0941998, 37.2062607 ], [ 127.0942004, 37.2061978 ], [ 127.0942415, 37.2061981 ], [ 127.0942421, 37.2061319 ], [ 127.0940659, 37.2061308 ], [ 127.0940646, 37.2062599 ] ] ] } },
{ "type": "Feature", "properties": { "element": "way", "id": 1269286640, "DQD_AR_GBN": "단독주택", "far": 166.54, "gross_area": 372.39 }, "geometry": { "type": "Polygon", "coordinates": [ [ [ 127.0939343, 37.2062624 ], [ 127.0940156, 37.2062639 ], [ 127.0940192, 37.2061389 ], [ 127.0938733, 37.2061363 ], [ 127.0938718, 37.206189 ], [ 127.0939034, 37.2061896 ], [ 127.0939022, 37.2062322 ], [ 127.0939351, 37.2062328 ], [ 127.0939343, 37.2062624 ] ] ] } },
{ "type": "Feature", "properties": { "element": "way", "id": 1269286641, "DQD_AR_GBN": "단독주택", "far": 149.54, "gross_area": 334.38 }, "geometry": { "type": "Polygon", "coordinates": [ [ [ 127.0938733, 37.2061363 ], [ 127.0937292, 37.2061349 ], [ 127.0937285, 37.2062411 ], [ 127.0938716, 37.2062417 ], [ 127.0938718, 37.206189 ], [ 127.0938733, 37.2061363 ] ] ] } },
{ "type": "Feature", "properties": { "element": "way", "id": 1269286642, "DQD_AR_GBN": "단독주택", "far": 164.45, "gross_area": 367.4 }, "geometry": { "type": "Polygon", "coordinates": [ [ [ 127.0937292, 37.2061349 ], [ 127.0935768, 37.206134 ], [ 127.0935772, 37.2062417 ], [ 127.0937285, 37.2062411 ], [ 127.0937292, 37.2061349 ] ] ] } },
{ "type": "Feature", "properties": { "element": "way", "id": 1269286643, "DQD_AR_GBN": "단독주택", "far": 167.85, "gross_area": 440.31 }, "geometry": { "type": "Polygon", "coordinates": [ [ [ 127.0934312, 37.2061547 ], [ 127.0934894, 37.2061546 ], [ 127.0934893, 37.2061326 ], [ 127.0935768, 37.206134 ], [ 127.0935772, 37.2062417 ], [ 127.0935191, 37.2062433 ], [ 127.0935191, 37.2062616 ], [ 127.0934583, 37.2062617 ], [ 127.0934315, 37.2062451 ], [ 127.0934312, 37.2061547 ] ] ] } },
{ "type": "Feature", "properties": { "element": "way", "id": 1269286644, "DQD_AR_GBN": "단독주택", "far": 151.48, "gross_area": 399.9 }, "geometry": { "type": "Polygon", "coordinates": [ [ [ 127.0933505, 37.2061367 ], [ 127.0931863, 37.2061377 ], [ 127.0931874, 37.2062572 ], [ 127.0932542, 37.2062569 ], [ 127.0932539, 37.2062213 ], [ 127.0933513, 37.2062207 ], [ 127.0933505, 37.2061367 ] ] ] } },
{ "type": "Feature", "properties": { "element": "way", "id": 1269286646, "DQD_AR_GBN": "단독주택", "far": 154.98, "gross_area": 397.36 }, "geometry": { "type": "Polygon", "coordinates": [ [ [ 127.0934855, 37.2069738 ], [ 127.093518, 37.2069997 ], [ 127.0936716, 37.2069997 ], [ 127.0936716, 37.2069488 ], [ 127.0936236, 37.2069488 ], [ 127.0936236, 37.2068727 ], [ 127.0935271, 37.2068726 ], [ 127.0934855, 37.2069026 ], [ 127.0934855, 37.2069738 ] ] ] } },
{ "type": "Feature", "properties": { "element": "way", "id": 1269286647, "DQD_AR_GBN": "단독주택", "far": 143.36, "gross_area": 367.72 }, "geometry": { "type": "Polygon", "coordinates": [ [ [ 127.0936716, 37.2069997 ], [ 127.0938527, 37.2069984 ], [ 127.0938518, 37.2068909 ], [ 127.0936702, 37.2068918 ], [ 127.0936716, 37.2069488 ], [ 127.0936716, 37.2069997 ] ] ] } },
{ "type": "Feature", "properties": { "element": "way", "id": 1269286648, "DQD_AR_GBN": "단독주택", "far": 167.75, "gross_area": 406.12 }, "geometry": { "type": "Polygon", "coordinates": [ [ [ 127.0942321, 37.2069881 ], [ 127.0942343, 37.2068801 ], [ 127.0940808, 37.2068782 ], [ 127.0940787, 37.2069862 ], [ 127.0942321, 37.2069881 ] ] ] } },
{ "type": "Feature", "properties": { "element": "way", "id": 1269286651, "DQD_AR_GBN": "단독주택", "far": 151.01, "gross_area": 398.98 }, "geometry": { "type": "Polygon", "coordinates": [ [ [ 127.0931901, 37.2065575 ], [ 127.0931917, 37.2064271 ], [ 127.0932146, 37.2064273 ], [ 127.0932148, 37.2064156 ], [ 127.0932979, 37.2064163 ], [ 127.0932976, 37.2064332 ], [ 127.0933196, 37.2064334 ], [ 127.0933191, 37.2064701 ], [ 127.0933429, 37.2064703 ], [ 127.0933426, 37.2064956 ], [ 127.0933184, 37.2064954 ], [ 127.0933176, 37.2065585 ], [ 127.0932962, 37.2065583 ], [ 127.0932133, 37.2065577 ], [ 127.0931901, 37.2065575 ] ] ] } },
{ "type": "Feature", "properties": { "element": "way", "id": 1269286652, "DQD_AR_GBN": "단독주택", "far": 151.01, "gross_area": 398.97 }, "geometry": { "type": "Polygon", "coordinates": [ [ [ 127.0931884, 37.2067009 ], [ 127.0931902, 37.206571 ], [ 127.0932132, 37.2065712 ], [ 127.0932133, 37.2065577 ], [ 127.0932962, 37.2065583 ], [ 127.093296, 37.2065766 ], [ 127.0933179, 37.2065768 ], [ 127.0933174, 37.2066135 ], [ 127.0933412, 37.2066137 ], [ 127.0933408, 37.2066393 ], [ 127.0933166, 37.2066391 ], [ 127.0933157, 37.206702 ], [ 127.0932937, 37.2067018 ], [ 127.0932112, 37.2067011 ], [ 127.0931884, 37.2067009 ] ] ] } },
{ "type": "Feature", "properties": { "element": "way", "id": 1269286653, "DQD_AR_GBN": "단독주택", "far": 151.01, "gross_area": 398.97 }, "geometry": { "type": "Polygon", "coordinates": [ [ [ 127.0931869, 37.2068478 ], [ 127.0931881, 37.2067172 ], [ 127.093211, 37.2067173 ], [ 127.0932112, 37.2067011 ], [ 127.0932937, 37.2067018 ], [ 127.0932935, 37.2067227 ], [ 127.0933155, 37.2067228 ], [ 127.0933151, 37.2067595 ], [ 127.093339, 37.2067596 ], [ 127.0933387, 37.2067855 ], [ 127.0933146, 37.2067853 ], [ 127.093314, 37.2068485 ], [ 127.0932649, 37.2068482 ], [ 127.0931869, 37.2068478 ] ] ] } },
{ "type": "Feature", "properties": { "element": "way", "id": 1269286654, "DQD_AR_GBN": "단독주택", "far": 151.22, "gross_area": 399.83 }, "geometry": { "type": "Polygon", "coordinates": [ [ [ 127.0931869, 37.2068478 ], [ 127.0931889, 37.2069843 ], [ 127.0933247, 37.2069831 ], [ 127.0933582, 37.2069604 ], [ 127.0933576, 37.2069171 ], [ 127.0933298, 37.2069174 ], [ 127.0933294, 37.2068926 ], [ 127.0932656, 37.2068932 ], [ 127.0932649, 37.2068482 ], [ 127.0931869, 37.2068478 ] ] ] } },
{ "type": "Feature", "properties": { "element": "way", "id": 1269286655, "DQD_AR_GBN": "단독주택", "far": 155.11, "gross_area": 365.13 }, "geometry": { "type": "Polygon", "coordinates": [ [ [ 127.0936443, 37.2064724 ], [ 127.0938156, 37.206473 ], [ 127.0938163, 37.2063553 ], [ 127.093645, 37.2063547 ], [ 127.0936443, 37.2064724 ] ] ] } },
{ "type": "Feature", "properties": { "element": "way", "id": 1269286656, "DQD_AR_GBN": "단독주택", "far": 166.15, "gross_area": 391.12 }, "geometry": { "type": "Polygon", "coordinates": [ [ [ 127.0938163, 37.2063553 ], [ 127.0939285, 37.2063563 ], [ 127.093963, 37.2063753 ], [ 127.0939631, 37.2064726 ], [ 127.0938156, 37.206473 ], [ 127.0938163, 37.2063553 ] ] ] } },
{ "type": "Feature", "properties": { "element": "way", "id": 1271025785, "DQD_AR_GBN": "단독주택", "far": 163.4, "gross_area": 419.61 }, "geometry": { "type": "Polygon", "coordinates": [ [ [ 127.0934923, 37.2072583 ], [ 127.0935309, 37.2072908 ], [ 127.0936287, 37.2072908 ], [ 127.0936646, 37.2072546 ], [ 127.0936648, 37.2071604 ], [ 127.0935216, 37.2071601 ], [ 127.0934939, 37.2071724 ], [ 127.0934923, 37.2072583 ] ] ] } },
{ "type": "Feature", "properties": { "element": "way", "id": 1271025786, "DQD_AR_GBN": "단독주택", "far": 160.55, "gross_area": 412.62 }, "geometry": { "type": "Polygon", "coordinates": [ [ [ 127.0936646, 37.2072546 ], [ 127.0936645, 37.2072782 ], [ 127.0936995, 37.2072783 ], [ 127.0936995, 37.2072652 ], [ 127.0938546, 37.2072655 ], [ 127.0938545, 37.2071604 ], [ 127.0936648, 37.2071604 ], [ 127.0936646, 37.2072546 ] ] ] } },
{ "type": "Feature", "properties": { "element": "way", "id": 1271025787, "DQD_AR_GBN": "단독주택", "far": 154.02, "gross_area": 395.38 }, "geometry": { "type": "Polygon", "coordinates": [ [ [ 127.0938545, 37.2071604 ], [ 127.0940289, 37.2071604 ], [ 127.094029, 37.2072684 ], [ 127.0939205, 37.2072685 ], [ 127.0939205, 37.2072827 ], [ 127.0938791, 37.2072827 ], [ 127.0938791, 37.2072654 ], [ 127.0938546, 37.2072655 ], [ 127.0938545, 37.2071604 ] ] ] } },
{ "type": "Feature", "properties": { "element": "way", "id": 1271025788, "DQD_AR_GBN": "단독주택", "far": 150.81, "gross_area": 386.68 }, "geometry": { "type": "Polygon", "coordinates": [ [ [ 127.0940871, 37.2071612 ], [ 127.0942486, 37.2071596 ], [ 127.09425, 37.207246 ], [ 127.0942218, 37.2072463 ], [ 127.0942224, 37.2072861 ], [ 127.0941786, 37.2072865 ], [ 127.0941785, 37.2072766 ], [ 127.094089, 37.2072775 ], [ 127.0940871, 37.2071612 ] ] ] } },
{ "type": "Feature", "properties": { "element": "way", "id": 1271025789, "DQD_AR_GBN": "단독주택", "far": 164.15, "gross_area": 399.53 }, "geometry": { "type": "Polygon", "coordinates": [ [ [ 127.0942859, 37.2071619 ], [ 127.0943833, 37.2071609 ], [ 127.094421, 37.2071836 ], [ 127.0944241, 37.2072584 ], [ 127.0943879, 37.2072836 ], [ 127.0942879, 37.2072846 ], [ 127.0942859, 37.2071619 ] ] ] } },
{ "type": "Feature", "properties": { "element": "way", "id": 1271025790, "DQD_AR_GBN": "단독주택", "far": 158.3, "gross_area": 394.8 }, "geometry": { "type": "Polygon", "coordinates": [ [ [ 127.0936861, 37.2075199 ], [ 127.0938441, 37.2075194 ], [ 127.0938436, 37.207427 ], [ 127.0938213, 37.2074067 ], [ 127.0936855, 37.2074072 ], [ 127.0936861, 37.2075199 ] ] ] } },
{ "type": "Feature", "properties": { "element": "way", "id": 1271025792, "DQD_AR_GBN": "단독주택", "far": 157.53, "gross_area": 392.87 }, "geometry": { "type": "Polygon", "coordinates": [ [ [ 127.0934895, 37.2075195 ], [ 127.0934882, 37.2074343 ], [ 127.0935275, 37.2074006 ], [ 127.0936557, 37.2074015 ], [ 127.0936535, 37.2075196 ], [ 127.0934895, 37.2075195 ] ] ] } },
{ "type": "Feature", "properties": { "element": "way", "id": 1271025793, "DQD_AR_GBN": "단독주택", "far": 157.48, "gross_area": 393.22 }, "geometry": { "type": "Polygon", "coordinates": [ [ [ 127.0934895, 37.2075195 ], [ 127.0934894, 37.207645 ], [ 127.0936534, 37.2076451 ], [ 127.0936535, 37.2075196 ], [ 127.0934895, 37.2075195 ] ] ] } },
{ "type": "Feature", "properties": { "element": "way", "id": 1271025794, "DQD_AR_GBN": "단독주택", "far": 159.75, "gross_area": 398.89 }, "geometry": { "type": "Polygon", "coordinates": [ [ [ 127.0936852, 37.2076635 ], [ 127.0938249, 37.2076637 ], [ 127.0938247, 37.20779 ], [ 127.093685, 37.2077899 ], [ 127.0936852, 37.2076635 ] ] ] } },
{ "type": "Feature", "properties": { "element": "way", "id": 1271025795, "DQD_AR_GBN": "단독주택", "far": 157.77, "gross_area": 394.27 }, "geometry": { "type": "Polygon", "coordinates": [ [ [ 127.0934774, 37.2078963 ], [ 127.093519, 37.2079275 ], [ 127.0936627, 37.2079279 ], [ 127.0936632, 37.2077949 ], [ 127.0935843, 37.2077948 ], [ 127.0935842, 37.2078145 ], [ 127.0934778, 37.2078143 ], [ 127.0934774, 37.2078963 ] ] ] } },
{ "type": "Feature", "properties": { "element": "way", "id": 1271025796, "DQD_AR_GBN": "단독주택", "far": 157.34, "gross_area": 393.36 }, "geometry": { "type": "Polygon", "coordinates": [ [ [ 127.0934929, 37.2080705 ], [ 127.0935361, 37.2080408 ], [ 127.0936686, 37.2080413 ], [ 127.0936685, 37.2081548 ], [ 127.0934926, 37.2081547 ], [ 127.0934929, 37.2080705 ] ] ] } },
{ "type": "Feature", "properties": { "element": "way", "id": 1271025797, "DQD_AR_GBN": "단독주택", "far": 154.54, "gross_area": 386.36 }, "geometry": { "type": "Polygon", "coordinates": [ [ [ 127.0934926, 37.2081547 ], [ 127.0934925, 37.2082633 ], [ 127.0936685, 37.2082634 ], [ 127.0936685, 37.2081548 ], [ 127.0934926, 37.2081547 ] ] ] } },
{ "type": "Feature", "properties": { "element": "way", "id": 1271025798, "DQD_AR_GBN": "단독주택", "far": 161.43, "gross_area": 403.57 }, "geometry": { "type": "Polygon", "coordinates": [ [ [ 127.0936965, 37.2081658 ], [ 127.0938424, 37.2081678 ], [ 127.0938403, 37.2082645 ], [ 127.0936944, 37.2082625 ], [ 127.0936965, 37.2081658 ] ] ] } },
{ "type": "Feature", "properties": { "element": "way", "id": 1271025799, "DQD_AR_GBN": "단독주택", "far": 146.38, "gross_area": 365.8 }, "geometry": { "type": "Polygon", "coordinates": [ [ [ 127.0937018, 37.2084477 ], [ 127.0937035, 37.208308 ], [ 127.0938506, 37.2083092 ], [ 127.0938489, 37.2084489 ], [ 127.0937018, 37.2084477 ] ] ] } },
{ "type": "Feature", "properties": { "element": "way", "id": 1271025800, "DQD_AR_GBN": "단독주택", "far": 150.97, "gross_area": 447.92 }, "geometry": { "type": "Polygon", "coordinates": [ [ [ 127.0938489, 37.2084489 ], [ 127.0938478, 37.2085448 ], [ 127.0938163, 37.2085699 ], [ 127.0936826, 37.2085703 ], [ 127.0936821, 37.2084481 ], [ 127.0937018, 37.2084477 ], [ 127.0938489, 37.2084489 ] ] ] } },
{ "type": "Feature", "properties": { "element": "way", "id": 1348844511, "DQD_AR_GBN": "제2종근린생활시설", "far": 43.63, "gross_area": 497.4 }, "geometry": { "type": "Polygon", "coordinates": [ [ [ 127.1048863, 37.2098201 ], [ 127.1052234, 37.2098191 ], [ 127.1052897, 37.2097725 ], [ 127.1052912, 37.2095958 ], [ 127.1052311, 37.2095615 ], [ 127.1048867, 37.2095608 ], [ 127.104886, 37.2097593 ], [ 127.1048863, 37.2098201 ] ] ] } }
]
}
