{
"type": "FeatureCollection",
"name": "pangyo_zoning",
"crs": { "type": "name", "properties": { "name": "urn:ogc:def:crs:OGC:1.3:CRS84" } },
"features": [
{ "type": "Feature", "properties": { "DQD_AR_GBN": "상업지역" }, "geometry": { "type": "Polygon", "coordinates": [ [ [ 127.1053, 37.3979 ], [ 127.1053, 37.40235 ], [ 127.0988, 37.40235 ], [ 127.0988, 37.3979 ], [ 127.1053, 37.3979 ] ] ] } },
{ "type": "Feature", "properties": { "DQD_AR_GBN": "상업지역" }, "geometry": { "type": "Polygon", "coordinates": [ [ [ 127.1118, 37.3979 ], [ 127.1118, 37.40235 ], [ 127.1053, 37.40235 ], [ 127.1053, 37.3979 ], [ 127.1118, 37.3979 ] ] ] } },
{ "type": "Feature", "properties": { "DQD_AR_GBN": "주거지역" }, "geometry": { "type": "Polygon", "coordinates": [ [ [ 127.1053, 37.40235 ], [ 127.1053, 37.4068 ], [ 127.0988, 37.4068 ], [ 127.0988, 37.40235 ], [ 127.1053, 37.40235 ] ] ] } },
{ "type": "Feature", "properties": { "DQD_AR_GBN": "녹지지역" }, "geometry": { "type": "Polygon", "coordinates": [ [ [ 127.1118, 37.40235 ], [ 127.1118, 37.4068 ], [ 127.1053, 37.4068 ], [ 127.1053, 37.40235 ], [ 127.1118, 37.40235 ] ] ] } }
]
}
