{
"type": "FeatureCollection",
"name": "pangyo_buildings",
"crs": { "type": "name", "properties": { "name": "urn:ogc:def:crs:OGC:1.3:CRS84" } },
"features": [
{ "type": "Feature", "properties": { "element": "way", "id": 288726019, "DQD_AR_GBN": "기타", "far": 0.0, "gross_area": 0.0 }, "geometry": { "type": "Polygon", "coordinates": [ [ [ 127.1006805, 37.4018002 ], [ 127.1006803, 37.4017086 ], [ 127.1006614, 37.4017086 ], [ 127.1006611, 37.4015584 ], [ 127.1010652, 37.4015579 ], [ 127.1010656, 37.4017997 ], [ 127.1006805, 37.4018002 ] ] ] } },
{ "type": "Feature", "properties": { "element": "way", "id": 290198546, "DQD_AR_GBN": "기타", "far": 0.0, "gross_area": 0.0 }, "geometry": { "type": "Polygon", "coordinates": [ [ [ 127.10968, 37.4048265 ], [ 127.1095951, 37.4048267 ], [ 127.1095949, 37.4047612 ], [ 127.1093548, 37.4047617 ], [ 127.1093531, 37.404205 ], [ 127.1096173, 37.4042045 ], [ 127.1096179, 37.404436 ], [ 127.1096181, 37.4044859 ], [ 127.1100608, 37.4044851 ], [ 127.1100607, 37.4044387 ], [ 127.11006, 37.4042063 ], [ 127.1103948, 37.4042057 ], [ 127.1103963, 37.4047146 ], [ 127.1102793, 37.4047148 ], [ 127.1098428, 37.4047178 ], [ 127.1098394, 37.4048255 ], [ 127.10968, 37.4048265 ] ] ] } },
{ "type": "Feature", "properties": { "element": "way", "id": 290202605, "DQD_AR_GBN": "기타", "far": 0.0, "gross_area": 0.0 }, "geometry": { "type": "Polygon", "coordinates": [ [ [ 127.1079088, 37.4021949 ], [ 127.1093698, 37.402197 ], [ 127.1093706, 37.401849 ], [ 127.1079096, 37.4018469 ], [ 127.1079088, 37.4021949 ] ] ] } },
{ "type": "Feature", "properties": { "element": "way", "id": 290202607, "DQD_AR_GBN": "기타", "far": 0.0, "gross_area": 0.0 }, "geometry": { "type": "Polygon", "coordinates": [ [ [ 127.1079127, 37.40149 ], [ 127.107914, 37.4011445 ], [ 127.1093777, 37.4011478 ], [ 127.1093765, 37.4014933 ], [ 127.1079127, 37.40149 ] ] ] } },
{ "type": "Feature", "properties": { "element": "way", "id": 294267659, "DQD_AR_GBN": "기타", "far": 0.0, "gross_area": 0.0 }, "geometry": { "type": "Polygon", "coordinates": [ [ [ 127.1099651, 37.4019684 ], [ 127.1106712, 37.4019726 ], [ 127.1109487, 37.4019742 ], [ 127.1109968, 37.4019745 ], [ 127.1109965, 37.402009 ], [ 127.1110206, 37.4020092 ], [ 127.111018, 37.4022889 ], [ 127.1109938, 37.4022888 ], [ 127.1109936, 37.4023082 ], [ 127.109962, 37.4023022 ], [ 127.1099651, 37.4019684 ] ] ] } },
{ "type": "Feature", "properties": { "element": "way", "id": 382365869, "DQD_AR_GBN": "기타", "far": 0.0, "gross_area": 0.0 }, "geometry": { "type": "Polygon", "coordinates": [ [ [ 127.109959, 37.4013737 ], [ 127.109961, 37.4010345 ], [ 127.111019, 37.4010385 ], [ 127.111017, 37.4013776 ], [ 127.109959, 37.4013737 ] ] ] } },
{ "type": "Feature", "properties": { "element": "way", "id": 425260837, "DQD_AR_GBN": "기타", "far": 0.0, "gross_area": 0.0 }, "geometry": { "type": "Polygon", "coordinates": [ [ [ 127.1027875, 37.4005111 ], [ 127.1027872, 37.3999872 ], [ 127.1030835, 37.3999871 ], [ 127.1030837, 37.4002427 ], [ 127.1030837, 37.4002786 ], [ 127.1030838, 37.400511 ], [ 127.1030287, 37.400511 ], [ 127.1029792, 37.400511 ], [ 127.1027875, 37.4005111 ] ] ] } },
{ "type": "Feature", "properties": { "element": "way", "id": 453505510, "DQD_AR_GBN": "기타", "far": 0.0, "gross_area": 0.0 }, "geometry": { "type": "Polygon", "coordinates": [ [ [ 127.1038202, 37.4004226 ], [ 127.1045485, 37.4004233 ], [ 127.1045491, 37.4000054 ], [ 127.1038208, 37.4000047 ], [ 127.1038202, 37.4004226 ] ] ] } },
{ "type": "Feature", "properties": { "element": "way", "id": 453505511, "DQD_AR_GBN": "기타", "far": 0.0, "gross_area": 0.0 }, "geometry": { "type": "Polygon", "coordinates": [ [ [ 127.1028984, 37.4021848 ], [ 127.1028998, 37.4018005 ], [ 127.1041095, 37.4018113 ], [ 127.1041072, 37.4021787 ], [ 127.1028984, 37.4021848 ] ] ] } },
{ "type": "Feature", "properties": { "element": "way", "id": 453505512, "DQD_AR_GBN": "기타", "far": 0.0, "gross_area": 0.0 }, "geometry": { "type": "Polygon", "coordinates": [ [ [ 127.1027526, 37.4029157 ], [ 127.103306, 37.4029148 ], [ 127.1033084, 37.4028881 ], [ 127.1034582, 37.4028879 ], [ 127.1034577, 37.4029144 ], [ 127.1036958, 37.4029158 ], [ 127.1037459, 37.4027985 ], [ 127.1038661, 37.4025509 ], [ 127.1032609, 37.4025817 ], [ 127.1027553, 37.4025854 ], [ 127.1027526, 37.4029157 ] ] ] } },
{ "type": "Feature", "properties": { "element": "way", "id": 453905801, "DQD_AR_GBN": "기타", "far": 0.0, "gross_area": 0.0 }, "geometry": { "type": "Polygon", "coordinates": [ [ [ 127.1056725, 37.4023008 ], [ 127.1058463, 37.4018783 ], [ 127.10632, 37.4018796 ], [ 127.1063162, 37.402305 ], [ 127.1056725, 37.4023008 ] ] ] } },
{ "type": "Feature", "properties": { "element": "way", "id": 453905802, "DQD_AR_GBN": "기타", "far": 0.0, "gross_area": 0.0 }, "geometry": { "type": "Polygon", "coordinates": [ [ [ 127.1065248, 37.4018742 ], [ 127.1075926, 37.4018678 ], [ 127.1075957, 37.4021925 ], [ 127.1065279, 37.4021989 ], [ 127.1065248, 37.4018742 ] ] ] } },
{ "type": "Feature", "properties": { "element": "way", "id": 453905803, "DQD_AR_GBN": "기타", "far": 0.0, "gross_area": 0.0 }, "geometry": { "type": "Polygon", "coordinates": [ [ [ 127.1065577, 37.4025425 ], [ 127.1065827, 37.4025425 ], [ 127.1065827, 37.4025131 ], [ 127.1070755, 37.4025129 ], [ 127.1070755, 37.4025423 ], [ 127.1070756, 37.4026305 ], [ 127.1070756, 37.4027681 ], [ 127.1070757, 37.4028724 ], [ 127.1070757, 37.4029276 ], [ 127.1065579, 37.4029278 ], [ 127.1065579, 37.4028726 ], [ 127.1065577, 37.4025425 ] ] ] } },
{ "type": "Feature", "properties": { "element": "way", "id": 453905804, "DQD_AR_GBN": "기타", "far": 0.0, "gross_area": 0.0 }, "geometry": { "type": "Polygon", "coordinates": [ [ [ 127.1071067, 37.4025424 ], [ 127.1074579, 37.4025412 ], [ 127.1074595, 37.4028319 ], [ 127.1074425, 37.402832 ], [ 127.1074433, 37.4029848 ], [ 127.107109, 37.4029859 ], [ 127.1071067, 37.4025424 ] ] ] } },
{ "type": "Feature", "properties": { "element": "way", "id": 453905808, "DQD_AR_GBN": "기타", "far": 0.0, "gross_area": 0.0 }, "geometry": { "type": "Polygon", "coordinates": [ [ [ 127.1021429, 37.3980346 ], [ 127.1021491, 37.3981619 ], [ 127.1022785, 37.3981668 ], [ 127.1023093, 37.3983773 ], [ 127.1024942, 37.3983773 ], [ 127.1025989, 37.3981815 ], [ 127.1028331, 37.3981864 ], [ 127.1028269, 37.3983969 ], [ 127.1030056, 37.3984018 ], [ 127.1030056, 37.3980542 ], [ 127.1021429, 37.3980346 ] ] ] } },
{ "type": "Feature", "properties": { "element": "way", "id": 462476351, "DQD_AR_GBN": "기타", "far": 0.0, "gross_area": 0.0 }, "geometry": { "type": "Polygon", "coordinates": [ [ [ 127.10079, 37.4044105 ], [ 127.1009269, 37.4043497 ], [ 127.1010179, 37.4043087 ], [ 127.1011617, 37.4045083 ], [ 127.1010688, 37.4045493 ], [ 127.1007489, 37.4046924 ], [ 127.1004066, 37.4049389 ], [ 127.1002131, 37.4047705 ], [ 127.1004079, 37.4046286 ], [ 127.1005393, 37.4045329 ], [ 127.1005766, 37.4045058 ], [ 127.100643, 37.4044761 ], [ 127.10079, 37.4044105 ] ] ] } },
{ "type": "Feature", "properties": { "element": "way", "id": 468588694, "DQD_AR_GBN": "기타", "far": 0.0, "gross_area": 0.0 }, "geometry": { "type": "Polygon", "coordinates": [ [ [ 127.1038249, 37.4012365 ], [ 127.1045485, 37.4012358 ], [ 127.1045467, 37.4007798 ], [ 127.1038233, 37.4007825 ], [ 127.1038249, 37.4012365 ] ] ] } },
{ "type": "Feature", "properties": { "element": "way", "id": 468928558, "DQD_AR_GBN": "기타", "far": 0.0, "gross_area": 0.0 }, "geometry": { "type": "Polygon", "coordinates": [ [ [ 127.1057404, 37.4045948 ], [ 127.1056336, 37.4045414 ], [ 127.1056627, 37.4044867 ], [ 127.1056899, 37.4044518 ], [ 127.1057478, 37.4043972 ], [ 127.1057826, 37.4044311 ], [ 127.1058204, 37.4044626 ], [ 127.1058656, 37.404495 ], [ 127.1059016, 37.4045112 ], [ 127.1059206, 37.4044907 ], [ 127.1059829, 37.4045127 ], [ 127.1060216, 37.404521 ], [ 127.1060822, 37.4045224 ], [ 127.1061251, 37.4045167 ], [ 127.1061729, 37.4045022 ], [ 127.1062274, 37.4044771 ], [ 127.1062819, 37.4044108 ], [ 127.1064834, 37.404561 ], [ 127.1064933, 37.4045746 ], [ 127.1063413, 37.4047216 ], [ 127.1062387, 37.4047127 ], [ 127.1062084, 37.4047748 ], [ 127.1060482, 37.4047288 ], [ 127.1059021, 37.4046957 ], [ 127.1057236, 37.404666 ], [ 127.1057404, 37.4045948 ] ] ] } },
{ "type": "Feature", "properties": { "element": "way", "id": 468935654, "DQD_AR_GBN": "기타", "far": 0.0, "gross_area": 0.0 }, "geometry": { "type": "Polygon", "coordinates": [ [ [ 127.1058475, 37.4036498 ], [ 127.106339, 37.4036505 ], [ 127.1063396, 37.4034396 ], [ 127.1058481, 37.4034388 ], [ 127.1058475, 37.4036498 ] ] ] } },
{ "type": "Feature", "properties": { "element": "way", "id": 470964733, "DQD_AR_GBN": "기타", "far": 0.0, "gross_area": 0.0 }, "geometry": { "type": "Polygon", "coordinates": [ [ [ 127.1087514, 37.4008464 ], [ 127.1094175, 37.4008473 ], [ 127.1094181, 37.4005572 ], [ 127.108752, 37.4005564 ], [ 127.1087514, 37.4008464 ] ] ] } },
{ "type": "Feature", "properties": { "element": "way", "id": 474528041, "DQD_AR_GBN": "기타", "far": 0.0, "gross_area": 0.0 }, "geometry": { "type": "Polygon", "coordinates": [ [ [ 127.1028881, 37.4006439 ], [ 127.1029792, 37.4006439 ], [ 127.1030288, 37.4006439 ], [ 127.1034039, 37.4006437 ], [ 127.1034506, 37.4006437 ], [ 127.1034507, 37.4008013 ], [ 127.1028882, 37.4008015 ], [ 127.1028881, 37.4006439 ] ] ] } },
{ "type": "Feature", "properties": { "element": "way", "id": 474528042, "DQD_AR_GBN": "기타", "far": 0.0, "gross_area": 0.0 }, "geometry": { "type": "Polygon", "coordinates": [ [ [ 127.1033301, 37.3999844 ], [ 127.1035525, 37.3999843 ], [ 127.1035529, 37.4005082 ], [ 127.1034506, 37.4005082 ], [ 127.1034038, 37.4005082 ], [ 127.1033304, 37.4005083 ], [ 127.1033302, 37.4002785 ], [ 127.1033302, 37.4002426 ], [ 127.1033301, 37.3999844 ] ] ] } },
{ "type": "Feature", "properties": { "element": "way", "id": 475187650, "DQD_AR_GBN": "기타", "far": 0.0, "gross_area": 0.0 }, "geometry": { "type": "Polygon", "coordinates": [ [ [ 127.1034661, 37.3996998 ], [ 127.1036296, 37.3997183 ], [ 127.1036856, 37.3996701 ], [ 127.1037416, 37.3996738 ], [ 127.103807, 37.3997146 ], [ 127.1041246, 37.3997183 ], [ 127.1041293, 37.3996738 ], [ 127.10419, 37.3996738 ], [ 127.1042974, 37.3996553 ], [ 127.1042834, 37.3994512 ], [ 127.1034614, 37.3994549 ], [ 127.1034661, 37.3996998 ] ] ] } },
{ "type": "Feature", "properties": { "element": "way", "id": 475745470, "DQD_AR_GBN": "기타", "far": 0.0, "gross_area": 0.0 }, "geometry": { "type": "Polygon", "coordinates": [ [ [ 127.1013997, 37.4020197 ], [ 127.1013994, 37.4018487 ], [ 127.1013989, 37.401563 ], [ 127.1014854, 37.4015629 ], [ 127.1018297, 37.4015625 ], [ 127.10183, 37.4016903 ], [ 127.1017754, 37.4016904 ], [ 127.1017755, 37.4017853 ], [ 127.1018314, 37.4017853 ], [ 127.1018318, 37.4020192 ], [ 127.1013997, 37.4020197 ] ] ] } },
{ "type": "Feature", "properties": { "element": "way", "id": 475745961, "DQD_AR_GBN": "기타", "far": 0.0, "gross_area": 0.0 }, "geometry": { "type": "Polygon", "coordinates": [ [ [ 127.1008175, 37.4013259 ], [ 127.100817, 37.4010763 ], [ 127.1009127, 37.4010762 ], [ 127.1013343, 37.4010777 ], [ 127.1013348, 37.4013253 ], [ 127.1011807, 37.4013255 ], [ 127.1008175, 37.4013259 ] ] ] } },
{ "type": "Feature", "properties": { "element": "way", "id": 475746141, "DQD_AR_GBN": "기타", "far": 0.0, "gross_area": 0.0 }, "geometry": { "type": "Polygon", "coordinates": [ [ [ 127.1015773, 37.4014139 ], [ 127.101577, 37.4012426 ], [ 127.1015595, 37.4012426 ], [ 127.1015592, 37.4010775 ], [ 127.1018426, 37.4010772 ], [ 127.1018429, 37.4012417 ], [ 127.1018282, 37.4012417 ], [ 127.1018285, 37.4014136 ], [ 127.1015773, 37.4014139 ] ] ] } },
{ "type": "Feature", "properties": { "element": "way", "id": 475746269, "DQD_AR_GBN": "기타", "far": 0.0, "gross_area": 0.0 }, "geometry": { "type": "Polygon", "coordinates": [ [ [ 127.1011876, 37.4007434 ], [ 127.101188, 37.4005885 ], [ 127.1011886, 37.4004025 ], [ 127.1013804, 37.4004028 ], [ 127.1013798, 37.4005923 ], [ 127.1013794, 37.4007437 ], [ 127.1011876, 37.4007434 ] ] ] } },
{ "type": "Feature", "properties": { "element": "way", "id": 477319519, "DQD_AR_GBN": "기타", "far": 0.0, "gross_area": 0.0 }, "geometry": { "type": "Polygon", "coordinates": [ [ [ 127.1083539, 37.4030025 ], [ 127.108354, 37.4028121 ], [ 127.1087131, 37.4028122 ], [ 127.1087131, 37.402721 ], [ 127.1085337, 37.4027209 ], [ 127.1085338, 37.4025367 ], [ 127.1094195, 37.402537 ], [ 127.1094194, 37.4027258 ], [ 127.109162, 37.4027257 ], [ 127.109162, 37.4028102 ], [ 127.1092611, 37.4028102 ], [ 127.109261, 37.4030028 ], [ 127.1083539, 37.4030025 ] ] ] } },
{ "type": "Feature", "properties": { "element": "way", "id": 477320861, "DQD_AR_GBN": "기타", "far": 0.0, "gross_area": 0.0 }, "geometry": { "type": "Polygon", "coordinates": [ [ [ 127.1106712, 37.4019726 ], [ 127.1106727, 37.4018561 ], [ 127.1106791, 37.4018405 ], [ 127.1106826, 37.4018347 ], [ 127.1106913, 37.4018286 ], [ 127.1107141, 37.4018209 ], [ 127.1109201, 37.4018224 ], [ 127.1109376, 37.4018288 ], [ 127.1109471, 37.4018364 ], [ 127.1109493, 37.401848 ], [ 127.1109487, 37.4019742 ], [ 127.1106712, 37.4019726 ] ] ] } },
{ "type": "Feature", "properties": { "element": "way", "id": 477384482, "DQD_AR_GBN": "기타", "far": 0.0, "gross_area": 0.0 }, "geometry": { "type": "Polygon", "coordinates": [ [ [ 127.1082517, 37.402647 ], [ 127.1082495, 37.402959 ], [ 127.1079982, 37.4029579 ], [ 127.1079983, 37.4029441 ], [ 127.1078662, 37.4029435 ], [ 127.1078682, 37.4026453 ], [ 127.1082517, 37.402647 ] ] ] } },
{ "type": "Feature", "properties": { "element": "way", "id": 477384487, "DQD_AR_GBN": "기타", "far": 0.0, "gross_area": 0.0 }, "geometry": { "type": "Polygon", "coordinates": [ [ [ 127.1078682, 37.4026453 ], [ 127.1078688, 37.4025612 ], [ 127.1082522, 37.4025628 ], [ 127.1082517, 37.402647 ], [ 127.1078682, 37.4026453 ] ] ] } },
{ "type": "Feature", "properties": { "element": "way", "id": 477386876, "DQD_AR_GBN": "기타", "far": 0.0, "gross_area": 0.0 }, "geometry": { "type": "Polygon", "coordinates": [ [ [ 127.11001, 37.4029995 ], [ 127.1100103, 37.402816 ], [ 127.1100736, 37.402816 ], [ 127.1100738, 37.4027287 ], [ 127.1100115, 37.4027287 ], [ 127.1100117, 37.4025552 ], [ 127.1108331, 37.4025559 ], [ 127.1108329, 37.4027258 ], [ 127.1108104, 37.4027258 ], [ 127.1108102, 37.4028177 ], [ 127.1108311, 37.4028178 ], [ 127.1108309, 37.4030002 ], [ 127.11001, 37.4029995 ] ] ] } },
{ "type": "Feature", "properties": { "element": "way", "id": 477386877, "DQD_AR_GBN": "기타", "far": 0.0, "gross_area": 0.0 }, "geometry": { "type": "Polygon", "coordinates": [ [ [ 127.1078849, 37.4037584 ], [ 127.1078742, 37.4037286 ], [ 127.1078717, 37.4035056 ], [ 127.1078749, 37.4034843 ], [ 127.1078903, 37.4034596 ], [ 127.1079067, 37.4034472 ], [ 127.1079338, 37.403432 ], [ 127.107956, 37.4034267 ], [ 127.1079876, 37.4034249 ], [ 127.1085139, 37.4034258 ], [ 127.108549, 37.4034266 ], [ 127.1085784, 37.403433 ], [ 127.1086055, 37.4034486 ], [ 127.1086286, 37.4034679 ], [ 127.1086399, 37.4034942 ], [ 127.1086449, 37.4035214 ], [ 127.1086369, 37.40373 ], [ 127.1086351, 37.4037425 ], [ 127.1086259, 37.4037594 ], [ 127.1086107, 37.403775 ], [ 127.1085864, 37.4037904 ], [ 127.1085584, 37.4037992 ], [ 127.1083742, 37.4037997 ], [ 127.1079835, 37.4037978 ], [ 127.1079506, 37.4037946 ], [ 127.1079107, 37.4037841 ], [ 127.1078849, 37.4037584 ] ] ] } },
{ "type": "Feature", "properties": { "element": "way", "id": 477386878, "DQD_AR_GBN": "기타", "far": 0.0, "gross_area": 0.0 }, "geometry": { "type": "Polygon", "coordinates": [ [ [ 127.1087217, 37.4038596 ], [ 127.108724, 37.40345 ], [ 127.1087269, 37.4034458 ], [ 127.1087317, 37.4034419 ], [ 127.1087371, 37.4034401 ], [ 127.1087421, 37.4034396 ], [ 127.1090449, 37.4034416 ], [ 127.1090505, 37.4034448 ], [ 127.1090551, 37.4034496 ], [ 127.1090564, 37.4034535 ], [ 127.1090582, 37.4035698 ], [ 127.1090666, 37.4035814 ], [ 127.1090774, 37.4035855 ], [ 127.109479, 37.4035869 ], [ 127.109493, 37.4035917 ], [ 127.1095041, 37.4035993 ], [ 127.1095123, 37.4036079 ], [ 127.1095145, 37.4036124 ], [ 127.1095143, 37.4038532 ], [ 127.1095069, 37.4038704 ], [ 127.1094954, 37.4038783 ], [ 127.1094858, 37.4038817 ], [ 127.1094768, 37.4038822 ], [ 127.1094589, 37.4038822 ], [ 127.1087441, 37.4038785 ], [ 127.1087307, 37.403875 ], [ 127.1087251, 37.4038705 ], [ 127.1087222, 37.4038658 ], [ 127.1087217, 37.4038596 ] ] ] } },
{ "type": "Feature", "properties": { "element": "way", "id": 477386879, "DQD_AR_GBN": "기타", "far": 0.0, "gross_area": 0.0 }, "geometry": { "type": "Polygon", "coordinates": [ [ [ 127.1099126, 37.4038504 ], [ 127.1099168, 37.4034469 ], [ 127.1102105, 37.4034489 ], [ 127.1102104, 37.4034568 ], [ 127.1102263, 37.4034569 ], [ 127.1102222, 37.4038525 ], [ 127.1099126, 37.4038504 ] ] ] } },
{ "type": "Feature", "properties": { "element": "way", "id": 477386880, "DQD_AR_GBN": "기타", "far": 0.0, "gross_area": 0.0 }, "geometry": { "type": "Polygon", "coordinates": [ [ [ 127.1102807, 37.4038473 ], [ 127.1102847, 37.403469 ], [ 127.110576, 37.4034673 ], [ 127.1105777, 37.4034959 ], [ 127.1106287, 37.4035001 ], [ 127.1105993, 37.4036147 ], [ 127.1103758, 37.4036154 ], [ 127.1103738, 37.4037121 ], [ 127.1104719, 37.4037347 ], [ 127.110456, 37.4038195 ], [ 127.1104239, 37.4038119 ], [ 127.1104228, 37.4038495 ], [ 127.1102807, 37.4038473 ] ] ] } },
{ "type": "Feature", "properties": { "element": "way", "id": 477386881, "DQD_AR_GBN": "기타", "far": 0.0, "gross_area": 0.0 }, "geometry": { "type": "Polygon", "coordinates": [ [ [ 127.110456, 37.4038195 ], [ 127.110445, 37.4038805 ], [ 127.1106853, 37.403921 ], [ 127.1108087, 37.4034366 ], [ 127.1106428, 37.4034538 ], [ 127.1106287, 37.4035001 ], [ 127.1105993, 37.4036147 ], [ 127.1103758, 37.4036154 ], [ 127.1103738, 37.4037121 ], [ 127.1104719, 37.4037347 ], [ 127.110456, 37.4038195 ] ] ] } },
{ "type": "Feature", "properties": { "element": "way", "id": 477387458, "DQD_AR_GBN": "기타", "far": 0.0, "gross_area": 0.0 }, "geometry": { "type": "Polygon", "coordinates": [ [ [ 127.1045538, 37.4047893 ], [ 127.1043333, 37.404743 ], [ 127.1046265, 37.4044183 ], [ 127.1046439, 37.4044053 ], [ 127.1046595, 37.4044 ], [ 127.1046793, 37.404394 ], [ 127.1047042, 37.4043906 ], [ 127.1050319, 37.4044537 ], [ 127.1051968, 37.4044855 ], [ 127.1050771, 37.4046312 ], [ 127.1048037, 37.4045818 ], [ 127.1047888, 37.4045812 ], [ 127.1047671, 37.404583 ], [ 127.104746, 37.4045887 ], [ 127.1047239, 37.4045987 ], [ 127.1045538, 37.4047893 ] ] ] } },
{ "type": "Feature", "properties": { "element": "way", "id": 477387459, "DQD_AR_GBN": "기타", "far": 0.0, "gross_area": 0.0 }, "geometry": { "type": "Polygon", "coordinates": [ [ [ 127.1047872, 37.4042426 ], [ 127.104908, 37.4041072 ], [ 127.1052475, 37.4042283 ], [ 127.1053241, 37.4041398 ], [ 127.105061, 37.4040012 ], [ 127.1051435, 37.4039013 ], [ 127.1055113, 37.4040982 ], [ 127.1055225, 37.4041058 ], [ 127.1055278, 37.4041136 ], [ 127.105534, 37.40413 ], [ 127.1055378, 37.4041463 ], [ 127.1055233, 37.4041686 ], [ 127.1053377, 37.4043934 ], [ 127.1053242, 37.4044013 ], [ 127.1053065, 37.4044085 ], [ 127.1052903, 37.4044111 ], [ 127.1052524, 37.4044074 ], [ 127.1050848, 37.4043509 ], [ 127.1047872, 37.4042426 ] ] ] } },
{ "type": "Feature", "properties": { "element": "way", "id": 477387460, "DQD_AR_GBN": "기타", "far": 0.0, "gross_area": 0.0 }, "geometry": { "type": "Polygon", "coordinates": [ [ [ 127.1052853, 37.403864 ], [ 127.105096, 37.4037615 ], [ 127.1052072, 37.4035547 ], [ 127.1052287, 37.4035215 ], [ 127.1052578, 37.403491 ], [ 127.1053041, 37.4034689 ], [ 127.1053529, 37.4034514 ], [ 127.1058032, 37.4034507 ], [ 127.1058, 37.4036298 ], [ 127.1054588, 37.4036294 ], [ 127.1054408, 37.4036328 ], [ 127.1054089, 37.4036484 ], [ 127.1052853, 37.403864 ] ] ] } },
{ "type": "Feature", "properties": { "element": "way", "id": 477387461, "DQD_AR_GBN": "기타", "far": 0.0, "gross_area": 0.0 }, "geometry": { "type": "Polygon", "coordinates": [ [ [ 127.1066476, 37.4038597 ], [ 127.1066475, 37.4036399 ], [ 127.1066382, 37.4036399 ], [ 127.1066382, 37.4034931 ], [ 127.1066533, 37.4034931 ], [ 127.1066533, 37.4034065 ], [ 127.1073286, 37.4034064 ], [ 127.1073288, 37.4037684 ], [ 127.1073086, 37.4037684 ], [ 127.1073086, 37.4038492 ], [ 127.107209, 37.4038492 ], [ 127.1072091, 37.4038595 ], [ 127.1066476, 37.4038597 ] ] ] } },
{ "type": "Feature", "properties": { "element": "way", "id": 477387896, "DQD_AR_GBN": "기타", "far": 0.0, "gross_area": 0.0 }, "geometry": { "type": "Polygon", "coordinates": [ [ [ 127.1103243, 37.4006817 ], [ 127.1099941, 37.4006803 ], [ 127.1099754, 37.4005652 ], [ 127.1099619, 37.4004523 ], [ 127.1099613, 37.4003835 ], [ 127.1099731, 37.4003832 ], [ 127.1099741, 37.4003109 ], [ 127.1099785, 37.400179 ], [ 127.1099846, 37.4001131 ], [ 127.1100017, 37.4000272 ], [ 127.110324, 37.4000267 ], [ 127.1103243, 37.4006817 ] ] ] } },
{ "type": "Feature", "properties": { "element": "way", "id": 477387897, "DQD_AR_GBN": "기타", "far": 0.0, "gross_area": 0.0 }, "geometry": { "type": "Polygon", "coordinates": [ [ [ 127.1106028, 37.4006726 ], [ 127.1109373, 37.4006747 ], [ 127.1109521, 37.4005887 ], [ 127.1109616, 37.4005005 ], [ 127.1109495, 37.4005003 ], [ 127.1109534, 37.400438 ], [ 127.1109545, 37.4003441 ], [ 127.1109521, 37.4002511 ], [ 127.1109491, 37.4001907 ], [ 127.1109398, 37.4001054 ], [ 127.110928, 37.4000237 ], [ 127.1106034, 37.4000251 ], [ 127.1106028, 37.4006726 ] ] ] } },
{ "type": "Feature", "properties": { "element": "way", "id": 477387898, "DQD_AR_GBN": "기타", "far": 0.0, "gross_area": 0.0 }, "geometry": { "type": "Polygon", "coordinates": [ [ [ 127.1112807, 37.4008176 ], [ 127.1116308, 37.4008174 ], [ 127.1116304, 37.400184 ], [ 127.1112802, 37.4001841 ], [ 127.1112807, 37.4008176 ] ] ] } },
{ "type": "Feature", "properties": { "element": "way", "id": 477388495, "DQD_AR_GBN": "기타", "far": 0.0, "gross_area": 0.0 }, "geometry": { "type": "Polygon", "coordinates": [ [ [ 127.1065661, 37.400934 ], [ 127.1062795, 37.4009639 ], [ 127.1067082, 37.4000068 ], [ 127.1067664, 37.4000649 ], [ 127.1074016, 37.4000589 ], [ 127.1074018, 37.4002636 ], [ 127.1073996, 37.4003684 ], [ 127.1071933, 37.4003702 ], [ 127.1069489, 37.4003706 ], [ 127.1068951, 37.4004768 ], [ 127.1068102, 37.4006514 ], [ 127.1066657, 37.4009632 ], [ 127.1065661, 37.400934 ] ] ] } },
{ "type": "Feature", "properties": { "element": "way", "id": 477388496, "DQD_AR_GBN": "기타", "far": 0.0, "gross_area": 0.0 }, "geometry": { "type": "Polygon", "coordinates": [ [ [ 127.1062191, 37.4010984 ], [ 127.1062795, 37.4009639 ], [ 127.1065661, 37.400934 ], [ 127.1065279, 37.401025 ], [ 127.1064446, 37.4010987 ], [ 127.1062191, 37.4010984 ] ] ] } },
{ "type": "Feature", "properties": { "element": "way", "id": 477388497, "DQD_AR_GBN": "기타", "far": 0.0, "gross_area": 0.0 }, "geometry": { "type": "Polygon", "coordinates": [ [ [ 127.1074016, 37.4000589 ], [ 127.1075342, 37.4000571 ], [ 127.1074527, 37.4002645 ], [ 127.1074018, 37.4002636 ], [ 127.1074016, 37.4000589 ] ] ] } },
{ "type": "Feature", "properties": { "element": "way", "id": 477388498, "DQD_AR_GBN": "기타", "far": 0.0, "gross_area": 0.0 }, "geometry": { "type": "Polygon", "coordinates": [ [ [ 127.1068951, 37.4004768 ], [ 127.1071958, 37.4004745 ], [ 127.1071933, 37.4003702 ], [ 127.1069489, 37.4003706 ], [ 127.1068951, 37.4004768 ] ] ] } },
{ "type": "Feature", "properties": { "element": "way", "id": 477388499, "DQD_AR_GBN": "기타", "far": 0.0, "gross_area": 0.0 }, "geometry": { "type": "Polygon", "coordinates": [ [ [ 127.1071958, 37.4004745 ], [ 127.1071948, 37.4005936 ], [ 127.1070952, 37.4006508 ], [ 127.1068102, 37.4006514 ], [ 127.1068951, 37.4004768 ], [ 127.1071958, 37.4004745 ] ] ] } },
{ "type": "Feature", "properties": { "element": "way", "id": 477388500, "DQD_AR_GBN": "기타", "far": 0.0, "gross_area": 0.0 }, "geometry": { "type": "Polygon", "coordinates": [ [ [ 127.1075473, 37.400771 ], [ 127.1075501, 37.4012863 ], [ 127.1071298, 37.4012877 ], [ 127.1071296, 37.4012544 ], [ 127.1071284, 37.4010235 ], [ 127.1071269, 37.4007504 ], [ 127.1073107, 37.4007497 ], [ 127.1073108, 37.4007718 ], [ 127.1075473, 37.400771 ] ] ] } },
{ "type": "Feature", "properties": { "element": "way", "id": 477388501, "DQD_AR_GBN": "기타", "far": 0.0, "gross_area": 0.0 }, "geometry": { "type": "Polygon", "coordinates": [ [ [ 127.1071296, 37.4012544 ], [ 127.1069873, 37.4012068 ], [ 127.1067647, 37.4010977 ], [ 127.1067569, 37.40093 ], [ 127.1069778, 37.4009947 ], [ 127.1071284, 37.4010235 ], [ 127.1071296, 37.4012544 ] ] ] } },
{ "type": "Feature", "properties": { "element": "way", "id": 477416377, "DQD_AR_GBN": "기타", "far": 0.0, "gross_area": 0.0 }, "geometry": { "type": "Polygon", "coordinates": [ [ [ 127.1078435, 37.4007556 ], [ 127.1082009, 37.4007559 ], [ 127.1082007, 37.4009177 ], [ 127.1081676, 37.4009177 ], [ 127.1081675, 37.4009452 ], [ 127.1078433, 37.4009449 ], [ 127.1078435, 37.4007556 ] ] ] } },
{ "type": "Feature", "properties": { "element": "way", "id": 477416378, "DQD_AR_GBN": "기타", "far": 0.0, "gross_area": 0.0 }, "geometry": { "type": "Polygon", "coordinates": [ [ [ 127.1078752, 37.4001519 ], [ 127.1078747, 37.3999685 ], [ 127.1082598, 37.3999679 ], [ 127.1082602, 37.4001514 ], [ 127.1082126, 37.4001515 ], [ 127.1082126, 37.4001651 ], [ 127.1080045, 37.4001655 ], [ 127.1080044, 37.4001517 ], [ 127.1078752, 37.4001519 ] ] ] } },
{ "type": "Feature", "properties": { "element": "way", "id": 477416379, "DQD_AR_GBN": "기타", "far": 0.0, "gross_area": 0.0 }, "geometry": { "type": "Polygon", "coordinates": [ [ [ 127.1078864, 37.4004616 ], [ 127.1078862, 37.400298 ], [ 127.1079904, 37.4002925 ], [ 127.1082242, 37.4002806 ], [ 127.1082255, 37.4003955 ], [ 127.1081999, 37.4003957 ], [ 127.1082, 37.4004177 ], [ 127.1082116, 37.4004181 ], [ 127.1082116, 37.4004725 ], [ 127.1078864, 37.4004616 ] ] ] } },
{ "type": "Feature", "properties": { "element": "way", "id": 477416380, "DQD_AR_GBN": "기타", "far": 0.0, "gross_area": 0.0 }, "geometry": { "type": "Polygon", "coordinates": [ [ [ 127.1078443, 37.4006887 ], [ 127.1078447, 37.4004947 ], [ 127.1080304, 37.4004949 ], [ 127.1080303, 37.4005471 ], [ 127.1081232, 37.4005472 ], [ 127.1081232, 37.4005725 ], [ 127.1082221, 37.4005727 ], [ 127.1082219, 37.400707 ], [ 127.1081189, 37.4007069 ], [ 127.1081188, 37.4007301 ], [ 127.107918, 37.4007298 ], [ 127.1079181, 37.4006888 ], [ 127.1078443, 37.4006887 ] ] ] } },
{ "type": "Feature", "properties": { "element": "way", "id": 477416535, "DQD_AR_GBN": "기타", "far": 0.0, "gross_area": 0.0 }, "geometry": { "type": "Polygon", "coordinates": [ [ [ 127.1086063, 37.4004751 ], [ 127.1086079, 37.4003109 ], [ 127.1088867, 37.4003126 ], [ 127.1088851, 37.4004768 ], [ 127.1086063, 37.4004751 ] ] ] } },
{ "type": "Feature", "properties": { "element": "way", "id": 477416536, "DQD_AR_GBN": "기타", "far": 0.0, "gross_area": 0.0 }, "geometry": { "type": "Polygon", "coordinates": [ [ [ 127.1092501, 37.4000505 ], [ 127.1092499, 37.4002706 ], [ 127.1087542, 37.4002704 ], [ 127.1087544, 37.4000502 ], [ 127.1092501, 37.4000505 ] ] ] } },
{ "type": "Feature", "properties": { "element": "way", "id": 478539437, "DQD_AR_GBN": "기타", "far": 0.0, "gross_area": 0.0 }, "geometry": { "type": "Polygon", "coordinates": [ [ [ 127.1080957, 37.3993144 ], [ 127.1078551, 37.3993134 ], [ 127.1078548, 37.399357 ], [ 127.1078396, 37.399357 ], [ 127.1078391, 37.3994309 ], [ 127.1078374, 37.3996762 ], [ 127.1079255, 37.3996766 ], [ 127.1084283, 37.3996787 ], [ 127.1084285, 37.3996422 ], [ 127.1084308, 37.3993159 ], [ 127.1080957, 37.3993144 ] ] ] } },
{ "type": "Feature", "properties": { "element": "way", "id": 478541678, "DQD_AR_GBN": "기타", "far": 0.0, "gross_area": 0.0 }, "geometry": { "type": "Polygon", "coordinates": [ [ [ 127.1030222, 37.4010449 ], [ 127.1029778, 37.4010449 ], [ 127.1029778, 37.4012064 ], [ 127.1029777, 37.4013378 ], [ 127.1029777, 37.4014277 ], [ 127.1030195, 37.4014277 ], [ 127.1031639, 37.4014277 ], [ 127.1034064, 37.4014278 ], [ 127.103551, 37.4014278 ], [ 127.103551, 37.401045 ], [ 127.1030222, 37.4010449 ] ] ] } },
{ "type": "Feature", "properties": { "element": "way", "id": 478541679, "DQD_AR_GBN": "기타", "far": 0.0, "gross_area": 0.0 }, "geometry": { "type": "Polygon", "coordinates": [ [ [ 127.1030222, 37.4010449 ], [ 127.1030222, 37.4010258 ], [ 127.1028686, 37.4010258 ], [ 127.1028686, 37.4012064 ], [ 127.1029778, 37.4012064 ], [ 127.1029778, 37.4010449 ], [ 127.1030222, 37.4010449 ] ] ] } },
{ "type": "Feature", "properties": { "element": "way", "id": 478541680, "DQD_AR_GBN": "기타", "far": 0.0, "gross_area": 0.0 }, "geometry": { "type": "Polygon", "coordinates": [ [ [ 127.1029777, 37.4013378 ], [ 127.1028675, 37.4013377 ], [ 127.1028674, 37.4015047 ], [ 127.1030195, 37.4015047 ], [ 127.1030195, 37.4014277 ], [ 127.1029777, 37.4014277 ], [ 127.1029777, 37.4013378 ] ] ] } },
{ "type": "Feature", "properties": { "element": "way", "id": 478541681, "DQD_AR_GBN": "기타", "far": 0.0, "gross_area": 0.0 }, "geometry": { "type": "Polygon", "coordinates": [ [ [ 127.1031639, 37.4014277 ], [ 127.1031639, 37.4015048 ], [ 127.1034064, 37.4015048 ], [ 127.1034064, 37.4014278 ], [ 127.1031639, 37.4014277 ] ] ] } },
{ "type": "Feature", "properties": { "element": "way", "id": 478542502, "DQD_AR_GBN": "기타", "far": 0.0, "gross_area": 0.0 }, "geometry": { "type": "Polygon", "coordinates": [ [ [ 127.1034506, 37.4006437 ], [ 127.1034506, 37.4005082 ], [ 127.1034038, 37.4005082 ], [ 127.1034039, 37.4006437 ], [ 127.1034506, 37.4006437 ] ] ] } },
{ "type": "Feature", "properties": { "element": "way", "id": 478542503, "DQD_AR_GBN": "기타", "far": 0.0, "gross_area": 0.0 }, "geometry": { "type": "Polygon", "coordinates": [ [ [ 127.1029792, 37.4006439 ], [ 127.1029792, 37.400511 ], [ 127.1030287, 37.400511 ], [ 127.1030288, 37.4006439 ], [ 127.1029792, 37.4006439 ] ] ] } },
{ "type": "Feature", "properties": { "element": "way", "id": 478542504, "DQD_AR_GBN": "기타", "far": 0.0, "gross_area": 0.0 }, "geometry": { "type": "Polygon", "coordinates": [ [ [ 127.1033302, 37.4002785 ], [ 127.1030837, 37.4002786 ], [ 127.1030837, 37.4002427 ], [ 127.1033302, 37.4002426 ], [ 127.1033302, 37.4002785 ] ] ] } },
{ "type": "Feature", "properties": { "element": "way", "id": 478543423, "DQD_AR_GBN": "기타", "far": 0.0, "gross_area": 0.0 }, "geometry": { "type": "Polygon", "coordinates": [ [ [ 127.1015757, 37.4008149 ], [ 127.1015761, 37.4006772 ], [ 127.1015766, 37.4005099 ], [ 127.1017303, 37.4005102 ], [ 127.1017871, 37.4005103 ], [ 127.1017869, 37.4005887 ], [ 127.1017995, 37.4005887 ], [ 127.1017988, 37.4008153 ], [ 127.1015757, 37.4008149 ] ] ] } },
{ "type": "Feature", "properties": { "element": "way", "id": 478543424, "DQD_AR_GBN": "기타", "far": 0.0, "gross_area": 0.0 }, "geometry": { "type": "Polygon", "coordinates": [ [ [ 127.1013066, 37.4003054 ], [ 127.1013073, 37.4000611 ], [ 127.1014058, 37.4000613 ], [ 127.101837, 37.4000621 ], [ 127.1018363, 37.4003064 ], [ 127.1017309, 37.4003062 ], [ 127.1014005, 37.4003056 ], [ 127.1013066, 37.4003054 ] ] ] } },
{ "type": "Feature", "properties": { "element": "way", "id": 478543425, "DQD_AR_GBN": "기타", "far": 0.0, "gross_area": 0.0 }, "geometry": { "type": "Polygon", "coordinates": [ [ [ 127.1018646, 37.4007151 ], [ 127.1022944, 37.4007604 ], [ 127.1022954, 37.3999773 ], [ 127.1022125, 37.3999774 ], [ 127.1022141, 37.4002584 ], [ 127.1018665, 37.4002597 ], [ 127.1018646, 37.4007151 ] ] ] } },
{ "type": "Feature", "properties": { "element": "way", "id": 478543426, "DQD_AR_GBN": "기타", "far": 0.0, "gross_area": 0.0 }, "geometry": { "type": "Polygon", "coordinates": [ [ [ 127.1018665, 37.4002597 ], [ 127.1018649, 37.3999787 ], [ 127.1022125, 37.3999774 ], [ 127.1022141, 37.4002584 ], [ 127.1018665, 37.4002597 ] ] ] } },
{ "type": "Feature", "properties": { "element": "way", "id": 478545178, "DQD_AR_GBN": "기타", "far": 0.0, "gross_area": 0.0 }, "geometry": { "type": "Polygon", "coordinates": [ [ [ 127.1046372, 37.4005644 ], [ 127.1046376, 37.4001136 ], [ 127.1051415, 37.4001129 ], [ 127.1049181, 37.4005773 ], [ 127.1047441, 37.4005745 ], [ 127.1047441, 37.4005662 ], [ 127.1046372, 37.4005644 ] ] ] } },
{ "type": "Feature", "properties": { "element": "way", "id": 481321371, "DQD_AR_GBN": "기타", "far": 0.0, "gross_area": 0.0 }, "geometry": { "type": "Polygon", "coordinates": [ [ [ 127.1001966, 37.4032416 ], [ 127.0997923, 37.4031093 ], [ 127.1000689, 37.4028833 ], [ 127.1003258, 37.4029616 ], [ 127.1002761, 37.4030727 ], [ 127.1001966, 37.4032416 ] ] ] } },
{ "type": "Feature", "properties": { "element": "way", "id": 481321372, "DQD_AR_GBN": "기타", "far": 0.0, "gross_area": 0.0 }, "geometry": { "type": "Polygon", "coordinates": [ [ [ 127.1002761, 37.4030727 ], [ 127.1004636, 37.4031283 ], [ 127.1005127, 37.4030186 ], [ 127.1003258, 37.4029616 ], [ 127.1002761, 37.4030727 ] ] ] } },
{ "type": "Feature", "properties": { "element": "way", "id": 481321373, "DQD_AR_GBN": "기타", "far": 0.0, "gross_area": 0.0 }, "geometry": { "type": "Polygon", "coordinates": [ [ [ 127.1004636, 37.4031283 ], [ 127.1003919, 37.4033007 ], [ 127.1010026, 37.4034902 ], [ 127.1010653, 37.4033613 ], [ 127.101142, 37.4032112 ], [ 127.1005127, 37.4030186 ], [ 127.1004636, 37.4031283 ] ] ] } },
{ "type": "Feature", "properties": { "element": "way", "id": 481321374, "DQD_AR_GBN": "기타", "far": 0.0, "gross_area": 0.0 }, "geometry": { "type": "Polygon", "coordinates": [ [ [ 127.101314, 37.4035903 ], [ 127.1013779, 37.4034576 ], [ 127.1014543, 37.4033029 ], [ 127.102044, 37.4034309 ], [ 127.1018838, 37.4037674 ], [ 127.101314, 37.4035903 ] ] ] } },
{ "type": "Feature", "properties": { "element": "way", "id": 481321375, "DQD_AR_GBN": "기타", "far": 0.0, "gross_area": 0.0 }, "geometry": { "type": "Polygon", "coordinates": [ [ [ 127.1014543, 37.4033029 ], [ 127.1013779, 37.4034576 ], [ 127.1010653, 37.4033613 ], [ 127.101142, 37.4032112 ], [ 127.1014543, 37.4033029 ] ] ] } },
{ "type": "Feature", "properties": { "element": "way", "id": 481323875, "DQD_AR_GBN": "기타", "far": 0.0, "gross_area": 0.0 }, "geometry": { "type": "Polygon", "coordinates": [ [ [ 127.1009032, 37.4022968 ], [ 127.1008167, 37.4024594 ], [ 127.1008348, 37.4024659 ], [ 127.1008132, 37.4025068 ], [ 127.1005256, 37.4024046 ], [ 127.1000452, 37.4022046 ], [ 127.0999534, 37.4021596 ], [ 127.1002254, 37.4018473 ], [ 127.1004226, 37.4019325 ], [ 127.1003179, 37.4020875 ], [ 127.100372, 37.4021097 ], [ 127.1003804, 37.4020969 ], [ 127.1009032, 37.4022968 ] ] ] } },
{ "type": "Feature", "properties": { "element": "way", "id": 481323876, "DQD_AR_GBN": "기타", "far": 0.0, "gross_area": 0.0 }, "geometry": { "type": "Polygon", "coordinates": [ [ [ 127.1008132, 37.4025068 ], [ 127.1007874, 37.4025556 ], [ 127.1004961, 37.4024539 ], [ 127.1005256, 37.4024046 ], [ 127.1008132, 37.4025068 ] ] ] } },
{ "type": "Feature", "properties": { "element": "way", "id": 481323877, "DQD_AR_GBN": "기타", "far": 0.0, "gross_area": 0.0 }, "geometry": { "type": "Polygon", "coordinates": [ [ [ 127.1000452, 37.4022046 ], [ 127.1000509, 37.4022683 ], [ 127.1004961, 37.4024539 ], [ 127.1005256, 37.4024046 ], [ 127.1000452, 37.4022046 ] ] ] } },
{ "type": "Feature", "properties": { "element": "way", "id": 481323878, "DQD_AR_GBN": "기타", "far": 0.0, "gross_area": 0.0 }, "geometry": { "type": "Polygon", "coordinates": [ [ [ 127.1022262, 37.4028674 ], [ 127.1022319, 37.4026007 ], [ 127.1018902, 37.4025501 ], [ 127.1016701, 37.402507 ], [ 127.10171, 37.4023725 ], [ 127.1015709, 37.4023363 ], [ 127.1015731, 37.4023296 ], [ 127.1013065, 37.4022633 ], [ 127.1010959, 37.4022041 ], [ 127.1009686, 37.4024448 ], [ 127.1011863, 37.4025367 ], [ 127.1012562, 37.4026213 ], [ 127.1013498, 37.402711 ], [ 127.1015747, 37.4027659 ], [ 127.1018083, 37.4028081 ], [ 127.1022262, 37.4028674 ] ] ] } },
{ "type": "Feature", "properties": { "element": "way", "id": 481365414, "DQD_AR_GBN": "기타", "far": 0.0, "gross_area": 0.0 }, "geometry": { "type": "Polygon", "coordinates": [ [ [ 127.0998376, 37.4038344 ], [ 127.0997942, 37.403859 ], [ 127.099545, 37.4039999 ], [ 127.0994844, 37.4040338 ], [ 127.0993189, 37.4038484 ], [ 127.0993511, 37.40383 ], [ 127.0997171, 37.4036307 ], [ 127.0998855, 37.4034461 ], [ 127.100101, 37.4035915 ], [ 127.1000182, 37.4036669 ], [ 127.0998802, 37.4037949 ], [ 127.0998376, 37.4038344 ] ] ] } },
{ "type": "Feature", "properties": { "element": "way", "id": 481368733, "DQD_AR_GBN": "기타", "far": 0.0, "gross_area": 0.0 }, "geometry": { "type": "Polygon", "coordinates": [ [ [ 127.0988272, 37.4032759 ], [ 127.0988831, 37.4032226 ], [ 127.098847, 37.4031989 ], [ 127.0994007, 37.4026867 ], [ 127.0994371, 37.4027107 ], [ 127.0994919, 37.4026597 ], [ 127.0997657, 37.4028505 ], [ 127.0996639, 37.4029437 ], [ 127.0994763, 37.4028112 ], [ 127.0990201, 37.4032246 ], [ 127.0992184, 37.4033568 ], [ 127.0991091, 37.403462 ], [ 127.0988272, 37.4032759 ] ] ] } },
{ "type": "Feature", "properties": { "element": "way", "id": 610925122, "DQD_AR_GBN": "기타", "far": 0.0, "gross_area": 0.0 }, "geometry": { "type": "Polygon", "coordinates": [ [ [ 127.1071685, 37.4041434 ], [ 127.1071528, 37.4042279 ], [ 127.1074017, 37.4042586 ], [ 127.1074039, 37.4041482 ], [ 127.1074012, 37.4041416 ], [ 127.107389, 37.4041296 ], [ 127.1073684, 37.404124 ], [ 127.1071964, 37.4041238 ], [ 127.107191, 37.4041238 ], [ 127.1071777, 37.4041309 ], [ 127.1071685, 37.4041434 ] ] ] } },
{ "type": "Feature", "properties": { "element": "way", "id": 684715310, "DQD_AR_GBN": "기타", "far": 0.0, "gross_area": 0.0 }, "geometry": { "type": "Polygon", "coordinates": [ [ [ 127.098846, 37.4048615 ], [ 127.0984131, 37.4043782 ], [ 127.0990164, 37.4040269 ], [ 127.099171, 37.4042045 ], [ 127.0991506, 37.4042187 ], [ 127.099211, 37.4042371 ], [ 127.0992334, 37.4042519 ], [ 127.0992471, 37.4042648 ], [ 127.0992576, 37.4042794 ], [ 127.099266, 37.4042972 ], [ 127.0992673, 37.4043155 ], [ 127.0992658, 37.4043294 ], [ 127.0992628, 37.4043567 ], [ 127.0992962, 37.4043376 ], [ 127.0994505, 37.4045132 ], [ 127.098846, 37.4048615 ] ] ] } },
{ "type": "Feature", "properties": { "element": "way", "id": 684716459, "DQD_AR_GBN": "기타", "far": 0.0, "gross_area": 0.0 }, "geometry": { "type": "Polygon", "coordinates": [ [ [ 127.1014461, 37.4051538 ], [ 127.1011712, 37.4048472 ], [ 127.1013737, 37.4047293 ], [ 127.1016499, 37.4050353 ], [ 127.1014461, 37.4051538 ] ] ] } },
{ "type": "Feature", "properties": { "element": "way", "id": 684716461, "DQD_AR_GBN": "기타", "far": 0.0, "gross_area": 0.0 }, "geometry": { "type": "Polygon", "coordinates": [ [ [ 127.1018955, 37.4048841 ], [ 127.1021729, 37.4047225 ], [ 127.1020822, 37.4046216 ], [ 127.1019408, 37.4044643 ], [ 127.1016663, 37.404625 ], [ 127.1018955, 37.4048841 ] ] ] } },
{ "type": "Feature", "properties": { "element": "way", "id": 684716462, "DQD_AR_GBN": "기타", "far": 0.0, "gross_area": 0.0 }, "geometry": { "type": "Polygon", "coordinates": [ [ [ 127.1030244, 37.4040534 ], [ 127.1029589, 37.404033 ], [ 127.10262, 37.4039272 ], [ 127.1027861, 37.4035958 ], [ 127.1027928, 37.4035968 ], [ 127.1028401, 37.4034981 ], [ 127.1034455, 37.4035773 ], [ 127.1033923, 37.4036726 ], [ 127.1031364, 37.4040818 ], [ 127.1030269, 37.4040471 ], [ 127.1030244, 37.4040534 ] ] ] } },
{ "type": "Feature", "properties": { "element": "way", "id": 684716463, "DQD_AR_GBN": "기타", "far": 0.0, "gross_area": 0.0 }, "geometry": { "type": "Polygon", "coordinates": [ [ [ 127.1021117, 37.4043638 ], [ 127.1022541, 37.4045216 ], [ 127.102346, 37.4046249 ], [ 127.1027614, 37.4043888 ], [ 127.1028078, 37.4043545 ], [ 127.1028021, 37.4043441 ], [ 127.1028568, 37.4043133 ], [ 127.102734, 37.404213 ], [ 127.1026061, 37.4041086 ], [ 127.1025911, 37.4041178 ], [ 127.1025778, 37.4041014 ], [ 127.1021117, 37.4043638 ] ] ] } },
{ "type": "Feature", "properties": { "element": "way", "id": 692210052, "DQD_AR_GBN": "기타", "far": 0.0, "gross_area": 0.0 }, "geometry": { "type": "Polygon", "coordinates": [ [ [ 127.1002131, 37.4047705 ], [ 127.1004066, 37.4049389 ], [ 127.1007489, 37.4046924 ], [ 127.1010688, 37.4045493 ], [ 127.1009269, 37.4043497 ], [ 127.1005766, 37.4045058 ], [ 127.1002131, 37.4047705 ] ] ] } },
{ "type": "Feature", "properties": { "element": "way", "id": 692210053, "DQD_AR_GBN": "기타", "far": 0.0, "gross_area": 0.0 }, "geometry": { "type": "Polygon", "coordinates": [ [ [ 127.100101, 37.4046293 ], [ 127.1007973, 37.4042319 ], [ 127.1006317, 37.4040455 ], [ 127.0999355, 37.4044449 ], [ 127.100101, 37.4046293 ] ] ] } },
{ "type": "Feature", "properties": { "element": "way", "id": 692210054, "DQD_AR_GBN": "기타", "far": 0.0, "gross_area": 0.0 }, "geometry": { "type": "Polygon", "coordinates": [ [ [ 127.1004619, 37.4044234 ], [ 127.1005393, 37.4045329 ], [ 127.1005766, 37.4045058 ], [ 127.100643, 37.4044761 ], [ 127.100547, 37.4043748 ], [ 127.1004619, 37.4044234 ] ] ] } },
{ "type": "Feature", "properties": { "element": "way", "id": 692210056, "DQD_AR_GBN": "기타", "far": 0.0, "gross_area": 0.0 }, "geometry": { "type": "Polygon", "coordinates": [ [ [ 127.1003055, 37.4045126 ], [ 127.1004079, 37.4046286 ], [ 127.1005393, 37.4045329 ], [ 127.1005766, 37.4045058 ], [ 127.100643, 37.4044761 ], [ 127.10079, 37.4044105 ], [ 127.1006877, 37.4042945 ], [ 127.100547, 37.4043748 ], [ 127.1004619, 37.4044234 ], [ 127.1003055, 37.4045126 ] ] ] } },
{ "type": "Feature", "properties": { "element": "way", "id": 692210057, "DQD_AR_GBN": "기타", "far": 0.0, "gross_area": 0.0 }, "geometry": { "type": "Polygon", "coordinates": [ [ [ 127.1004619, 37.4044234 ], [ 127.100547, 37.4043748 ], [ 127.1006877, 37.4042945 ], [ 127.1007973, 37.4042319 ], [ 127.1008854, 37.4041816 ], [ 127.100718, 37.403996 ], [ 127.1006317, 37.4040455 ], [ 127.0999355, 37.4044449 ], [ 127.100101, 37.4046293 ], [ 127.1003055, 37.4045126 ], [ 127.1004619, 37.4044234 ] ] ] } },
{ "type": "Feature", "properties": { "element": "way", "id": 692214899, "DQD_AR_GBN": "기타", "far": 0.0, "gross_area": 0.0 }, "geometry": { "type": "Polygon", "coordinates": [ [ [ 127.1033923, 37.4036726 ], [ 127.1031364, 37.4040818 ], [ 127.1030269, 37.4040471 ], [ 127.1030244, 37.4040534 ], [ 127.1029589, 37.404033 ], [ 127.102734, 37.404213 ], [ 127.1028568, 37.4043133 ], [ 127.1031377, 37.4040822 ], [ 127.1032206, 37.4040034 ], [ 127.1033189, 37.4038993 ], [ 127.1033569, 37.4038571 ], [ 127.103377, 37.4038273 ], [ 127.1034254, 37.4037519 ], [ 127.1034528, 37.4036969 ], [ 127.1033923, 37.4036726 ] ] ] } },
{ "type": "Feature", "properties": { "element": "way", "id": 692214900, "DQD_AR_GBN": "기타", "far": 0.0, "gross_area": 0.0 }, "geometry": { "type": "Polygon", "coordinates": [ [ [ 127.1021729, 37.4047225 ], [ 127.102346, 37.4046249 ], [ 127.1022541, 37.4045216 ], [ 127.1020822, 37.4046216 ], [ 127.1021729, 37.4047225 ] ] ] } },
{ "type": "Feature", "properties": { "element": "way", "id": 692216191, "DQD_AR_GBN": "기타", "far": 0.0, "gross_area": 0.0 }, "geometry": { "type": "Polygon", "coordinates": [ [ [ 127.0991082, 37.4034986 ], [ 127.0987902, 37.4032798 ], [ 127.0988258, 37.4032451 ], [ 127.0987863, 37.4032161 ], [ 127.0994462, 37.4026015 ], [ 127.0998056, 37.4028471 ], [ 127.0991082, 37.4034986 ] ] ] } },
{ "type": "Feature", "properties": { "element": "way", "id": 692217487, "DQD_AR_GBN": "기타", "far": 0.0, "gross_area": 0.0 }, "geometry": { "type": "Polygon", "coordinates": [ [ [ 127.099545, 37.4039999 ], [ 127.0994844, 37.4040338 ], [ 127.0993189, 37.4038484 ], [ 127.0993511, 37.40383 ], [ 127.0993125, 37.4037898 ], [ 127.0997713, 37.4034105 ], [ 127.0998855, 37.4034461 ], [ 127.1001539, 37.4035441 ], [ 127.100101, 37.4035915 ], [ 127.1000182, 37.4036669 ], [ 127.0998802, 37.4037949 ], [ 127.0998376, 37.4038344 ], [ 127.0997942, 37.403859 ], [ 127.099545, 37.4039999 ] ] ] } },
{ "type": "Feature", "properties": { "element": "way", "id": 692217489, "DQD_AR_GBN": "기타", "far": 0.0, "gross_area": 0.0 }, "geometry": { "type": "Polygon", "coordinates": [ [ [ 127.0997942, 37.403859 ], [ 127.099888, 37.4039576 ], [ 127.0999836, 37.4039027 ], [ 127.0998802, 37.4037949 ], [ 127.0998376, 37.4038344 ], [ 127.0997942, 37.403859 ] ] ] } },
{ "type": "Feature", "properties": { "element": "way", "id": 692217492, "DQD_AR_GBN": "기타", "far": 0.0, "gross_area": 0.0 }, "geometry": { "type": "Polygon", "coordinates": [ [ [ 127.0998376, 37.4038344 ], [ 127.0998802, 37.4037949 ], [ 127.1000182, 37.4036669 ], [ 127.1001472, 37.4038086 ], [ 127.0999836, 37.4039027 ], [ 127.099888, 37.4039576 ], [ 127.0996386, 37.4041011 ], [ 127.099545, 37.4039999 ], [ 127.0997942, 37.403859 ], [ 127.0998376, 37.4038344 ] ] ] } },
{ "type": "Feature", "properties": { "element": "way", "id": 692217494, "DQD_AR_GBN": "기타", "far": 0.0, "gross_area": 0.0 }, "geometry": { "type": "Polygon", "coordinates": [ [ [ 127.1000756, 37.4038498 ], [ 127.1001472, 37.4038086 ], [ 127.1001962, 37.4037804 ], [ 127.100395, 37.4036661 ], [ 127.1005611, 37.4038483 ], [ 127.1003618, 37.4039629 ], [ 127.0997436, 37.4043184 ], [ 127.0995775, 37.4041362 ], [ 127.0996386, 37.4041011 ], [ 127.099888, 37.4039576 ], [ 127.0999836, 37.4039027 ], [ 127.1000756, 37.4038498 ] ] ] } },
{ "type": "Feature", "properties": { "element": "way", "id": 692379549, "DQD_AR_GBN": "기타", "far": 0.0, "gross_area": 0.0 }, "geometry": { "type": "Polygon", "coordinates": [ [ [ 127.1039827, 37.4025449 ], [ 127.1038661, 37.4025509 ], [ 127.1037459, 37.4027985 ], [ 127.1038589, 37.4027971 ], [ 127.1039827, 37.4025449 ] ] ] } },
{ "type": "Feature", "properties": { "element": "way", "id": 692391453, "DQD_AR_GBN": "기타", "far": 0.0, "gross_area": 0.0 }, "geometry": { "type": "Polygon", "coordinates": [ [ [ 127.1014056, 37.4006769 ], [ 127.1015761, 37.4006772 ], [ 127.1015766, 37.4005099 ], [ 127.1017303, 37.4005102 ], [ 127.1017309, 37.4003062 ], [ 127.1014005, 37.4003056 ], [ 127.1014003, 37.4004029 ], [ 127.1013804, 37.4004028 ], [ 127.1013798, 37.4005923 ], [ 127.1014058, 37.4005923 ], [ 127.1014056, 37.4006769 ] ] ] } },
{ "type": "Feature", "properties": { "element": "way", "id": 692391454, "DQD_AR_GBN": "기타", "far": 0.0, "gross_area": 0.0 }, "geometry": { "type": "Polygon", "coordinates": [ [ [ 127.101188, 37.4005885 ], [ 127.1011623, 37.4005884 ], [ 127.1011618, 37.4007802 ], [ 127.1014053, 37.4007807 ], [ 127.1014056, 37.4006769 ], [ 127.1014058, 37.4005923 ], [ 127.1013798, 37.4005923 ], [ 127.1013794, 37.4007437 ], [ 127.1011876, 37.4007434 ], [ 127.101188, 37.4005885 ] ] ] } },
{ "type": "Feature", "properties": { "element": "way", "id": 692391455, "DQD_AR_GBN": "기타", "far": 0.0, "gross_area": 0.0 }, "geometry": { "type": "Polygon", "coordinates": [ [ [ 127.1014058, 37.4000613 ], [ 127.1014059, 37.4000399 ], [ 127.1018371, 37.4000407 ], [ 127.101837, 37.4000621 ], [ 127.1014058, 37.4000613 ] ] ] } },
{ "type": "Feature", "properties": { "element": "way", "id": 692392120, "DQD_AR_GBN": "기타", "far": 0.0, "gross_area": 0.0 }, "geometry": { "type": "Polygon", "coordinates": [ [ [ 127.1015592, 37.4010775 ], [ 127.1018426, 37.4010772 ], [ 127.1018424, 37.4010127 ], [ 127.1015591, 37.401013 ], [ 127.1015592, 37.4010775 ] ] ] } },
{ "type": "Feature", "properties": { "element": "way", "id": 692392121, "DQD_AR_GBN": "기타", "far": 0.0, "gross_area": 0.0 }, "geometry": { "type": "Polygon", "coordinates": [ [ [ 127.1010656, 37.4017997 ], [ 127.1013034, 37.4017995 ], [ 127.1013035, 37.4018488 ], [ 127.1013994, 37.4018487 ], [ 127.1013989, 37.401563 ], [ 127.1014854, 37.4015629 ], [ 127.1014852, 37.401414 ], [ 127.1015773, 37.4014139 ], [ 127.101577, 37.4012426 ], [ 127.1015595, 37.4012426 ], [ 127.1015592, 37.4010775 ], [ 127.1013343, 37.4010777 ], [ 127.1013348, 37.4013253 ], [ 127.1011807, 37.4013255 ], [ 127.1011811, 37.4015578 ], [ 127.1010652, 37.4015579 ], [ 127.1010656, 37.4017997 ] ] ] } },
{ "type": "Feature", "properties": { "element": "way", "id": 692392122, "DQD_AR_GBN": "기타", "far": 0.0, "gross_area": 0.0 }, "geometry": { "type": "Polygon", "coordinates": [ [ [ 127.1013994, 37.4018487 ], [ 127.1013997, 37.4020197 ], [ 127.1013038, 37.4020198 ], [ 127.1013035, 37.4018488 ], [ 127.1013994, 37.4018487 ] ] ] } },
{ "type": "Feature", "properties": { "element": "way", "id": 692392123, "DQD_AR_GBN": "기타", "far": 0.0, "gross_area": 0.0 }, "geometry": { "type": "Polygon", "coordinates": [ [ [ 127.1009127, 37.4010762 ], [ 127.1013343, 37.4010777 ], [ 127.1013342, 37.4010149 ], [ 127.1009129, 37.4010153 ], [ 127.1009127, 37.4010762 ] ] ] } },
{ "type": "Feature", "properties": { "element": "way", "id": 694423661, "DQD_AR_GBN": "기타", "far": 0.0, "gross_area": 0.0 }, "geometry": { "type": "Polygon", "coordinates": [ [ [ 127.1062084, 37.4047748 ], [ 127.1060482, 37.4047288 ], [ 127.1059021, 37.4046957 ], [ 127.1057236, 37.404666 ], [ 127.1056046, 37.404656 ], [ 127.1054749, 37.4046539 ], [ 127.105253, 37.4048413 ], [ 127.1053523, 37.404903 ], [ 127.1054676, 37.4049701 ], [ 127.1056299, 37.4050463 ], [ 127.1057995, 37.4051047 ], [ 127.1059715, 37.4051434 ], [ 127.106095, 37.405163 ], [ 127.1062929, 37.4051857 ], [ 127.106387, 37.4051863 ], [ 127.1063995, 37.4051267 ], [ 127.1064273, 37.4051319 ], [ 127.1064889, 37.4049718 ], [ 127.106463, 37.4049637 ], [ 127.1064989, 37.4049038 ], [ 127.1063458, 37.4048276 ], [ 127.1062084, 37.4047748 ] ] ] } },
{ "type": "Feature", "properties": { "element": "way", "id": 694423662, "DQD_AR_GBN": "기타", "far": 0.0, "gross_area": 0.0 }, "geometry": { "type": "Polygon", "coordinates": [ [ [ 127.1062819, 37.4044108 ], [ 127.1063241, 37.4043637 ], [ 127.106383, 37.4043116 ], [ 127.1064432, 37.4042627 ], [ 127.1065082, 37.4042241 ], [ 127.1065833, 37.4041868 ], [ 127.1066639, 37.4041528 ], [ 127.1067375, 37.4041262 ], [ 127.1067807, 37.4041177 ], [ 127.1070188, 37.4041152 ], [ 127.1070204, 37.404216 ], [ 127.1069904, 37.4042167 ], [ 127.1069937, 37.4042641 ], [ 127.1064834, 37.404561 ], [ 127.1062819, 37.4044108 ] ] ] } },
{ "type": "Feature", "properties": { "element": "way", "id": 694423663, "DQD_AR_GBN": "기타", "far": 0.0, "gross_area": 0.0 }, "geometry": { "type": "Polygon", "coordinates": [ [ [ 127.1050848, 37.4043509 ], [ 127.1050319, 37.4044537 ], [ 127.1051968, 37.4044855 ], [ 127.105192, 37.4044915 ], [ 127.1052425, 37.4044977 ], [ 127.1053065, 37.4044085 ], [ 127.1052903, 37.4044111 ], [ 127.1052524, 37.4044074 ], [ 127.1050848, 37.4043509 ] ] ] } },
{ "type": "Feature", "properties": { "element": "way", "id": 694426462, "DQD_AR_GBN": "기타", "far": 0.0, "gross_area": 0.0 }, "geometry": { "type": "Polygon", "coordinates": [ [ [ 127.10968, 37.4048265 ], [ 127.1098394, 37.4048255 ], [ 127.1098428, 37.4047178 ], [ 127.1102793, 37.4047148 ], [ 127.1102799, 37.4049298 ], [ 127.1096803, 37.4049309 ], [ 127.10968, 37.4048265 ] ] ] } },
{ "type": "Feature", "properties": { "element": "way", "id": 694426463, "DQD_AR_GBN": "기타", "far": 0.0, "gross_area": 0.0 }, "geometry": { "type": "Polygon", "coordinates": [ [ [ 127.1096179, 37.404436 ], [ 127.1098002, 37.404436 ], [ 127.1098211, 37.4043814 ], [ 127.1098741, 37.4043814 ], [ 127.1098915, 37.4044374 ], [ 127.1100607, 37.4044387 ], [ 127.1100608, 37.4044851 ], [ 127.1096181, 37.4044859 ], [ 127.1096179, 37.404436 ] ] ] } },
{ "type": "Feature", "properties": { "element": "way", "id": 694426464, "DQD_AR_GBN": "기타", "far": 0.0, "gross_area": 0.0 }, "geometry": { "type": "Polygon", "coordinates": [ [ [ 127.1090782, 37.4034074 ], [ 127.1090795, 37.4035391 ], [ 127.1091917, 37.4035384 ], [ 127.1091903, 37.4034066 ], [ 127.1090782, 37.4034074 ] ] ] } },
{ "type": "Feature", "properties": { "element": "way", "id": 694426465, "DQD_AR_GBN": "기타", "far": 0.0, "gross_area": 0.0 }, "geometry": { "type": "Polygon", "coordinates": [ [ [ 127.1087566, 37.4038462 ], [ 127.1094717, 37.4038492 ], [ 127.1094727, 37.403702 ], [ 127.1090178, 37.4037001 ], [ 127.1090193, 37.4034734 ], [ 127.1087591, 37.4034723 ], [ 127.1087566, 37.4038462 ] ] ] } },
{ "type": "Feature", "properties": { "element": "way", "id": 694434544, "DQD_AR_GBN": "기타", "far": 0.0, "gross_area": 0.0 }, "geometry": { "type": "Polygon", "coordinates": [ [ [ 127.1078551, 37.3993134 ], [ 127.1080957, 37.3993144 ], [ 127.1084308, 37.3993159 ], [ 127.1086446, 37.3993148 ], [ 127.1086971, 37.3991909 ], [ 127.1087449, 37.3990723 ], [ 127.1092306, 37.3990718 ], [ 127.1092718, 37.3991923 ], [ 127.10935, 37.3991926 ], [ 127.1093489, 37.3994681 ], [ 127.1087733, 37.3995669 ], [ 127.1084285, 37.3996422 ], [ 127.1084283, 37.3996787 ], [ 127.1078374, 37.3996762 ], [ 127.1078396, 37.399357 ], [ 127.1078548, 37.399357 ], [ 127.1078551, 37.3993134 ] ] ] } },
{ "type": "Feature", "properties": { "element": "way", "id": 694434545, "DQD_AR_GBN": "기타", "far": 0.0, "gross_area": 0.0 }, "geometry": { "type": "Polygon", "coordinates": [ [ [ 127.1087687, 37.3995518 ], [ 127.1093485, 37.3995533 ], [ 127.1093489, 37.3994681 ], [ 127.10935, 37.3991926 ], [ 127.1092718, 37.3991923 ], [ 127.1087678, 37.399191 ], [ 127.1086971, 37.3991909 ], [ 127.1080945, 37.3991893 ], [ 127.108093, 37.3995501 ], [ 127.1087687, 37.3995518 ] ] ] } },
{ "type": "Feature", "properties": { "element": "way", "id": 694434546, "DQD_AR_GBN": "기타", "far": 0.0, "gross_area": 0.0 }, "geometry": { "type": "Polygon", "coordinates": [ [ [ 127.1079255, 37.3996766 ], [ 127.1079271, 37.3994313 ], [ 127.1078391, 37.3994309 ], [ 127.1078374, 37.3996762 ], [ 127.1079255, 37.3996766 ] ] ] } },
{ "type": "Feature", "properties": { "element": "way", "id": 694436286, "DQD_AR_GBN": "기타", "far": 0.0, "gross_area": 0.0 }, "geometry": { "type": "Polygon", "coordinates": [ [ [ 127.1065579, 37.4028726 ], [ 127.1070757, 37.4028724 ], [ 127.1070756, 37.4027681 ], [ 127.1067047, 37.4027683 ], [ 127.1067046, 37.4026307 ], [ 127.1070756, 37.4026305 ], [ 127.1070755, 37.4025423 ], [ 127.1065827, 37.4025425 ], [ 127.1065577, 37.4025425 ], [ 127.1065579, 37.4028726 ] ] ] } },
{ "type": "Feature", "properties": { "element": "way", "id": 1501446628, "DQD_AR_GBN": "기타", "far": 0.0, "gross_area": 0.0 }, "geometry": { "type": "Polygon", "coordinates": [ [ [ 127.1063489, 37.4029521 ], [ 127.106343, 37.4025183 ], [ 127.1056641, 37.4025241 ], [ 127.10567, 37.402958 ], [ 127.1063489, 37.4029521 ] ] ] } }
]
}
